<?xml version="1.0" encoding="UTF-8"?>
<gpx xmlns="http://www.topografix.com/GPX/1/1" xmlns:gpxtpx="http://www.garmin.com/xmlschemas/TrackPointExtension/v1" xmlns:xsi="http://www.w3.org/2001/XMLSchema-instance" xsi:schemaLocation="http://www.topografix.com/GPX/1/1 http://www.topografix.com/GPX/1/1/gpx.xsd" version="1.1" creator="gpx.py -- https://github.com/tkrajina/gpxpy">
  <trk>
    <name>gpx from keep</name>
    <type>Run</type>
    <trkseg>
      <trkpt lat="22.482790681508344" lon="113.93135148534506">
        <ele>9.551510095596313</ele>
        <time>2026-09-03T15:09:01Z</time>
      </trkpt>
      <trkpt lat="22.482839898910555" lon="113.93127715431238">
        <ele>11.062557458877563</ele>
        <time>2026-09-03T15:09:05Z</time>
      </trkpt>
      <trkpt lat="22.482788564475527" lon="113.93124843458307">
        <ele>11.150142619386315</ele>
        <time>2026-09-03T15:09:09Z</time>
      </trkpt>
      <trkpt lat="22.482561631442564" lon="113.93129289020757">
        <ele>8.30645392742008</ele>
        <time>2026-09-03T15:09:20Z</time>
      </trkpt>
      <trkpt lat="22.482269095110905" lon="113.93125902025427">
        <ele>5.004567990079522</ele>
        <time>2026-09-03T15:09:35Z</time>
      </trkpt>
      <trkpt lat="22.48198918545733" lon="113.93117348757528">
        <ele>4.492353394627571</ele>
        <time>2026-09-03T15:09:50Z</time>
      </trkpt>
      <trkpt lat="22.481694481090365" lon="113.93111239978401">
        <ele>5.763266210444272</ele>
        <time>2026-09-03T15:10:05Z</time>
      </trkpt>
      <trkpt lat="22.481400013620174" lon="113.93103758101678">
        <ele>5.88254448864609</ele>
        <time>2026-09-03T15:10:17Z</time>
      </trkpt>
      <trkpt lat="22.481090602382977" lon="113.93107238138957">
        <ele>6.398466096259654</ele>
        <time>2026-09-03T15:10:29Z</time>
      </trkpt>
      <trkpt lat="22.480797552323573" lon="113.93110649437291">
        <ele>4.861998647451401</ele>
        <time>2026-09-03T15:10:41Z</time>
      </trkpt>
      <trkpt lat="22.480489737312134" lon="113.9311431874622">
        <ele>4.216998228803277</ele>
        <time>2026-09-03T15:10:53Z</time>
      </trkpt>
      <trkpt lat="22.48020137777654" lon="113.93116728857231">
        <ele>4.136657651513815</ele>
        <time>2026-09-03T15:11:05Z</time>
      </trkpt>
      <trkpt lat="22.48012191391106" lon="113.93121391692522">
        <ele>1.6628119722008705</ele>
        <time>2026-09-03T15:11:12Z</time>
      </trkpt>
      <trkpt lat="22.48003964200916" lon="113.93121409930164">
        <ele>2.094995940104127</ele>
        <time>2026-09-03T15:11:15Z</time>
      </trkpt>
      <trkpt lat="22.479987507321688" lon="113.93118788893506">
        <ele>1.8538501467555761</ele>
        <time>2026-09-03T15:11:18Z</time>
      </trkpt>
      <trkpt lat="22.47994281409138" lon="113.93111325413939">
        <ele>0.7388426810503006</ele>
        <time>2026-09-03T15:11:21Z</time>
      </trkpt>
      <trkpt lat="22.480036119863186" lon="113.93076889934368">
        <ele>1.6991859190165997</ele>
        <time>2026-09-03T15:11:33Z</time>
      </trkpt>
      <trkpt lat="22.480125019156215" lon="113.93042563444862">
        <ele>1.9731816248968244</ele>
        <time>2026-09-03T15:11:45Z</time>
      </trkpt>
      <trkpt lat="22.48015812785011" lon="113.93017746457394">
        <ele>2.515293573960662</ele>
        <time>2026-09-03T15:11:54Z</time>
      </trkpt>
      <trkpt lat="22.480170364127513" lon="113.929877486682">
        <ele>3.6615589624270797</ele>
        <time>2026-09-03T15:12:09Z</time>
      </trkpt>
      <trkpt lat="22.480198903614827" lon="113.929636854688">
        <ele>3.594259220175445</ele>
        <time>2026-09-03T15:12:21Z</time>
      </trkpt>
      <trkpt lat="22.480328850213898" lon="113.92940539833089">
        <ele>3.143394029699266</ele>
        <time>2026-09-03T15:12:27Z</time>
      </trkpt>
      <trkpt lat="22.480398194113413" lon="113.92908546338609">
        <ele>3.206508105620742</ele>
        <time>2026-09-03T15:12:39Z</time>
      </trkpt>
      <trkpt lat="22.480467370500925" lon="113.92876389887846">
        <ele>2.820152231492102</ele>
        <time>2026-09-03T15:12:51Z</time>
      </trkpt>
      <trkpt lat="22.480501791513447" lon="113.9285970666011">
        <ele>2.0661659045144916</ele>
        <time>2026-09-03T15:12:57Z</time>
      </trkpt>
      <trkpt lat="22.480476240231546" lon="113.92851155201767">
        <ele>3.4081951016560197</ele>
        <time>2026-09-03T15:13:00Z</time>
      </trkpt>
      <trkpt lat="22.480404657827386" lon="113.92845707947104">
        <ele>3.1195237580686808</ele>
        <time>2026-09-03T15:13:03Z</time>
      </trkpt>
      <trkpt lat="22.48044434752463" lon="113.92820711401079">
        <ele>1.3358392491936684</ele>
        <time>2026-09-03T15:13:12Z</time>
      </trkpt>
      <trkpt lat="22.480344943238318" lon="113.92805835919751">
        <ele>2.1736297262832522</ele>
        <time>2026-09-03T15:13:19Z</time>
      </trkpt>
      <trkpt lat="22.4803919405631" lon="113.92797380617804">
        <ele>1.489813670516014</ele>
        <time>2026-09-03T15:13:23Z</time>
      </trkpt>
      <trkpt lat="22.48047470017187" lon="113.92798282916627">
        <ele>1.7736744629219174</ele>
        <time>2026-09-03T15:13:27Z</time>
      </trkpt>
      <trkpt lat="22.480533505246225" lon="113.92796653767437">
        <ele>1.4496846981346607</ele>
        <time>2026-09-03T15:13:30Z</time>
      </trkpt>
      <trkpt lat="22.48055907037194" lon="113.92791077926684">
        <ele>1.8156160525977612</ele>
        <time>2026-09-03T15:13:33Z</time>
      </trkpt>
      <trkpt lat="22.480579682423556" lon="113.92776250555877">
        <ele>1.7750917356461287</ele>
        <time>2026-09-03T15:13:39Z</time>
      </trkpt>
      <trkpt lat="22.48060871010245" lon="113.92766615124296">
        <ele>1.976255713030696</ele>
        <time>2026-09-03T15:13:42Z</time>
      </trkpt>
      <trkpt lat="22.480681293590784" lon="113.92759579902295">
        <ele>1.8058147244155407</ele>
        <time>2026-09-03T15:13:45Z</time>
      </trkpt>
      <trkpt lat="22.480751295526453" lon="113.92756815763052">
        <ele>2.784277595579624</ele>
        <time>2026-09-03T15:13:48Z</time>
      </trkpt>
      <trkpt lat="22.480803358316845" lon="113.9273325493679">
        <ele>3.3773858407512307</ele>
        <time>2026-09-03T15:13:57Z</time>
      </trkpt>
      <trkpt lat="22.480834036123454" lon="113.92725673456803">
        <ele>2.23655186034739</ele>
        <time>2026-09-03T15:14:00Z</time>
      </trkpt>
      <trkpt lat="22.480888873564773" lon="113.92693234115663">
        <ele>1.8920731712132692</ele>
        <time>2026-09-03T15:14:12Z</time>
      </trkpt>
      <trkpt lat="22.480904105731003" lon="113.92685110280333">
        <ele>1.7825820511206985</ele>
        <time>2026-09-03T15:14:15Z</time>
      </trkpt>
      <trkpt lat="22.480941965098935" lon="113.92678023269008">
        <ele>1.6510369954630733</ele>
        <time>2026-09-03T15:14:18Z</time>
      </trkpt>
      <trkpt lat="22.481019664033894" lon="113.92642507605498">
        <ele>1.4007655074819922</ele>
        <time>2026-09-03T15:14:30Z</time>
      </trkpt>
      <trkpt lat="22.48112154099823" lon="113.92609694982482">
        <ele>1.4286377029493451</ele>
        <time>2026-09-03T15:14:42Z</time>
      </trkpt>
      <trkpt lat="22.481178702879596" lon="113.92601235467293">
        <ele>0.5967114698141813</ele>
        <time>2026-09-03T15:14:45Z</time>
      </trkpt>
      <trkpt lat="22.48112139774321" lon="113.92591322839812">
        <ele>1.8064061803743243</ele>
        <time>2026-09-03T15:14:48Z</time>
      </trkpt>
      <trkpt lat="22.481218890071016" lon="113.9256514340992">
        <ele>1.1867537517100573</ele>
        <time>2026-09-03T15:14:57Z</time>
      </trkpt>
      <trkpt lat="22.481283735677085" lon="113.92530257153314">
        <ele>3.1398451225832105</ele>
        <time>2026-09-03T15:15:09Z</time>
      </trkpt>
      <trkpt lat="22.481382407704576" lon="113.92496071410385">
        <ele>2.1565781915560365</ele>
        <time>2026-09-03T15:15:22Z</time>
      </trkpt>
      <trkpt lat="22.481449343953496" lon="113.9246665470801">
        <ele>2.7926984233781695</ele>
        <time>2026-09-03T15:15:34Z</time>
      </trkpt>
      <trkpt lat="22.48148871631747" lon="113.92455776520393">
        <ele>2.7029254911467433</ele>
        <time>2026-09-03T15:15:38Z</time>
      </trkpt>
      <trkpt lat="22.481559610739726" lon="113.92425407353852">
        <ele>2.108797608874738</ele>
        <time>2026-09-03T15:15:50Z</time>
      </trkpt>
      <trkpt lat="22.481585775577663" lon="113.9241400032503">
        <ele>3.196678669191897</ele>
        <time>2026-09-03T15:15:54Z</time>
      </trkpt>
      <trkpt lat="22.48165701186038" lon="113.92398917868495">
        <ele>2.0972326789051294</ele>
        <time>2026-09-03T15:16:00Z</time>
      </trkpt>
      <trkpt lat="22.48166951271643" lon="113.92391336080458">
        <ele>2.2394451908767223</ele>
        <time>2026-09-03T15:16:03Z</time>
      </trkpt>
      <trkpt lat="22.48166168459662" lon="113.92383888126999">
        <ele>2.5367785040289164</ele>
        <time>2026-09-03T15:16:06Z</time>
      </trkpt>
      <trkpt lat="22.481736119650915" lon="113.92379607595609">
        <ele>3.064982476644218</ele>
        <time>2026-09-03T15:16:09Z</time>
      </trkpt>
      <trkpt lat="22.481799830375913" lon="113.92379068644263">
        <ele>3.5265966402366757</ele>
        <time>2026-09-03T15:16:12Z</time>
      </trkpt>
      <trkpt lat="22.48209655198419" lon="113.92370448821575">
        <ele>5.084668145515025</ele>
        <time>2026-09-03T15:16:30Z</time>
      </trkpt>
      <trkpt lat="22.482242252071412" lon="113.92371441932801">
        <ele>5.392851785756648</ele>
        <time>2026-09-03T15:16:36Z</time>
      </trkpt>
      <trkpt lat="22.482513173701786" lon="113.92381526826367">
        <ele>5.307666313834488</ele>
        <time>2026-09-03T15:16:48Z</time>
      </trkpt>
      <trkpt lat="22.48265315914327" lon="113.92381678125952">
        <ele>4.659975444898009</ele>
        <time>2026-09-03T15:16:51Z</time>
      </trkpt>
      <trkpt lat="22.48269912650944" lon="113.92384585086612">
        <ele>3.628920266404748</ele>
        <time>2026-09-03T15:16:54Z</time>
      </trkpt>
      <trkpt lat="22.482788823729397" lon="113.92394759156359">
        <ele>2.5912322215735912</ele>
        <time>2026-09-03T15:17:00Z</time>
      </trkpt>
      <trkpt lat="22.48280821579726" lon="113.92401177821671">
        <ele>1.5274760955944657</ele>
        <time>2026-09-03T15:17:03Z</time>
      </trkpt>
      <trkpt lat="22.482611690957874" lon="113.92399258953296">
        <ele>1.7818550923839211</ele>
        <time>2026-09-03T15:17:12Z</time>
      </trkpt>
      <trkpt lat="22.48254168553764" lon="113.92396081979278">
        <ele>2.773366494104266</ele>
        <time>2026-09-03T15:17:15Z</time>
      </trkpt>
      <trkpt lat="22.482346940052413" lon="113.92393833733017">
        <ele>3.771808162331581</ele>
        <time>2026-09-03T15:17:21Z</time>
      </trkpt>
      <trkpt lat="22.48225783856481" lon="113.9239467789561">
        <ele>5.013032868504524</ele>
        <time>2026-09-03T15:17:24Z</time>
      </trkpt>
      <trkpt lat="22.482181049012194" lon="113.92378722545355">
        <ele>5.8558235159143806</ele>
        <time>2026-09-03T15:17:28Z</time>
      </trkpt>
      <trkpt lat="22.482067255194867" lon="113.92372901407555">
        <ele>5.731154344044626</ele>
        <time>2026-09-03T15:17:32Z</time>
      </trkpt>
      <trkpt lat="22.481969802808656" lon="113.92375365940066">
        <ele>5.603610686957836</ele>
        <time>2026-09-03T15:17:36Z</time>
      </trkpt>
      <trkpt lat="22.481869914846488" lon="113.92381087593647">
        <ele>5.204453187994659</ele>
        <time>2026-09-03T15:17:40Z</time>
      </trkpt>
      <trkpt lat="22.481776231444602" lon="113.9239765654659">
        <ele>4.577940988354385</ele>
        <time>2026-09-03T15:17:48Z</time>
      </trkpt>
      <trkpt lat="22.48175222070245" lon="113.92406244544948">
        <ele>4.353611764498055</ele>
        <time>2026-09-03T15:17:52Z</time>
      </trkpt>
      <trkpt lat="22.48171021996415" lon="113.92413823844365">
        <ele>4.274026325903833</ele>
        <time>2026-09-03T15:17:56Z</time>
      </trkpt>
      <trkpt lat="22.4816449571668" lon="113.9244930671806">
        <ele>5.214886367321014</ele>
        <time>2026-09-03T15:18:10Z</time>
      </trkpt>
      <trkpt lat="22.48156448917747" lon="113.92480282881937">
        <ele>4.748177454806864</ele>
        <time>2026-09-03T15:18:22Z</time>
      </trkpt>
      <trkpt lat="22.481532386485515" lon="113.92494683760728">
        <ele>4.387488178908825</ele>
        <time>2026-09-03T15:18:28Z</time>
      </trkpt>
      <trkpt lat="22.481549959718063" lon="113.92501449655592">
        <ele>4.466611391864717</ele>
        <time>2026-09-03T15:18:31Z</time>
      </trkpt>
      <trkpt lat="22.481540849857726" lon="113.92524635135509">
        <ele>3.8555437177419662</ele>
        <time>2026-09-03T15:18:40Z</time>
      </trkpt>
      <trkpt lat="22.481552014916044" lon="113.92532144425529">
        <ele>4.80250627361238</ele>
        <time>2026-09-03T15:18:43Z</time>
      </trkpt>
      <trkpt lat="22.481574139213947" lon="113.92536469277712">
        <ele>4.993063264526427</ele>
        <time>2026-09-03T15:18:46Z</time>
      </trkpt>
      <trkpt lat="22.481486696283874" lon="113.92566118556985">
        <ele>5.920746497809887</ele>
        <time>2026-09-03T15:18:58Z</time>
      </trkpt>
      <trkpt lat="22.4814652769176" lon="113.92573790552059">
        <ele>6.283788355067372</ele>
        <time>2026-09-03T15:19:01Z</time>
      </trkpt>
      <trkpt lat="22.481432747927283" lon="113.9257927651947">
        <ele>6.497313112951815</ele>
        <time>2026-09-03T15:19:04Z</time>
      </trkpt>
      <trkpt lat="22.481385435206715" lon="113.92611713691487">
        <ele>5.244676299393177</ele>
        <time>2026-09-03T15:19:13Z</time>
      </trkpt>
      <trkpt lat="22.481371089048825" lon="113.9262670548556">
        <ele>4.119600071571767</ele>
        <time>2026-09-03T15:19:19Z</time>
      </trkpt>
      <trkpt lat="22.4813082473402" lon="113.92644983950873">
        <ele>2.5914977937936783</ele>
        <time>2026-09-03T15:19:28Z</time>
      </trkpt>
      <trkpt lat="22.481283138029646" lon="113.92675850583078">
        <ele>2.9453488057479262</ele>
        <time>2026-09-03T15:19:44Z</time>
      </trkpt>
      <trkpt lat="22.481278702115652" lon="113.92682708881574">
        <ele>3.160674092359841</ele>
        <time>2026-09-03T15:19:48Z</time>
      </trkpt>
      <trkpt lat="22.481144556588827" lon="113.92684746235699">
        <ele>3.0924612805247307</ele>
        <time>2026-09-03T15:19:56Z</time>
      </trkpt>
      <trkpt lat="22.480973895251047" lon="113.92694805351351">
        <ele>2.9633622970432043</ele>
        <time>2026-09-03T15:20:00Z</time>
      </trkpt>
      <trkpt lat="22.48090671348777" lon="113.92717860714488">
        <ele>2.933538904413581</ele>
        <time>2026-09-03T15:20:08Z</time>
      </trkpt>
      <trkpt lat="22.480911654077758" lon="113.92725875083188">
        <ele>3.4321362897753716</ele>
        <time>2026-09-03T15:20:12Z</time>
      </trkpt>
      <trkpt lat="22.480835286098763" lon="113.92757207164718">
        <ele>3.7828727094456553</ele>
        <time>2026-09-03T15:20:24Z</time>
      </trkpt>
      <trkpt lat="22.480827843144468" lon="113.92766653424475">
        <ele>4.4432552717626095</ele>
        <time>2026-09-03T15:20:27Z</time>
      </trkpt>
      <trkpt lat="22.480763957418453" lon="113.927820358249">
        <ele>4.045825617387891</ele>
        <time>2026-09-03T15:20:33Z</time>
      </trkpt>
      <trkpt lat="22.480706412929063" lon="113.92782293070987">
        <ele>3.7042691744863987</ele>
        <time>2026-09-03T15:20:36Z</time>
      </trkpt>
      <trkpt lat="22.48060629280916" lon="113.92776519605084">
        <ele>1.965960904955864</ele>
        <time>2026-09-03T15:20:42Z</time>
      </trkpt>
      <trkpt lat="22.480533447308172" lon="113.92783600263739">
        <ele>1.8186365952715278</ele>
        <time>2026-09-03T15:20:48Z</time>
      </trkpt>
      <trkpt lat="22.480510989552222" lon="113.92792948644164">
        <ele>1.6793705020099878</ele>
        <time>2026-09-03T15:20:51Z</time>
      </trkpt>
      <trkpt lat="22.48043262801385" lon="113.92796952060736">
        <ele>1.5097631784155965</ele>
        <time>2026-09-03T15:20:54Z</time>
      </trkpt>
      <trkpt lat="22.48036064952387" lon="113.9279688911252">
        <ele>1.3310222839936614</ele>
        <time>2026-09-03T15:20:57Z</time>
      </trkpt>
      <trkpt lat="22.48034461546178" lon="113.92802783780364">
        <ele>1.1010480038821697</ele>
        <time>2026-09-03T15:21:00Z</time>
      </trkpt>
      <trkpt lat="22.48037448546865" lon="113.92811319137222">
        <ele>0.19968289136886597</ele>
        <time>2026-09-03T15:21:03Z</time>
      </trkpt>
      <trkpt lat="22.480446318713764" lon="113.92813056261305">
        <ele>2.649558447301388</ele>
        <time>2026-09-03T15:21:06Z</time>
      </trkpt>
      <trkpt lat="22.480412159043293" lon="113.92830439403245">
        <ele>1.5518663432449102</ele>
        <time>2026-09-03T15:21:15Z</time>
      </trkpt>
      <trkpt lat="22.48044604276893" lon="113.92846183434463">
        <ele>2.2670265594497323</ele>
        <time>2026-09-03T15:21:18Z</time>
      </trkpt>
      <trkpt lat="22.48052074559611" lon="113.92852475300158">
        <ele>1.9961278140544891</ele>
        <time>2026-09-03T15:21:21Z</time>
      </trkpt>
      <trkpt lat="22.480458602364354" lon="113.92883002463745">
        <ele>3.79064697958529</ele>
        <time>2026-09-03T15:21:33Z</time>
      </trkpt>
      <trkpt lat="22.4804110594024" lon="113.92900549750297">
        <ele>1.7960998006165028</ele>
        <time>2026-09-03T15:21:40Z</time>
      </trkpt>
      <trkpt lat="22.48035276149501" lon="113.92906353851156">
        <ele>2.3995742853730917</ele>
        <time>2026-09-03T15:21:44Z</time>
      </trkpt>
      <trkpt lat="22.48027069399185" lon="113.92924900195985">
        <ele>2.6689828606322408</ele>
        <time>2026-09-03T15:21:52Z</time>
      </trkpt>
      <trkpt lat="22.48023365040321" lon="113.92954401243996">
        <ele>2.1239696899428964</ele>
        <time>2026-09-03T15:22:04Z</time>
      </trkpt>
      <trkpt lat="22.480179295276994" lon="113.92967396640857">
        <ele>2.982463070191443</ele>
        <time>2026-09-03T15:22:12Z</time>
      </trkpt>
      <trkpt lat="22.48009973659162" lon="113.92979690696804">
        <ele>1.9698627702891827</ele>
        <time>2026-09-03T15:22:19Z</time>
      </trkpt>
      <trkpt lat="22.480099077627" lon="113.9299030208394">
        <ele>1.9290393004193902</ele>
        <time>2026-09-03T15:22:22Z</time>
      </trkpt>
      <trkpt lat="22.480043227748165" lon="113.93001714730615">
        <ele>1.1808623522520065</ele>
        <time>2026-09-03T15:22:25Z</time>
      </trkpt>
      <trkpt lat="22.47999074435904" lon="113.93005736972445">
        <ele>1.4102341514080763</ele>
        <time>2026-09-03T15:22:28Z</time>
      </trkpt>
      <trkpt lat="22.479988665753456" lon="113.93021991055959">
        <ele>1.0024283919483423</ele>
        <time>2026-09-03T15:22:34Z</time>
      </trkpt>
      <trkpt lat="22.479913192668505" lon="113.93030978296237">
        <ele>0.7698063785210252</ele>
        <time>2026-09-03T15:22:43Z</time>
      </trkpt>
      <trkpt lat="22.479916357864127" lon="113.93065550305376">
        <ele>1.0929441023617983</ele>
        <time>2026-09-03T15:22:55Z</time>
      </trkpt>
      <trkpt lat="22.479929289485113" lon="113.93072994982865">
        <ele>1.0014289114624262</ele>
        <time>2026-09-03T15:22:58Z</time>
      </trkpt>
      <trkpt lat="22.479908491617955" lon="113.9310521365246">
        <ele>0.3542137313634157</ele>
        <time>2026-09-03T15:23:10Z</time>
      </trkpt>
      <trkpt lat="22.479904737482318" lon="113.93114316345337">
        <ele>0.7824180340394378</ele>
        <time>2026-09-03T15:23:13Z</time>
      </trkpt>
      <trkpt lat="22.479969244018502" lon="113.93120409820038">
        <ele>1.065668735653162</ele>
        <time>2026-09-03T15:23:16Z</time>
      </trkpt>
      <trkpt lat="22.480239843836497" lon="113.93116888138933">
        <ele>2.305948732420802</ele>
        <time>2026-09-03T15:23:25Z</time>
      </trkpt>
      <trkpt lat="22.480414648779526" lon="113.93114219262048">
        <ele>2.15627826936543</ele>
        <time>2026-09-03T15:23:31Z</time>
      </trkpt>
      <trkpt lat="22.480703388639593" lon="113.93111409776924">
        <ele>3.4150250162929296</ele>
        <time>2026-09-03T15:23:40Z</time>
      </trkpt>
      <trkpt lat="22.48107538199463" lon="113.93105704363118">
        <ele>4.3458316270262</ele>
        <time>2026-09-03T15:23:52Z</time>
      </trkpt>
      <trkpt lat="22.481347764692465" lon="113.9310344475964">
        <ele>5.404957014136016</ele>
        <time>2026-09-03T15:24:00Z</time>
      </trkpt>
      <trkpt lat="22.481590308708522" lon="113.93107455299196">
        <ele>5.852588310837746</ele>
        <time>2026-09-03T15:24:08Z</time>
      </trkpt>
      <trkpt lat="22.48171775666897" lon="113.9311107558701">
        <ele>5.066001174040139</ele>
        <time>2026-09-03T15:24:12Z</time>
      </trkpt>
      <trkpt lat="22.481928385414918" lon="113.93113336561369">
        <ele>4.385093787685037</ele>
        <time>2026-09-03T15:24:19Z</time>
      </trkpt>
      <trkpt lat="22.482191356362744" lon="113.93121462877424">
        <ele>5.499667000956833</ele>
        <time>2026-09-03T15:24:28Z</time>
      </trkpt>
      <trkpt lat="22.48239577052193" lon="113.93124891036366">
        <ele>4.7578104278072715</ele>
        <time>2026-09-03T15:24:34Z</time>
      </trkpt>
      <trkpt lat="22.4825644395404" lon="113.93130223361986">
        <ele>5.8044065330177546</ele>
        <time>2026-09-03T15:24:40Z</time>
      </trkpt>
      <trkpt lat="22.482841599458386" lon="113.93129755860156">
        <ele>5.5551206870004535</ele>
        <time>2026-09-03T15:24:49Z</time>
      </trkpt>
      <trkpt lat="22.48296372182317" lon="113.93128198966369">
        <ele>5.4992718528956175</ele>
        <time>2026-09-03T15:24:58Z</time>
      </trkpt>
      <trkpt lat="22.48297447475293" lon="113.93122087129623">
        <ele>7.083686303347349</ele>
        <time>2026-09-03T15:25:10Z</time>
      </trkpt>
      <trkpt lat="22.482859820810564" lon="113.93111641334978">
        <ele>6.879403440281749</ele>
        <time>2026-09-03T15:25:25Z</time>
      </trkpt>
    </trkseg>
  </trk>
</gpx>