<?xml version="1.0" encoding="UTF-8"?>
<gpx xmlns="http://www.topografix.com/GPX/1/1" xmlns:gpxtpx="http://www.garmin.com/xmlschemas/TrackPointExtension/v1" xmlns:xsi="http://www.w3.org/2001/XMLSchema-instance" xsi:schemaLocation="http://www.topografix.com/GPX/1/1 http://www.topografix.com/GPX/1/1/gpx.xsd" version="1.1" creator="gpx.py -- https://github.com/tkrajina/gpxpy">
  <trk>
    <name>gpx from keep</name>
    <type>Run</type>
    <trkseg>
      <trkpt lat="22.48289183760037" lon="113.93128018490813">
        <ele>4.18870759755373</ele>
        <time>2026-08-22T11:04:59Z</time>
      </trkpt>
      <trkpt lat="22.482829169253417" lon="113.93117781973716">
        <ele>5.116099383682013</ele>
        <time>2026-08-22T11:05:02Z</time>
      </trkpt>
      <trkpt lat="22.48276951998742" lon="113.931192061555">
        <ele>5.517363163642585</ele>
        <time>2026-08-22T11:05:05Z</time>
      </trkpt>
      <trkpt lat="22.48264153702501" lon="113.93118050125332">
        <ele>4.560257317498326</ele>
        <time>2026-08-22T11:05:11Z</time>
      </trkpt>
      <trkpt lat="22.482481428806263" lon="113.93111286722437">
        <ele>0.03725373186171055</ele>
        <time>2026-08-22T11:05:23Z</time>
      </trkpt>
      <trkpt lat="22.482218374877736" lon="113.9311880702324">
        <ele>-0.10253186244517565</ele>
        <time>2026-08-22T11:05:26Z</time>
      </trkpt>
      <trkpt lat="22.481984154502378" lon="113.93111330703822">
        <ele>-5.386536676436663</ele>
        <time>2026-08-22T11:05:38Z</time>
      </trkpt>
      <trkpt lat="22.481659515434146" lon="113.93107179734523">
        <ele>0.2880274038761854</ele>
        <time>2026-08-22T11:05:56Z</time>
      </trkpt>
      <trkpt lat="22.48156872674651" lon="113.93106410677316">
        <ele>2.210650890134275</ele>
        <time>2026-08-22T11:06:02Z</time>
      </trkpt>
      <trkpt lat="22.4814671761242" lon="113.93108057780813">
        <ele>3.93476078286767</ele>
        <time>2026-08-22T11:06:08Z</time>
      </trkpt>
      <trkpt lat="22.481414768569024" lon="113.93106693986373">
        <ele>4.5698635540902615</ele>
        <time>2026-08-22T11:06:17Z</time>
      </trkpt>
      <trkpt lat="22.48106097040508" lon="113.9311247783736">
        <ele>5.249637161381543</ele>
        <time>2026-08-22T11:06:36Z</time>
      </trkpt>
      <trkpt lat="22.480778959310317" lon="113.9311490962531">
        <ele>4.429441029205918</ele>
        <time>2026-08-22T11:06:48Z</time>
      </trkpt>
      <trkpt lat="22.4805054673514" lon="113.93117047734394">
        <ele>4.0122615452855825</ele>
        <time>2026-08-22T11:07:00Z</time>
      </trkpt>
      <trkpt lat="22.48017379728788" lon="113.93120309422501">
        <ele>3.0391562515869737</ele>
        <time>2026-08-22T11:07:15Z</time>
      </trkpt>
      <trkpt lat="22.480048569389755" lon="113.93121963031375">
        <ele>1.7319163149222732</ele>
        <time>2026-08-22T11:07:21Z</time>
      </trkpt>
      <trkpt lat="22.479983442248358" lon="113.93118698503532">
        <ele>1.9400851596146822</ele>
        <time>2026-08-22T11:07:24Z</time>
      </trkpt>
      <trkpt lat="22.479941459542086" lon="113.93112368999171">
        <ele>1.5371481217443943</ele>
        <time>2026-08-22T11:07:27Z</time>
      </trkpt>
      <trkpt lat="22.479984539788223" lon="113.93089715510418">
        <ele>0.4481813991442323</ele>
        <time>2026-08-22T11:07:36Z</time>
      </trkpt>
      <trkpt lat="22.47999212026997" lon="113.93075688953311">
        <ele>0.9111855830997229</ele>
        <time>2026-08-22T11:07:42Z</time>
      </trkpt>
      <trkpt lat="22.48006074294123" lon="113.93046204215291">
        <ele>1.256921550258994</ele>
        <time>2026-08-22T11:07:54Z</time>
      </trkpt>
      <trkpt lat="22.480074474699325" lon="113.93016764160699">
        <ele>1.756802223622799</ele>
        <time>2026-08-22T11:08:06Z</time>
      </trkpt>
      <trkpt lat="22.48011456612054" lon="113.93001672341164">
        <ele>1.7037169132381678</ele>
        <time>2026-08-22T11:08:12Z</time>
      </trkpt>
      <trkpt lat="22.480114191432023" lon="113.92980505181941">
        <ele>1.806069009937346</ele>
        <time>2026-08-22T11:08:24Z</time>
      </trkpt>
      <trkpt lat="22.479824526631074" lon="113.92978055935978">
        <ele>1.062557302415371</ele>
        <time>2026-08-22T11:08:31Z</time>
      </trkpt>
      <trkpt lat="22.479830982734768" lon="113.92962794445764">
        <ele>0.1957485545426607</ele>
        <time>2026-08-22T11:08:37Z</time>
      </trkpt>
      <trkpt lat="22.479866594277556" lon="113.92950012508518">
        <ele>0.11639640480279922</ele>
        <time>2026-08-22T11:08:43Z</time>
      </trkpt>
      <trkpt lat="22.479968448423286" lon="113.92938966332328">
        <ele>-0.06788622494786978</ele>
        <time>2026-08-22T11:08:46Z</time>
      </trkpt>
      <trkpt lat="22.480142719412804" lon="113.92911697910203">
        <ele>-0.7672058586031199</ele>
        <time>2026-08-22T11:08:55Z</time>
      </trkpt>
      <trkpt lat="22.480169315791613" lon="113.92905848843314">
        <ele>-1.1303220437839627</ele>
        <time>2026-08-22T11:08:58Z</time>
      </trkpt>
      <trkpt lat="22.480244687174647" lon="113.92900473457847">
        <ele>-1.0263315262272954</ele>
        <time>2026-08-22T11:09:01Z</time>
      </trkpt>
      <trkpt lat="22.48029109778734" lon="113.92894593433176">
        <ele>-0.70177171099931</ele>
        <time>2026-08-22T11:09:04Z</time>
      </trkpt>
      <trkpt lat="22.48036975097678" lon="113.92864280890447">
        <ele>-0.7888355627655983</ele>
        <time>2026-08-22T11:09:19Z</time>
      </trkpt>
      <trkpt lat="22.480412899634818" lon="113.92849413029633">
        <ele>-0.6311003724113107</ele>
        <time>2026-08-22T11:09:25Z</time>
      </trkpt>
      <trkpt lat="22.480409841728736" lon="113.9284335753093">
        <ele>-0.1848763283342123</ele>
        <time>2026-08-22T11:09:28Z</time>
      </trkpt>
      <trkpt lat="22.480343781332518" lon="113.92836105788071">
        <ele>0.07111290283501148</ele>
        <time>2026-08-22T11:09:37Z</time>
      </trkpt>
      <trkpt lat="22.480351262758933" lon="113.92810828518864">
        <ele>-2.009288159199059</ele>
        <time>2026-08-22T11:09:46Z</time>
      </trkpt>
      <trkpt lat="22.480289083950154" lon="113.92807764193698">
        <ele>-0.9370286129415035</ele>
        <time>2026-08-22T11:09:52Z</time>
      </trkpt>
      <trkpt lat="22.480264023138105" lon="113.92798304957063">
        <ele>-1.9136605253443122</ele>
        <time>2026-08-22T11:09:58Z</time>
      </trkpt>
      <trkpt lat="22.480287905471215" lon="113.927898838453">
        <ele>-2.5036199679598212</ele>
        <time>2026-08-22T11:10:01Z</time>
      </trkpt>
      <trkpt lat="22.480337365176766" lon="113.92791015679265">
        <ele>-0.2332091899588704</ele>
        <time>2026-08-22T11:10:07Z</time>
      </trkpt>
      <trkpt lat="22.480385903625525" lon="113.92790084900518">
        <ele>1.7835885528475046</ele>
        <time>2026-08-22T11:10:13Z</time>
      </trkpt>
      <trkpt lat="22.480419218947347" lon="113.92772973217538">
        <ele>0.21038483176380396</ele>
        <time>2026-08-22T11:10:19Z</time>
      </trkpt>
      <trkpt lat="22.4804835985497" lon="113.9275642262654">
        <ele>-0.5931792929768562</ele>
        <time>2026-08-22T11:10:25Z</time>
      </trkpt>
      <trkpt lat="22.480602967027366" lon="113.92747427384857">
        <ele>-2.2100704042240977</ele>
        <time>2026-08-22T11:10:35Z</time>
      </trkpt>
      <trkpt lat="22.480639847645627" lon="113.92740983152801">
        <ele>-1.3423473117873073</ele>
        <time>2026-08-22T11:10:39Z</time>
      </trkpt>
      <trkpt lat="22.48072218997062" lon="113.9270586541663">
        <ele>-0.8478472866117954</ele>
        <time>2026-08-22T11:10:55Z</time>
      </trkpt>
      <trkpt lat="22.48074666225615" lon="113.92697722027218">
        <ele>-1.3467940706759691</ele>
        <time>2026-08-22T11:10:59Z</time>
      </trkpt>
      <trkpt lat="22.480743556064606" lon="113.92689081991736">
        <ele>-0.5052947038784623</ele>
        <time>2026-08-22T11:11:03Z</time>
      </trkpt>
      <trkpt lat="22.480839737470582" lon="113.9265939769363">
        <ele>-0.10405869409441948</ele>
        <time>2026-08-22T11:11:18Z</time>
      </trkpt>
      <trkpt lat="22.48087062516546" lon="113.92646251305241">
        <ele>-0.5761196985840797</ele>
        <time>2026-08-22T11:11:24Z</time>
      </trkpt>
      <trkpt lat="22.480855161880193" lon="113.92634758329058">
        <ele>-0.8700679447501898</ele>
        <time>2026-08-22T11:11:30Z</time>
      </trkpt>
      <trkpt lat="22.48088488093337" lon="113.9262308045265">
        <ele>-0.8796359747648239</ele>
        <time>2026-08-22T11:11:36Z</time>
      </trkpt>
      <trkpt lat="22.480879002702157" lon="113.92602412323316">
        <ele>-0.999508767388761</ele>
        <time>2026-08-22T11:11:48Z</time>
      </trkpt>
      <trkpt lat="22.480800545104383" lon="113.9258522891848">
        <ele>0.6480956133455038</ele>
        <time>2026-08-22T11:12:00Z</time>
      </trkpt>
      <trkpt lat="22.480912259552948" lon="113.92562805564489">
        <ele>1.2689606752246618</ele>
        <time>2026-08-22T11:12:12Z</time>
      </trkpt>
      <trkpt lat="22.481026858717186" lon="113.92553216403117">
        <ele>1.0168799301609397</ele>
        <time>2026-08-22T11:12:15Z</time>
      </trkpt>
      <trkpt lat="22.4811013287977" lon="113.92536944527153">
        <ele>1.0327979139983654</ele>
        <time>2026-08-22T11:12:24Z</time>
      </trkpt>
      <trkpt lat="22.48116663093446" lon="113.92530328530748">
        <ele>0.7685499070212245</ele>
        <time>2026-08-22T11:12:27Z</time>
      </trkpt>
      <trkpt lat="22.481206314678754" lon="113.9251597626709">
        <ele>1.408420261926949</ele>
        <time>2026-08-22T11:12:33Z</time>
      </trkpt>
      <trkpt lat="22.48122493331981" lon="113.92499231416878">
        <ele>0.8945204466581345</ele>
        <time>2026-08-22T11:12:40Z</time>
      </trkpt>
      <trkpt lat="22.481214013316677" lon="113.92492333985723">
        <ele>1.2097738916054368</ele>
        <time>2026-08-22T11:12:44Z</time>
      </trkpt>
      <trkpt lat="22.48122571437507" lon="113.92484408757319">
        <ele>1.6832385463640094</ele>
        <time>2026-08-22T11:12:48Z</time>
      </trkpt>
      <trkpt lat="22.481269461899462" lon="113.92475428789024">
        <ele>1.427622752264142</ele>
        <time>2026-08-22T11:12:52Z</time>
      </trkpt>
      <trkpt lat="22.481367424976007" lon="113.92464060202464">
        <ele>1.4288009898737073</ele>
        <time>2026-08-22T11:12:56Z</time>
      </trkpt>
      <trkpt lat="22.48138710961714" lon="113.9244797122992">
        <ele>1.7213718015700579</ele>
        <time>2026-08-22T11:13:04Z</time>
      </trkpt>
      <trkpt lat="22.481363670116366" lon="113.9244340299768">
        <ele>1.8153347559273243</ele>
        <time>2026-08-22T11:13:08Z</time>
      </trkpt>
      <trkpt lat="22.48138976609784" lon="113.92425590049032">
        <ele>1.7054278049618006</ele>
        <time>2026-08-22T11:13:16Z</time>
      </trkpt>
      <trkpt lat="22.481444152282933" lon="113.92412008382864">
        <ele>1.4299155250191689</ele>
        <time>2026-08-22T11:13:22Z</time>
      </trkpt>
      <trkpt lat="22.481552043361088" lon="113.92391723840963">
        <ele>1.4151463871821761</ele>
        <time>2026-08-22T11:13:31Z</time>
      </trkpt>
      <trkpt lat="22.481561829098197" lon="113.92384762478918">
        <ele>2.2111802343279123</ele>
        <time>2026-08-22T11:13:34Z</time>
      </trkpt>
      <trkpt lat="22.48153887736191" lon="113.92378679673044">
        <ele>1.5529039455577731</ele>
        <time>2026-08-22T11:13:37Z</time>
      </trkpt>
      <trkpt lat="22.48153685276597" lon="113.92372479339915">
        <ele>0.8023681500926614</ele>
        <time>2026-08-22T11:13:40Z</time>
      </trkpt>
      <trkpt lat="22.48147798065842" lon="113.92370935652653">
        <ele>-0.5981758683919907</ele>
        <time>2026-08-22T11:13:49Z</time>
      </trkpt>
      <trkpt lat="22.481593525147325" lon="113.92372798408502">
        <ele>0.8214720170944929</ele>
        <time>2026-08-22T11:13:58Z</time>
      </trkpt>
      <trkpt lat="22.482027681250536" lon="113.92367878767416">
        <ele>2.6498798998072743</ele>
        <time>2026-08-22T11:14:19Z</time>
      </trkpt>
      <trkpt lat="22.48233647818847" lon="113.92367945866842">
        <ele>4.942364610731602</ele>
        <time>2026-08-22T11:14:31Z</time>
      </trkpt>
      <trkpt lat="22.482620851346162" lon="113.92387830357616">
        <ele>4.47015234734863</ele>
        <time>2026-08-22T11:14:47Z</time>
      </trkpt>
      <trkpt lat="22.48273270192964" lon="113.9239536680269">
        <ele>2.2152731716632843</ele>
        <time>2026-08-22T11:14:55Z</time>
      </trkpt>
      <trkpt lat="22.482851956170762" lon="113.92396167890712">
        <ele>1.937345389276743</ele>
        <time>2026-08-22T11:14:59Z</time>
      </trkpt>
      <trkpt lat="22.483069119781003" lon="113.92410264063385">
        <ele>0.8302261782810092</ele>
        <time>2026-08-22T11:15:03Z</time>
      </trkpt>
      <trkpt lat="22.483111717301878" lon="113.92423921854582">
        <ele>1.2367823077365756</ele>
        <time>2026-08-22T11:15:07Z</time>
      </trkpt>
      <trkpt lat="22.48314197451448" lon="113.92452652853248">
        <ele>0.3490966819226742</ele>
        <time>2026-08-22T11:15:11Z</time>
      </trkpt>
      <trkpt lat="22.483130719080577" lon="113.9246959898477">
        <ele>1.881105538457632</ele>
        <time>2026-08-22T11:15:15Z</time>
      </trkpt>
      <trkpt lat="22.483142779548878" lon="113.92477908745641">
        <ele>5.025716196745634</ele>
        <time>2026-08-22T11:15:19Z</time>
      </trkpt>
      <trkpt lat="22.483279823713847" lon="113.924899141688">
        <ele>5.546089319512248</ele>
        <time>2026-08-22T11:15:22Z</time>
      </trkpt>
      <trkpt lat="22.483374688870217" lon="113.92494902291332">
        <ele>5.886811372824013</ele>
        <time>2026-08-22T11:15:25Z</time>
      </trkpt>
      <trkpt lat="22.483343816797912" lon="113.92491035034722">
        <ele>6.255834004841745</ele>
        <time>2026-08-22T11:15:31Z</time>
      </trkpt>
      <trkpt lat="22.483208201193996" lon="113.92489414369194">
        <ele>6.728902026079595</ele>
        <time>2026-08-22T11:15:34Z</time>
      </trkpt>
      <trkpt lat="22.483153845572527" lon="113.92493187913038">
        <ele>6.684885817579925</ele>
        <time>2026-08-22T11:15:37Z</time>
      </trkpt>
      <trkpt lat="22.48339825143398" lon="113.92504227465585">
        <ele>6.616839661262929</ele>
        <time>2026-08-22T11:15:40Z</time>
      </trkpt>
      <trkpt lat="22.48343673458304" lon="113.92527888057931">
        <ele>7.798709106631577</ele>
        <time>2026-08-22T11:15:49Z</time>
      </trkpt>
      <trkpt lat="22.483363999376813" lon="113.92561408616804">
        <ele>6.584247808903456</ele>
        <time>2026-08-22T11:16:01Z</time>
      </trkpt>
      <trkpt lat="22.483360542904233" lon="113.92570053911551">
        <ele>6.739693278446794</ele>
        <time>2026-08-22T11:16:04Z</time>
      </trkpt>
      <trkpt lat="22.483257480058644" lon="113.92560189735781">
        <ele>7.535504934377968</ele>
        <time>2026-08-22T11:16:07Z</time>
      </trkpt>
      <trkpt lat="22.483452740771384" lon="113.92564351039628">
        <ele>7.486820084042847</ele>
        <time>2026-08-22T11:16:16Z</time>
      </trkpt>
      <trkpt lat="22.483505051131452" lon="113.92560879507258">
        <ele>7.635183494538069</ele>
        <time>2026-08-22T11:16:22Z</time>
      </trkpt>
      <trkpt lat="22.483563899697913" lon="113.92560101218314">
        <ele>8.676838857121766</ele>
        <time>2026-08-22T11:16:25Z</time>
      </trkpt>
      <trkpt lat="22.483616333747744" lon="113.92564255931539">
        <ele>8.116164239123464</ele>
        <time>2026-08-22T11:16:28Z</time>
      </trkpt>
      <trkpt lat="22.483686986580963" lon="113.92561268067061">
        <ele>8.544905276037753</ele>
        <time>2026-08-22T11:16:40Z</time>
      </trkpt>
      <trkpt lat="22.483733735715173" lon="113.92557243652429">
        <ele>8.59651548229158</ele>
        <time>2026-08-22T11:16:43Z</time>
      </trkpt>
      <trkpt lat="22.483913347728475" lon="113.92579931182753">
        <ele>8.053714564070106</ele>
        <time>2026-08-22T11:16:46Z</time>
      </trkpt>
      <trkpt lat="22.484039972608468" lon="113.9259013888943">
        <ele>7.972685724496841</ele>
        <time>2026-08-22T11:16:53Z</time>
      </trkpt>
      <trkpt lat="22.4841720373485" lon="113.92588681253342">
        <ele>8.507236226461828</ele>
        <time>2026-08-22T11:16:57Z</time>
      </trkpt>
      <trkpt lat="22.484274838302476" lon="113.92589896829176">
        <ele>8.759017799049616</ele>
        <time>2026-08-22T11:17:01Z</time>
      </trkpt>
      <trkpt lat="22.48436153287581" lon="113.92583296931141">
        <ele>9.027148429304361</ele>
        <time>2026-08-22T11:17:05Z</time>
      </trkpt>
      <trkpt lat="22.484473706338886" lon="113.92580028749417">
        <ele>8.625451960600913</ele>
        <time>2026-08-22T11:17:09Z</time>
      </trkpt>
      <trkpt lat="22.48470692214562" lon="113.9258565323703">
        <ele>8.428619978018105</ele>
        <time>2026-08-22T11:17:16Z</time>
      </trkpt>
      <trkpt lat="22.484857063248825" lon="113.92593214523282">
        <ele>9.021441244520247</ele>
        <time>2026-08-22T11:17:23Z</time>
      </trkpt>
      <trkpt lat="22.484987590543263" lon="113.92596906890839">
        <ele>9.629212908446789</ele>
        <time>2026-08-22T11:17:29Z</time>
      </trkpt>
      <trkpt lat="22.485088586064567" lon="113.92590484921266">
        <ele>9.12981883622706</ele>
        <time>2026-08-22T11:17:35Z</time>
      </trkpt>
      <trkpt lat="22.48519518451762" lon="113.92578073976264">
        <ele>8.7443922245875</ele>
        <time>2026-08-22T11:17:41Z</time>
      </trkpt>
      <trkpt lat="22.485228800259957" lon="113.9255994743295">
        <ele>7.0190619407221675</ele>
        <time>2026-08-22T11:17:47Z</time>
      </trkpt>
      <trkpt lat="22.485101954010368" lon="113.92550612648165">
        <ele>6.374481447972357</ele>
        <time>2026-08-22T11:17:50Z</time>
      </trkpt>
      <trkpt lat="22.485103374964947" lon="113.92542652228296">
        <ele>4.982785946689546</ele>
        <time>2026-08-22T11:17:53Z</time>
      </trkpt>
      <trkpt lat="22.485027952040046" lon="113.92535674412387">
        <ele>3.5521690640598536</ele>
        <time>2026-08-22T11:17:56Z</time>
      </trkpt>
      <trkpt lat="22.485006507911855" lon="113.92516061292866">
        <ele>1.107590340077877</ele>
        <time>2026-08-22T11:18:08Z</time>
      </trkpt>
      <trkpt lat="22.485047811027513" lon="113.92514054045911">
        <ele>1.3452184349298477</ele>
        <time>2026-08-22T11:18:11Z</time>
      </trkpt>
      <trkpt lat="22.48515426681124" lon="113.92517382897583">
        <ele>0.2515516458079219</ele>
        <time>2026-08-22T11:18:17Z</time>
      </trkpt>
      <trkpt lat="22.48541458977429" lon="113.92518413764046">
        <ele>0.4409111626446247</ele>
        <time>2026-08-22T11:18:26Z</time>
      </trkpt>
      <trkpt lat="22.485464877166574" lon="113.92513760463983">
        <ele>0.9989208206534386</ele>
        <time>2026-08-22T11:18:29Z</time>
      </trkpt>
      <trkpt lat="22.485512471647418" lon="113.92503474947308">
        <ele>1.2623126581311226</ele>
        <time>2026-08-22T11:18:32Z</time>
      </trkpt>
      <trkpt lat="22.485538314198994" lon="113.92487399951823">
        <ele>1.2457429273054004</ele>
        <time>2026-08-22T11:18:38Z</time>
      </trkpt>
      <trkpt lat="22.485623463582396" lon="113.92467888319055">
        <ele>1.0284965876489878</ele>
        <time>2026-08-22T11:18:44Z</time>
      </trkpt>
      <trkpt lat="22.48563579341129" lon="113.92454882741936">
        <ele>1.034020932391286</ele>
        <time>2026-08-22T11:18:47Z</time>
      </trkpt>
      <trkpt lat="22.48567030547915" lon="113.92444476094562">
        <ele>1.7063828073441982</ele>
        <time>2026-08-22T11:18:50Z</time>
      </trkpt>
      <trkpt lat="22.4856666261737" lon="113.92435112907206">
        <ele>1.732814154587686</ele>
        <time>2026-08-22T11:18:53Z</time>
      </trkpt>
      <trkpt lat="22.48569417264834" lon="113.92422459710866">
        <ele>1.656183348968625</ele>
        <time>2026-08-22T11:18:57Z</time>
      </trkpt>
      <trkpt lat="22.485800603005924" lon="113.92391165602785">
        <ele>1.932657677680254</ele>
        <time>2026-08-22T11:19:09Z</time>
      </trkpt>
      <trkpt lat="22.48583015283223" lon="113.92383588097796">
        <ele>3.084994288161397</ele>
        <time>2026-08-22T11:19:12Z</time>
      </trkpt>
      <trkpt lat="22.48585193368565" lon="113.92368848669791">
        <ele>2.0598094388842583</ele>
        <time>2026-08-22T11:19:18Z</time>
      </trkpt>
      <trkpt lat="22.485892168276028" lon="113.92364123464003">
        <ele>1.7121449187397957</ele>
        <time>2026-08-22T11:19:21Z</time>
      </trkpt>
      <trkpt lat="22.485876865371115" lon="113.92359414257466">
        <ele>1.424786333926022</ele>
        <time>2026-08-22T11:19:27Z</time>
      </trkpt>
      <trkpt lat="22.48579748749516" lon="113.92357160351933">
        <ele>0.8887171326205134</ele>
        <time>2026-08-22T11:19:39Z</time>
      </trkpt>
      <trkpt lat="22.48581812935251" lon="113.92351892906437">
        <ele>1.0308078359812498</ele>
        <time>2026-08-22T11:19:42Z</time>
      </trkpt>
      <trkpt lat="22.48577583372683" lon="113.92347435967905">
        <ele>0.7463004970923066</ele>
        <time>2026-08-22T11:19:45Z</time>
      </trkpt>
      <trkpt lat="22.485818586236103" lon="113.92338247961344">
        <ele>0.577858748845756</ele>
        <time>2026-08-22T11:19:48Z</time>
      </trkpt>
      <trkpt lat="22.48596028979671" lon="113.92335260318008">
        <ele>0.5402224455028772</ele>
        <time>2026-08-22T11:19:51Z</time>
      </trkpt>
      <trkpt lat="22.48598717311782" lon="113.92328111584267">
        <ele>1.5496617443859577</ele>
        <time>2026-08-22T11:19:54Z</time>
      </trkpt>
      <trkpt lat="22.485952168473265" lon="113.92317977508309">
        <ele>1.2111891955137253</ele>
        <time>2026-08-22T11:19:57Z</time>
      </trkpt>
      <trkpt lat="22.485955045549314" lon="113.9230467897816">
        <ele>0.11973852291703224</ele>
        <time>2026-08-22T11:20:03Z</time>
      </trkpt>
      <trkpt lat="22.485863427637383" lon="113.9230889809293">
        <ele>0.8375874487683177</ele>
        <time>2026-08-22T11:20:06Z</time>
      </trkpt>
      <trkpt lat="22.485849117353734" lon="113.92298299806437">
        <ele>0.11414172779768705</ele>
        <time>2026-08-22T11:20:12Z</time>
      </trkpt>
      <trkpt lat="22.485960870587785" lon="113.92286645559754">
        <ele>0.1805663900449872</ele>
        <time>2026-08-22T11:20:18Z</time>
      </trkpt>
      <trkpt lat="22.486062279451293" lon="113.92285605130091">
        <ele>0.8540266081690788</ele>
        <time>2026-08-22T11:20:21Z</time>
      </trkpt>
      <trkpt lat="22.486379976674094" lon="113.9229746497735">
        <ele>-1.5743511263281107</ele>
        <time>2026-08-22T11:20:27Z</time>
      </trkpt>
      <trkpt lat="22.48641623850729" lon="113.92294062005122">
        <ele>0.7030086405575275</ele>
        <time>2026-08-22T11:20:33Z</time>
      </trkpt>
      <trkpt lat="22.486797646816314" lon="113.92305285418503">
        <ele>2.4738895082846284</ele>
        <time>2026-08-22T11:20:48Z</time>
      </trkpt>
      <trkpt lat="22.486878249992035" lon="113.92305803026254">
        <ele>3.2342986054718494</ele>
        <time>2026-08-22T11:20:51Z</time>
      </trkpt>
      <trkpt lat="22.486943970650703" lon="113.92302230173125">
        <ele>4.101767120882869</ele>
        <time>2026-08-22T11:20:54Z</time>
      </trkpt>
      <trkpt lat="22.48697219399901" lon="113.92298364386986">
        <ele>2.8991433503106236</ele>
        <time>2026-08-22T11:20:57Z</time>
      </trkpt>
      <trkpt lat="22.48698177961102" lon="113.9229306195169">
        <ele>3.157869888469577</ele>
        <time>2026-08-22T11:21:00Z</time>
      </trkpt>
      <trkpt lat="22.486925633143173" lon="113.92273068096722">
        <ele>1.9951052395626903</ele>
        <time>2026-08-22T11:21:08Z</time>
      </trkpt>
      <trkpt lat="22.48696610868465" lon="113.92265839722374">
        <ele>1.5401803301647305</ele>
        <time>2026-08-22T11:21:12Z</time>
      </trkpt>
      <trkpt lat="22.486873649438657" lon="113.92259684623407">
        <ele>1.6290211277082562</ele>
        <time>2026-08-22T11:21:16Z</time>
      </trkpt>
      <trkpt lat="22.48699959811831" lon="113.92245516750567">
        <ele>1.0303947599604726</ele>
        <time>2026-08-22T11:21:22Z</time>
      </trkpt>
      <trkpt lat="22.486958239870596" lon="113.92242382934768">
        <ele>2.048586707562208</ele>
        <time>2026-08-22T11:21:25Z</time>
      </trkpt>
      <trkpt lat="22.48693588791092" lon="113.92235671777237">
        <ele>0.2438326245173812</ele>
        <time>2026-08-22T11:21:28Z</time>
      </trkpt>
      <trkpt lat="22.48702873709042" lon="113.92226555989681">
        <ele>1.1141135888174176</ele>
        <time>2026-08-22T11:21:31Z</time>
      </trkpt>
      <trkpt lat="22.487025031725242" lon="113.92220701125093">
        <ele>1.4567340025678277</ele>
        <time>2026-08-22T11:21:34Z</time>
      </trkpt>
      <trkpt lat="22.48710949774024" lon="113.9220705930777">
        <ele>1.451663425192237</ele>
        <time>2026-08-22T11:21:40Z</time>
      </trkpt>
      <trkpt lat="22.487093591984955" lon="113.92200241460618">
        <ele>1.587000995874405</ele>
        <time>2026-08-22T11:21:46Z</time>
      </trkpt>
      <trkpt lat="22.487242601456067" lon="113.92172173316384">
        <ele>0.7513520969077945</ele>
        <time>2026-08-22T11:21:55Z</time>
      </trkpt>
      <trkpt lat="22.487266586223143" lon="113.9215952020325">
        <ele>1.9282465036958456</ele>
        <time>2026-08-22T11:22:01Z</time>
      </trkpt>
      <trkpt lat="22.48718655986844" lon="113.92148674800521">
        <ele>1.0976262846961617</ele>
        <time>2026-08-22T11:22:13Z</time>
      </trkpt>
      <trkpt lat="22.487166439126405" lon="113.92135628068051">
        <ele>0.855194715783</ele>
        <time>2026-08-22T11:22:19Z</time>
      </trkpt>
      <trkpt lat="22.487109007752377" lon="113.92127291503752">
        <ele>1.79034071136266</ele>
        <time>2026-08-22T11:22:25Z</time>
      </trkpt>
      <trkpt lat="22.48703162230794" lon="113.92121428914578">
        <ele>1.8156025521457195</ele>
        <time>2026-08-22T11:22:31Z</time>
      </trkpt>
      <trkpt lat="22.486980222891468" lon="113.92119559256598">
        <ele>2.0844848919659853</ele>
        <time>2026-08-22T11:22:34Z</time>
      </trkpt>
      <trkpt lat="22.486922313434516" lon="113.92107791402725">
        <ele>1.9136852584779263</ele>
        <time>2026-08-22T11:22:40Z</time>
      </trkpt>
      <trkpt lat="22.486769196470195" lon="113.92097303123171">
        <ele>1.8287765821442008</ele>
        <time>2026-08-22T11:22:46Z</time>
      </trkpt>
      <trkpt lat="22.486686874678277" lon="113.9207212979456">
        <ele>0.8774830857291818</ele>
        <time>2026-08-22T11:22:58Z</time>
      </trkpt>
      <trkpt lat="22.48665722731491" lon="113.92068179804787">
        <ele>0.6275054980069399</ele>
        <time>2026-08-22T11:23:01Z</time>
      </trkpt>
      <trkpt lat="22.486774757505895" lon="113.9202946148324">
        <ele>1.02896258700639</ele>
        <time>2026-08-22T11:23:11Z</time>
      </trkpt>
      <trkpt lat="22.486725488167625" lon="113.92002650729931">
        <ele>1.314620510675013</ele>
        <time>2026-08-22T11:23:20Z</time>
      </trkpt>
      <trkpt lat="22.48674592130165" lon="113.91996726927191">
        <ele>0.5593678671866655</ele>
        <time>2026-08-22T11:23:23Z</time>
      </trkpt>
      <trkpt lat="22.486705975130267" lon="113.91999234735123">
        <ele>-0.23869558796286583</ele>
        <time>2026-08-22T11:23:29Z</time>
      </trkpt>
      <trkpt lat="22.48667919124166" lon="113.91991234008931">
        <ele>0.6054214695468545</ele>
        <time>2026-08-22T11:23:35Z</time>
      </trkpt>
      <trkpt lat="22.486873487014677" lon="113.91978865112732">
        <ele>0.40649677999317646</ele>
        <time>2026-08-22T11:23:44Z</time>
      </trkpt>
      <trkpt lat="22.486915390621242" lon="113.91970088058495">
        <ele>1.0861575296148658</ele>
        <time>2026-08-22T11:23:47Z</time>
      </trkpt>
      <trkpt lat="22.48709101865867" lon="113.91959082469361">
        <ele>0.8270022533833981</ele>
        <time>2026-08-22T11:23:53Z</time>
      </trkpt>
      <trkpt lat="22.487123240439466" lon="113.91950643961333">
        <ele>0.7610790682956576</ele>
        <time>2026-08-22T11:23:56Z</time>
      </trkpt>
      <trkpt lat="22.48712788393942" lon="113.9194433433232">
        <ele>0.8915948048233986</ele>
        <time>2026-08-22T11:23:59Z</time>
      </trkpt>
      <trkpt lat="22.487207200952582" lon="113.91940463728048">
        <ele>0.5968095855787396</ele>
        <time>2026-08-22T11:24:02Z</time>
      </trkpt>
      <trkpt lat="22.487395510189067" lon="113.9191787626681">
        <ele>1.0974823171272874</ele>
        <time>2026-08-22T11:24:14Z</time>
      </trkpt>
      <trkpt lat="22.48737319521891" lon="113.9191242427081">
        <ele>0.12925608921796083</ele>
        <time>2026-08-22T11:24:20Z</time>
      </trkpt>
      <trkpt lat="22.48742762807607" lon="113.91907365942504">
        <ele>0.2795584350824356</ele>
        <time>2026-08-22T11:24:23Z</time>
      </trkpt>
      <trkpt lat="22.48739539824847" lon="113.91902670689049">
        <ele>0.13592845108360052</ele>
        <time>2026-08-22T11:24:26Z</time>
      </trkpt>
      <trkpt lat="22.48744377880918" lon="113.9189563764263">
        <ele>0.35890561155974865</ele>
        <time>2026-08-22T11:24:29Z</time>
      </trkpt>
      <trkpt lat="22.487474170373357" lon="113.91878974291502">
        <ele>0.9163846122100949</ele>
        <time>2026-08-22T11:24:35Z</time>
      </trkpt>
      <trkpt lat="22.48749527958929" lon="113.91857972463376">
        <ele>1.119405715726316</ele>
        <time>2026-08-22T11:24:41Z</time>
      </trkpt>
      <trkpt lat="22.48752048632199" lon="113.91847451287452">
        <ele>0.6858456674963236</ele>
        <time>2026-08-22T11:24:44Z</time>
      </trkpt>
      <trkpt lat="22.48751389885999" lon="113.91832225707117">
        <ele>1.5058981413021684</ele>
        <time>2026-08-22T11:24:50Z</time>
      </trkpt>
      <trkpt lat="22.487550837865566" lon="113.9182629985768">
        <ele>1.7711346819996834</ele>
        <time>2026-08-22T11:24:56Z</time>
      </trkpt>
      <trkpt lat="22.487508936987044" lon="113.91808989248307">
        <ele>1.5414248080924153</ele>
        <time>2026-08-22T11:25:05Z</time>
      </trkpt>
      <trkpt lat="22.4875111508317" lon="113.91795001573229">
        <ele>0.7849653260782361</ele>
        <time>2026-08-22T11:25:11Z</time>
      </trkpt>
      <trkpt lat="22.48754267109477" lon="113.91786944234627">
        <ele>1.1045044027268887</ele>
        <time>2026-08-22T11:25:18Z</time>
      </trkpt>
      <trkpt lat="22.48749975152776" lon="113.9176662061099">
        <ele>1.2574892146512866</ele>
        <time>2026-08-22T11:25:24Z</time>
      </trkpt>
      <trkpt lat="22.487463650759583" lon="113.91760602295267">
        <ele>1.6718520699068904</ele>
        <time>2026-08-22T11:25:27Z</time>
      </trkpt>
      <trkpt lat="22.487516028754442" lon="113.91751137236467">
        <ele>1.574723699130118</ele>
        <time>2026-08-22T11:25:30Z</time>
      </trkpt>
      <trkpt lat="22.487524131430785" lon="113.91721309047988">
        <ele>0.5651276633143425</ele>
        <time>2026-08-22T11:25:42Z</time>
      </trkpt>
      <trkpt lat="22.487556701906414" lon="113.9170031668016">
        <ele>0.983611966483295</ele>
        <time>2026-08-22T11:25:51Z</time>
      </trkpt>
      <trkpt lat="22.487548528948896" lon="113.91688830943242">
        <ele>0.8774408036842942</ele>
        <time>2026-08-22T11:25:57Z</time>
      </trkpt>
      <trkpt lat="22.487514235858484" lon="113.91682982129787">
        <ele>1.1563700996339321</ele>
        <time>2026-08-22T11:26:00Z</time>
      </trkpt>
      <trkpt lat="22.487499000660314" lon="113.9167661730351">
        <ele>1.1366060469299555</ele>
        <time>2026-08-22T11:26:09Z</time>
      </trkpt>
      <trkpt lat="22.48741847126836" lon="113.91664122048462">
        <ele>1.2143882820382714</ele>
        <time>2026-08-22T11:26:27Z</time>
      </trkpt>
      <trkpt lat="22.487414176343673" lon="113.91669120959081">
        <ele>0.8425876572728157</ele>
        <time>2026-08-22T11:26:30Z</time>
      </trkpt>
      <trkpt lat="22.487310895473506" lon="113.9167027586606">
        <ele>0.8612677678465843</ele>
        <time>2026-08-22T11:26:39Z</time>
      </trkpt>
      <trkpt lat="22.487251314452937" lon="113.91674387628123">
        <ele>0.9190392401069403</ele>
        <time>2026-08-22T11:26:42Z</time>
      </trkpt>
      <trkpt lat="22.487036105953763" lon="113.91675048444905">
        <ele>0.6834902781993151</ele>
        <time>2026-08-22T11:26:54Z</time>
      </trkpt>
      <trkpt lat="22.486916407258178" lon="113.91683453926174">
        <ele>0.4105027783662081</ele>
        <time>2026-08-22T11:26:57Z</time>
      </trkpt>
      <trkpt lat="22.48674032478076" lon="113.91689209153256">
        <ele>1.103327157907188</ele>
        <time>2026-08-22T11:27:03Z</time>
      </trkpt>
      <trkpt lat="22.48667093371477" lon="113.91688815722945">
        <ele>0.945856916718185</ele>
        <time>2026-08-22T11:27:06Z</time>
      </trkpt>
      <trkpt lat="22.48661064124663" lon="113.9169304097434">
        <ele>1.2239316124469042</ele>
        <time>2026-08-22T11:27:09Z</time>
      </trkpt>
      <trkpt lat="22.486336194842345" lon="113.91703150788236">
        <ele>1.5692673632875085</ele>
        <time>2026-08-22T11:27:22Z</time>
      </trkpt>
      <trkpt lat="22.48624653500131" lon="113.91698522136984">
        <ele>0.8808417487889528</ele>
        <time>2026-08-22T11:27:28Z</time>
      </trkpt>
      <trkpt lat="22.48606710097678" lon="113.91698612986283">
        <ele>0.7415873445570469</ele>
        <time>2026-08-22T11:27:37Z</time>
      </trkpt>
      <trkpt lat="22.48581247064179" lon="113.91704977555283">
        <ele>1.2201574128121138</ele>
        <time>2026-08-22T11:27:49Z</time>
      </trkpt>
      <trkpt lat="22.485726645038866" lon="113.91712015583721">
        <ele>1.1160464100539684</ele>
        <time>2026-08-22T11:27:52Z</time>
      </trkpt>
      <trkpt lat="22.48565338962216" lon="113.91715090811331">
        <ele>1.3305287770926952</ele>
        <time>2026-08-22T11:27:55Z</time>
      </trkpt>
      <trkpt lat="22.485459165011616" lon="113.91714335187763">
        <ele>1.7698656795546412</ele>
        <time>2026-08-22T11:28:10Z</time>
      </trkpt>
      <trkpt lat="22.485354247257415" lon="113.91711780484908">
        <ele>2.9618234802037477</ele>
        <time>2026-08-22T11:28:16Z</time>
      </trkpt>
      <trkpt lat="22.485199853036736" lon="113.91716040945616">
        <ele>4.871551181189716</ele>
        <time>2026-08-22T11:28:22Z</time>
      </trkpt>
      <trkpt lat="22.485160450221905" lon="113.91712469569327">
        <ele>5.2046071868389845</ele>
        <time>2026-08-22T11:28:25Z</time>
      </trkpt>
      <trkpt lat="22.48504605607333" lon="113.91714273777923">
        <ele>5.128960993140936</ele>
        <time>2026-08-22T11:28:31Z</time>
      </trkpt>
      <trkpt lat="22.48487854501981" lon="113.91721365243721">
        <ele>5.43853210285306</ele>
        <time>2026-08-22T11:28:40Z</time>
      </trkpt>
      <trkpt lat="22.484772345304656" lon="113.9172257960639">
        <ele>5.621003143489361</ele>
        <time>2026-08-22T11:28:46Z</time>
      </trkpt>
      <trkpt lat="22.484587918064808" lon="113.91728786958825">
        <ele>5.399947864934802</ele>
        <time>2026-08-22T11:28:55Z</time>
      </trkpt>
      <trkpt lat="22.48448104061268" lon="113.91729712404606">
        <ele>5.530509354546666</ele>
        <time>2026-08-22T11:28:58Z</time>
      </trkpt>
      <trkpt lat="22.4844350822194" lon="113.91725734151373">
        <ele>5.118561958894134</ele>
        <time>2026-08-22T11:29:04Z</time>
      </trkpt>
      <trkpt lat="22.484413208891436" lon="113.91720735163945">
        <ele>4.872068041935563</ele>
        <time>2026-08-22T11:29:10Z</time>
      </trkpt>
      <trkpt lat="22.48449392956169" lon="113.91718000313442">
        <ele>5.766858582384884</ele>
        <time>2026-08-22T11:29:13Z</time>
      </trkpt>
      <trkpt lat="22.48488163163212" lon="113.91720498105016">
        <ele>6.072942671366036</ele>
        <time>2026-08-22T11:29:38Z</time>
      </trkpt>
      <trkpt lat="22.484964350945003" lon="113.91722093236328">
        <ele>5.23235709965229</ele>
        <time>2026-08-22T11:29:41Z</time>
      </trkpt>
      <trkpt lat="22.48512178289597" lon="113.9171924167995">
        <ele>4.883921419270337</ele>
        <time>2026-08-22T11:29:47Z</time>
      </trkpt>
      <trkpt lat="22.485200847184153" lon="113.91719777583747">
        <ele>4.981682184152305</ele>
        <time>2026-08-22T11:29:50Z</time>
      </trkpt>
      <trkpt lat="22.485332296959218" lon="113.91715043653947">
        <ele>4.4571798499673605</ele>
        <time>2026-08-22T11:29:56Z</time>
      </trkpt>
      <trkpt lat="22.485528914028485" lon="113.91711078356622">
        <ele>2.677096866071224</ele>
        <time>2026-08-22T11:30:05Z</time>
      </trkpt>
      <trkpt lat="22.48560777184018" lon="113.91717120274151">
        <ele>2.0499407835304737</ele>
        <time>2026-08-22T11:30:08Z</time>
      </trkpt>
      <trkpt lat="22.485731049089072" lon="113.91716750783529">
        <ele>1.5979986255988479</ele>
        <time>2026-08-22T11:30:14Z</time>
      </trkpt>
      <trkpt lat="22.48577333064613" lon="113.91713469320266">
        <ele>1.427792789414525</ele>
        <time>2026-08-22T11:30:17Z</time>
      </trkpt>
      <trkpt lat="22.485981700461945" lon="113.91712509159473">
        <ele>1.0781933842226863</ele>
        <time>2026-08-22T11:30:29Z</time>
      </trkpt>
      <trkpt lat="22.486099643679953" lon="113.91714639226467">
        <ele>1.0817702924832702</ele>
        <time>2026-08-22T11:30:35Z</time>
      </trkpt>
      <trkpt lat="22.486207587332082" lon="113.91705258399831">
        <ele>1.0418373476713896</ele>
        <time>2026-08-22T11:30:38Z</time>
      </trkpt>
      <trkpt lat="22.48630847148015" lon="113.91692075953802">
        <ele>0.609318507835269</ele>
        <time>2026-08-22T11:30:44Z</time>
      </trkpt>
      <trkpt lat="22.486378954981145" lon="113.91688469150168">
        <ele>0.8518243804574013</ele>
        <time>2026-08-22T11:30:47Z</time>
      </trkpt>
      <trkpt lat="22.486473192941467" lon="113.91687343383663">
        <ele>0.7528239013627172</ele>
        <time>2026-08-22T11:30:50Z</time>
      </trkpt>
      <trkpt lat="22.486538511587554" lon="113.91688240950687">
        <ele>0.9292878108099103</ele>
        <time>2026-08-22T11:30:53Z</time>
      </trkpt>
      <trkpt lat="22.486608183850755" lon="113.91686776883901">
        <ele>1.4187102746218443</ele>
        <time>2026-08-22T11:30:56Z</time>
      </trkpt>
      <trkpt lat="22.486687186079397" lon="113.91690281820057">
        <ele>1.1095073986798525</ele>
        <time>2026-08-22T11:30:59Z</time>
      </trkpt>
      <trkpt lat="22.486865997427604" lon="113.9168872436019">
        <ele>0.7837958056479692</ele>
        <time>2026-08-22T11:31:08Z</time>
      </trkpt>
      <trkpt lat="22.48690865837625" lon="113.91691167174048">
        <ele>0.8230301514267921</ele>
        <time>2026-08-22T11:31:11Z</time>
      </trkpt>
      <trkpt lat="22.486948124527455" lon="113.91688448594724">
        <ele>0.6774158803746104</ele>
        <time>2026-08-22T11:31:17Z</time>
      </trkpt>
      <trkpt lat="22.487004184398263" lon="113.91688398837421">
        <ele>0.7428365433588624</ele>
        <time>2026-08-22T11:31:23Z</time>
      </trkpt>
      <trkpt lat="22.487156521918397" lon="113.9167779840562">
        <ele>1.1581640904769301</ele>
        <time>2026-08-22T11:31:33Z</time>
      </trkpt>
      <trkpt lat="22.487260553191316" lon="113.91676566947237">
        <ele>1.3774792812764645</ele>
        <time>2026-08-22T11:31:37Z</time>
      </trkpt>
      <trkpt lat="22.48749621912779" lon="113.91701897701336">
        <ele>0.7167883245274425</ele>
        <time>2026-08-22T11:31:41Z</time>
      </trkpt>
      <trkpt lat="22.4875887274495" lon="113.91718002255547">
        <ele>1.2114700581878424</ele>
        <time>2026-08-22T11:31:45Z</time>
      </trkpt>
      <trkpt lat="22.487675780642565" lon="113.91730420668722">
        <ele>0.8400750597938895</ele>
        <time>2026-08-22T11:31:51Z</time>
      </trkpt>
      <trkpt lat="22.487632962512272" lon="113.91742479485332">
        <ele>1.8842273447662592</ele>
        <time>2026-08-22T11:31:57Z</time>
      </trkpt>
      <trkpt lat="22.487614575900462" lon="113.91759719365984">
        <ele>1.9486040323972702</ele>
        <time>2026-08-22T11:32:09Z</time>
      </trkpt>
      <trkpt lat="22.487620749995706" lon="113.91766208337114">
        <ele>2.0219120597466826</ele>
        <time>2026-08-22T11:32:12Z</time>
      </trkpt>
      <trkpt lat="22.487590902996903" lon="113.9177374283005">
        <ele>2.603886865079403</ele>
        <time>2026-08-22T11:32:21Z</time>
      </trkpt>
      <trkpt lat="22.487612576551452" lon="113.91790135147254">
        <ele>2.2483335146680474</ele>
        <time>2026-08-22T11:32:24Z</time>
      </trkpt>
      <trkpt lat="22.487579480021" lon="113.91803854723047">
        <ele>2.7027256144210696</ele>
        <time>2026-08-22T11:32:27Z</time>
      </trkpt>
      <trkpt lat="22.48760875745492" lon="113.91833780565337">
        <ele>2.8809667443856597</ele>
        <time>2026-08-22T11:32:36Z</time>
      </trkpt>
      <trkpt lat="22.487607939955144" lon="113.91858887386007">
        <ele>2.9983484093099833</ele>
        <time>2026-08-22T11:32:51Z</time>
      </trkpt>
      <trkpt lat="22.487572493244784" lon="113.91866036606878">
        <ele>2.6047400645911694</ele>
        <time>2026-08-22T11:32:57Z</time>
      </trkpt>
      <trkpt lat="22.48761268922291" lon="113.91873925764195">
        <ele>3.296252142637968</ele>
        <time>2026-08-22T11:33:00Z</time>
      </trkpt>
      <trkpt lat="22.487558840112893" lon="113.91893956274829">
        <ele>2.6353877652436495</ele>
        <time>2026-08-22T11:33:09Z</time>
      </trkpt>
      <trkpt lat="22.487584370019864" lon="113.91901698611592">
        <ele>3.3397069284692407</ele>
        <time>2026-08-22T11:33:12Z</time>
      </trkpt>
      <trkpt lat="22.487580198575433" lon="113.9192454077277">
        <ele>1.568156262859702</ele>
        <time>2026-08-22T11:33:21Z</time>
      </trkpt>
      <trkpt lat="22.487555290693464" lon="113.91930605716324">
        <ele>2.7072937842458487</ele>
        <time>2026-08-22T11:33:24Z</time>
      </trkpt>
      <trkpt lat="22.487501134070747" lon="113.91935679366814">
        <ele>2.5249714627861977</ele>
        <time>2026-08-22T11:33:27Z</time>
      </trkpt>
      <trkpt lat="22.487476804145327" lon="113.91940598556386">
        <ele>2.2975470814853907</ele>
        <time>2026-08-22T11:33:30Z</time>
      </trkpt>
      <trkpt lat="22.48738667636634" lon="113.91942036245618">
        <ele>2.045562800951302</ele>
        <time>2026-08-22T11:33:33Z</time>
      </trkpt>
      <trkpt lat="22.48738445149453" lon="113.91948325995777">
        <ele>1.4429983058944345</ele>
        <time>2026-08-22T11:33:36Z</time>
      </trkpt>
      <trkpt lat="22.487345737600677" lon="113.91954606856187">
        <ele>2.031991350464523</ele>
        <time>2026-08-22T11:33:40Z</time>
      </trkpt>
      <trkpt lat="22.487284688010273" lon="113.91955457697317">
        <ele>1.8257437441498041</ele>
        <time>2026-08-22T11:33:44Z</time>
      </trkpt>
      <trkpt lat="22.48724890107751" lon="113.9196084493358">
        <ele>1.5259285271167755</ele>
        <time>2026-08-22T11:33:48Z</time>
      </trkpt>
      <trkpt lat="22.487174933112588" lon="113.91959761584533">
        <ele>1.3075025007128716</ele>
        <time>2026-08-22T11:33:52Z</time>
      </trkpt>
      <trkpt lat="22.487124111204206" lon="113.9196645296038">
        <ele>1.1498652761802077</ele>
        <time>2026-08-22T11:33:58Z</time>
      </trkpt>
      <trkpt lat="22.487056759094276" lon="113.91962780789927">
        <ele>0.9058785764500499</ele>
        <time>2026-08-22T11:34:04Z</time>
      </trkpt>
      <trkpt lat="22.487019495724596" lon="113.91970878284172">
        <ele>1.3346146838739514</ele>
        <time>2026-08-22T11:34:10Z</time>
      </trkpt>
      <trkpt lat="22.48680735371546" lon="113.91996985582146">
        <ele>1.4780136607587337</ele>
        <time>2026-08-22T11:34:16Z</time>
      </trkpt>
      <trkpt lat="22.48690537455241" lon="113.91972038831001">
        <ele>1.012531398795545</ele>
        <time>2026-08-22T11:34:25Z</time>
      </trkpt>
      <trkpt lat="22.486747403997214" lon="113.92007941544655">
        <ele>0.8011031663045287</ele>
        <time>2026-08-22T11:34:31Z</time>
      </trkpt>
      <trkpt lat="22.486753818467907" lon="113.92027903622777">
        <ele>1.1276272749528289</ele>
        <time>2026-08-22T11:34:34Z</time>
      </trkpt>
      <trkpt lat="22.486717557692593" lon="113.92041131795973">
        <ele>1.2793159671127796</ele>
        <time>2026-08-22T11:34:37Z</time>
      </trkpt>
      <trkpt lat="22.486711907565986" lon="113.92053096242134">
        <ele>1.2807773323729634</ele>
        <time>2026-08-22T11:34:43Z</time>
      </trkpt>
      <trkpt lat="22.486735563492008" lon="113.92065232376252">
        <ele>1.1333394227549434</ele>
        <time>2026-08-22T11:34:46Z</time>
      </trkpt>
      <trkpt lat="22.486777536748836" lon="113.92076186233942">
        <ele>1.0703060599043965</ele>
        <time>2026-08-22T11:34:49Z</time>
      </trkpt>
      <trkpt lat="22.486795833874453" lon="113.92101256046853">
        <ele>1.1983282379806042</ele>
        <time>2026-08-22T11:34:58Z</time>
      </trkpt>
      <trkpt lat="22.486770925988992" lon="113.92111893963781">
        <ele>1.4615323562175035</ele>
        <time>2026-08-22T11:35:01Z</time>
      </trkpt>
      <trkpt lat="22.48678857172292" lon="113.92118765506244">
        <ele>1.8247769847512245</ele>
        <time>2026-08-22T11:35:07Z</time>
      </trkpt>
      <trkpt lat="22.486764799309586" lon="113.92129297401446">
        <ele>1.6712787337601185</ele>
        <time>2026-08-22T11:35:19Z</time>
      </trkpt>
      <trkpt lat="22.486792674613937" lon="113.92124544241267">
        <ele>1.7907163091003895</ele>
        <time>2026-08-22T11:35:25Z</time>
      </trkpt>
      <trkpt lat="22.486746836279057" lon="113.9213490815883">
        <ele>1.5341327795758843</ele>
        <time>2026-08-22T11:35:31Z</time>
      </trkpt>
      <trkpt lat="22.4868366315284" lon="113.92155032863764">
        <ele>1.5864187385886908</ele>
        <time>2026-08-22T11:35:40Z</time>
      </trkpt>
      <trkpt lat="22.486879104850125" lon="113.92160961722422">
        <ele>1.6251637330278754</ele>
        <time>2026-08-22T11:35:43Z</time>
      </trkpt>
      <trkpt lat="22.486920949266082" lon="113.92156917223565">
        <ele>0.7315932000055909</ele>
        <time>2026-08-22T11:35:47Z</time>
      </trkpt>
      <trkpt lat="22.487075149618438" lon="113.92168874047637">
        <ele>1.0536596393212676</ele>
        <time>2026-08-22T11:35:55Z</time>
      </trkpt>
      <trkpt lat="22.487267654086295" lon="113.92176591090589">
        <ele>0.46918565034866333</ele>
        <time>2026-08-22T11:35:59Z</time>
      </trkpt>
      <trkpt lat="22.487276959222584" lon="113.92190372480319">
        <ele>1.0120080029591918</ele>
        <time>2026-08-22T11:36:08Z</time>
      </trkpt>
      <trkpt lat="22.487218508269134" lon="113.92210215573529">
        <ele>1.0234982827678323</ele>
        <time>2026-08-22T11:36:17Z</time>
      </trkpt>
      <trkpt lat="22.48716128687054" lon="113.92224814038173">
        <ele>2.2948095286265016</ele>
        <time>2026-08-22T11:36:26Z</time>
      </trkpt>
      <trkpt lat="22.487113881143248" lon="113.92247221256896">
        <ele>2.838192448951304</ele>
        <time>2026-08-22T11:36:35Z</time>
      </trkpt>
      <trkpt lat="22.487065594785918" lon="113.92257500839636">
        <ele>3.6129945758730173</ele>
        <time>2026-08-22T11:36:41Z</time>
      </trkpt>
      <trkpt lat="22.487048149578655" lon="113.92266706033689">
        <ele>3.322828040458262</ele>
        <time>2026-08-22T11:36:44Z</time>
      </trkpt>
      <trkpt lat="22.486967110216206" lon="113.9228351275656">
        <ele>3.587524838745594</ele>
        <time>2026-08-22T11:36:50Z</time>
      </trkpt>
      <trkpt lat="22.486951350003707" lon="113.9230104550712">
        <ele>3.7344567086547613</ele>
        <time>2026-08-22T11:36:56Z</time>
      </trkpt>
      <trkpt lat="22.48693117833991" lon="113.92308798306918">
        <ele>4.298452829010785</ele>
        <time>2026-08-22T11:36:59Z</time>
      </trkpt>
      <trkpt lat="22.486857687844815" lon="113.92315204620985">
        <ele>4.309784532524645</ele>
        <time>2026-08-22T11:37:05Z</time>
      </trkpt>
      <trkpt lat="22.486804046161787" lon="113.92311971679165">
        <ele>4.810268807224929</ele>
        <time>2026-08-22T11:37:20Z</time>
      </trkpt>
      <trkpt lat="22.486762200059484" lon="113.92307545695132">
        <ele>4.649308271706104</ele>
        <time>2026-08-22T11:37:23Z</time>
      </trkpt>
      <trkpt lat="22.486518840640485" lon="113.92309751344204">
        <ele>4.707567239180207</ele>
        <time>2026-08-22T11:37:29Z</time>
      </trkpt>
      <trkpt lat="22.486516738271586" lon="113.92299626802755">
        <ele>4.2630327651277184</ele>
        <time>2026-08-22T11:37:32Z</time>
      </trkpt>
      <trkpt lat="22.486450079956043" lon="113.9229287085893">
        <ele>2.8674005465582013</ele>
        <time>2026-08-22T11:37:35Z</time>
      </trkpt>
      <trkpt lat="22.486216714948256" lon="113.92288735067957">
        <ele>0.8568205740302801</ele>
        <time>2026-08-22T11:37:47Z</time>
      </trkpt>
      <trkpt lat="22.486092862237268" lon="113.92325438776675">
        <ele>1.6299360478296876</ele>
        <time>2026-08-22T11:37:54Z</time>
      </trkpt>
      <trkpt lat="22.486052393088418" lon="113.92328232851499">
        <ele>1.9740049839019775</ele>
        <time>2026-08-22T11:37:57Z</time>
      </trkpt>
      <trkpt lat="22.486025863017122" lon="113.92338655045484">
        <ele>1.6555272014811635</ele>
        <time>2026-08-22T11:38:00Z</time>
      </trkpt>
      <trkpt lat="22.486017239424275" lon="113.92354266626262">
        <ele>2.8935776194557548</ele>
        <time>2026-08-22T11:38:03Z</time>
      </trkpt>
      <trkpt lat="22.485969255919862" lon="113.92374830659406">
        <ele>3.325095989741385</ele>
        <time>2026-08-22T11:38:09Z</time>
      </trkpt>
      <trkpt lat="22.48593519441458" lon="113.92380184322798">
        <ele>3.4919969979673624</ele>
        <time>2026-08-22T11:38:12Z</time>
      </trkpt>
      <trkpt lat="22.48585001788934" lon="113.92412935851945">
        <ele>4.030821279622614</ele>
        <time>2026-08-22T11:38:24Z</time>
      </trkpt>
      <trkpt lat="22.485791468264182" lon="113.92429729024424">
        <ele>4.191801744513214</ele>
        <time>2026-08-22T11:38:39Z</time>
      </trkpt>
      <trkpt lat="22.485723305841436" lon="113.92462215852423">
        <ele>2.530168142169714</ele>
        <time>2026-08-22T11:38:54Z</time>
      </trkpt>
      <trkpt lat="22.485687096921794" lon="113.92473538542264">
        <ele>2.9185085156932473</ele>
        <time>2026-08-22T11:39:00Z</time>
      </trkpt>
      <trkpt lat="22.485644564867375" lon="113.92481210566854">
        <ele>2.6958241062238812</ele>
        <time>2026-08-22T11:39:03Z</time>
      </trkpt>
      <trkpt lat="22.48564893923693" lon="113.9248730439491">
        <ele>2.3358355835080147</ele>
        <time>2026-08-22T11:39:06Z</time>
      </trkpt>
      <trkpt lat="22.485598696631378" lon="113.92511024136692">
        <ele>2.8641453832387924</ele>
        <time>2026-08-22T11:39:21Z</time>
      </trkpt>
      <trkpt lat="22.485610788291048" lon="113.92525075195549">
        <ele>3.5006387075409293</ele>
        <time>2026-08-22T11:39:27Z</time>
      </trkpt>
      <trkpt lat="22.485565884903146" lon="113.92529319264399">
        <ele>4.273701849393547</ele>
        <time>2026-08-22T11:39:48Z</time>
      </trkpt>
      <trkpt lat="22.485605321426608" lon="113.92524300699274">
        <ele>4.161995302885771</ele>
        <time>2026-08-22T11:39:51Z</time>
      </trkpt>
      <trkpt lat="22.485488823639255" lon="113.92530841151452">
        <ele>3.872115010395646</ele>
        <time>2026-08-22T11:39:54Z</time>
      </trkpt>
      <trkpt lat="22.485393675665673" lon="113.92530529128818">
        <ele>3.2537852711975574</ele>
        <time>2026-08-22T11:39:58Z</time>
      </trkpt>
      <trkpt lat="22.485151980501538" lon="113.92541709177202">
        <ele>3.6605817787349224</ele>
        <time>2026-08-22T11:40:06Z</time>
      </trkpt>
      <trkpt lat="22.485056181431037" lon="113.9256523521783">
        <ele>4.447468703612685</ele>
        <time>2026-08-22T11:40:10Z</time>
      </trkpt>
      <trkpt lat="22.48513926441806" lon="113.9259893924393">
        <ele>8.415979347191751</ele>
        <time>2026-08-22T11:40:28Z</time>
      </trkpt>
      <trkpt lat="22.48506484964223" lon="113.92597120589967">
        <ele>8.65379859879613</ele>
        <time>2026-08-22T11:40:40Z</time>
      </trkpt>
      <trkpt lat="22.48496274321325" lon="113.92598839811613">
        <ele>8.486259827390313</ele>
        <time>2026-08-22T11:40:46Z</time>
      </trkpt>
      <trkpt lat="22.48463827596743" lon="113.92591392205627">
        <ele>8.64744443167001</ele>
        <time>2026-08-22T11:40:58Z</time>
      </trkpt>
      <trkpt lat="22.48448263191778" lon="113.92584282269684">
        <ele>8.831107765436172</ele>
        <time>2026-08-22T11:41:04Z</time>
      </trkpt>
      <trkpt lat="22.48442366515785" lon="113.92584107807461">
        <ele>8.725940917618573</ele>
        <time>2026-08-22T11:41:07Z</time>
      </trkpt>
      <trkpt lat="22.48437596801366" lon="113.92586148587631">
        <ele>8.66833056602627</ele>
        <time>2026-08-22T11:41:10Z</time>
      </trkpt>
      <trkpt lat="22.484402182771593" lon="113.9258134288679">
        <ele>9.277548809535801</ele>
        <time>2026-08-22T11:41:13Z</time>
      </trkpt>
      <trkpt lat="22.48436355872646" lon="113.92578147713479">
        <ele>8.588619972579181</ele>
        <time>2026-08-22T11:41:19Z</time>
      </trkpt>
      <trkpt lat="22.484334065327918" lon="113.92568561431844">
        <ele>8.712222858332098</ele>
        <time>2026-08-22T11:41:25Z</time>
      </trkpt>
      <trkpt lat="22.48424863350166" lon="113.92565312696176">
        <ele>8.139295063912868</ele>
        <time>2026-08-22T11:41:31Z</time>
      </trkpt>
      <trkpt lat="22.484179600381722" lon="113.92574650921065">
        <ele>7.6336934100836515</ele>
        <time>2026-08-22T11:41:40Z</time>
      </trkpt>
      <trkpt lat="22.484061958435337" lon="113.92575077886308">
        <ele>8.220360695384443</ele>
        <time>2026-08-22T11:41:43Z</time>
      </trkpt>
      <trkpt lat="22.483953939241044" lon="113.92568275593041">
        <ele>8.052959376946092</ele>
        <time>2026-08-22T11:41:52Z</time>
      </trkpt>
      <trkpt lat="22.483881778578745" lon="113.92570784365317">
        <ele>7.913241531699896</ele>
        <time>2026-08-22T11:41:58Z</time>
      </trkpt>
      <trkpt lat="22.48368355953162" lon="113.92572917848487">
        <ele>8.887002496048808</ele>
        <time>2026-08-22T11:42:14Z</time>
      </trkpt>
      <trkpt lat="22.48361532980618" lon="113.92564483748745">
        <ele>8.535000525414944</ele>
        <time>2026-08-22T11:42:26Z</time>
      </trkpt>
      <trkpt lat="22.4834248075506" lon="113.92552203034906">
        <ele>8.39067388791591</ele>
        <time>2026-08-22T11:42:41Z</time>
      </trkpt>
      <trkpt lat="22.4833373142997" lon="113.92553761897378">
        <ele>8.006926437839866</ele>
        <time>2026-08-22T11:42:47Z</time>
      </trkpt>
      <trkpt lat="22.483292809032037" lon="113.92552511447603">
        <ele>8.22423171903938</ele>
        <time>2026-08-22T11:42:50Z</time>
      </trkpt>
      <trkpt lat="22.483278617961446" lon="113.92546890729085">
        <ele>8.789222885854542</ele>
        <time>2026-08-22T11:42:53Z</time>
      </trkpt>
      <trkpt lat="22.483321845667515" lon="113.92515772874921">
        <ele>7.296302065253258</ele>
        <time>2026-08-22T11:43:05Z</time>
      </trkpt>
      <trkpt lat="22.483336819932035" lon="113.92508127999243">
        <ele>7.738397992216051</ele>
        <time>2026-08-22T11:43:08Z</time>
      </trkpt>
      <trkpt lat="22.48331581068376" lon="113.92483754774652">
        <ele>7.477397349663079</ele>
        <time>2026-08-22T11:43:14Z</time>
      </trkpt>
      <trkpt lat="22.483353905541556" lon="113.92491676977532">
        <ele>7.520986984483898</ele>
        <time>2026-08-22T11:43:23Z</time>
      </trkpt>
      <trkpt lat="22.48321375002094" lon="113.92479774207389">
        <ele>7.131627727299929</ele>
        <time>2026-08-22T11:43:29Z</time>
      </trkpt>
      <trkpt lat="22.483184438774547" lon="113.92471163523918">
        <ele>6.70272405911237</ele>
        <time>2026-08-22T11:43:32Z</time>
      </trkpt>
      <trkpt lat="22.483092901497812" lon="113.92458086042367">
        <ele>5.838567363098264</ele>
        <time>2026-08-22T11:43:38Z</time>
      </trkpt>
      <trkpt lat="22.48303541539148" lon="113.92453312127947">
        <ele>5.123877879232168</ele>
        <time>2026-08-22T11:43:41Z</time>
      </trkpt>
      <trkpt lat="22.483013165919534" lon="113.92447375851117">
        <ele>5.138207513839006</ele>
        <time>2026-08-22T11:43:44Z</time>
      </trkpt>
      <trkpt lat="22.48301455337915" lon="113.92440888350441">
        <ele>4.835192220285535</ele>
        <time>2026-08-22T11:43:47Z</time>
      </trkpt>
      <trkpt lat="22.482935672848125" lon="113.9242250499454">
        <ele>3.011289673857391</ele>
        <time>2026-08-22T11:43:56Z</time>
      </trkpt>
      <trkpt lat="22.48288072949165" lon="113.92416428169305">
        <ele>2.7608145074918866</ele>
        <time>2026-08-22T11:43:59Z</time>
      </trkpt>
      <trkpt lat="22.482779405129243" lon="113.92410477478262">
        <ele>2.027193723246455</ele>
        <time>2026-08-22T11:44:02Z</time>
      </trkpt>
      <trkpt lat="22.48278620071488" lon="113.92401775110876">
        <ele>2.1594174029305577</ele>
        <time>2026-08-22T11:44:05Z</time>
      </trkpt>
      <trkpt lat="22.482715103108767" lon="113.92392074198803">
        <ele>1.1093662371858954</ele>
        <time>2026-08-22T11:44:09Z</time>
      </trkpt>
      <trkpt lat="22.48271604827248" lon="113.92385503442">
        <ele>0.4090843042358756</ele>
        <time>2026-08-22T11:44:12Z</time>
      </trkpt>
      <trkpt lat="22.48267151851557" lon="113.92379232157411">
        <ele>1.2691100193187594</ele>
        <time>2026-08-22T11:44:15Z</time>
      </trkpt>
      <trkpt lat="22.48262569203782" lon="113.92375850757514">
        <ele>1.927339006215334</ele>
        <time>2026-08-22T11:44:18Z</time>
      </trkpt>
      <trkpt lat="22.482569305905564" lon="113.92374570295895">
        <ele>2.956917295232415</ele>
        <time>2026-08-22T11:44:21Z</time>
      </trkpt>
      <trkpt lat="22.482282775825468" lon="113.92379342650328">
        <ele>4.940160688012838</ele>
        <time>2026-08-22T11:44:30Z</time>
      </trkpt>
      <trkpt lat="22.482142953006843" lon="113.92376601621662">
        <ele>5.972215398214757</ele>
        <time>2026-08-22T11:44:36Z</time>
      </trkpt>
      <trkpt lat="22.481935989335245" lon="113.92376110644537">
        <ele>5.111867559142411</ele>
        <time>2026-08-22T11:44:45Z</time>
      </trkpt>
      <trkpt lat="22.481655805872286" lon="113.92380491733529">
        <ele>2.9927762392908335</ele>
        <time>2026-08-22T11:44:57Z</time>
      </trkpt>
      <trkpt lat="22.481573408703408" lon="113.92396613244772">
        <ele>2.4470398891717196</ele>
        <time>2026-08-22T11:45:06Z</time>
      </trkpt>
      <trkpt lat="22.481530684404714" lon="113.92426793260327">
        <ele>2.3338880771771073</ele>
        <time>2026-08-22T11:45:21Z</time>
      </trkpt>
      <trkpt lat="22.48148907573385" lon="113.9245965058583">
        <ele>3.3529475340619683</ele>
        <time>2026-08-22T11:45:36Z</time>
      </trkpt>
      <trkpt lat="22.481472734041624" lon="113.92464785246402">
        <ele>3.257830231450498</ele>
        <time>2026-08-22T11:45:39Z</time>
      </trkpt>
      <trkpt lat="22.481414626504897" lon="113.92473227296766">
        <ele>3.2752023050561547</ele>
        <time>2026-08-22T11:45:42Z</time>
      </trkpt>
      <trkpt lat="22.481443649737805" lon="113.92481231079914">
        <ele>3.198388152755797</ele>
        <time>2026-08-22T11:45:48Z</time>
      </trkpt>
      <trkpt lat="22.48136016347138" lon="113.92498288608589">
        <ele>2.7714517982676625</ele>
        <time>2026-08-22T11:46:03Z</time>
      </trkpt>
      <trkpt lat="22.48131890427059" lon="113.92501730116345">
        <ele>2.7025102032348514</ele>
        <time>2026-08-22T11:46:06Z</time>
      </trkpt>
      <trkpt lat="22.481324292287898" lon="113.92508073106875">
        <ele>2.4600164629518986</ele>
        <time>2026-08-22T11:46:09Z</time>
      </trkpt>
      <trkpt lat="22.481297143310528" lon="113.92514871689254">
        <ele>2.3865040000528097</ele>
        <time>2026-08-22T11:46:12Z</time>
      </trkpt>
      <trkpt lat="22.48121389104988" lon="113.92550195181835">
        <ele>2.3168192729353905</ele>
        <time>2026-08-22T11:46:28Z</time>
      </trkpt>
      <trkpt lat="22.481180537992053" lon="113.92565732950091">
        <ele>1.4938633805140853</ele>
        <time>2026-08-22T11:46:35Z</time>
      </trkpt>
      <trkpt lat="22.481149514359398" lon="113.92570708614134">
        <ele>1.636938420124352</ele>
        <time>2026-08-22T11:46:38Z</time>
      </trkpt>
      <trkpt lat="22.481131175560495" lon="113.92593960653281">
        <ele>1.621226786635816</ele>
        <time>2026-08-22T11:46:44Z</time>
      </trkpt>
      <trkpt lat="22.481041350625247" lon="113.92626641754336">
        <ele>1.4428098164498806</ele>
        <time>2026-08-22T11:46:59Z</time>
      </trkpt>
      <trkpt lat="22.480982204822006" lon="113.92643480218675">
        <ele>1.3573789549991488</ele>
        <time>2026-08-22T11:47:08Z</time>
      </trkpt>
      <trkpt lat="22.480955370125166" lon="113.92658042715303">
        <ele>1.0320023717358708</ele>
        <time>2026-08-22T11:47:14Z</time>
      </trkpt>
      <trkpt lat="22.480910900527082" lon="113.92668319512184">
        <ele>0.864745432510972</ele>
        <time>2026-08-22T11:47:20Z</time>
      </trkpt>
      <trkpt lat="22.480891650363194" lon="113.9268147172552">
        <ele>1.489075930789113</ele>
        <time>2026-08-22T11:47:26Z</time>
      </trkpt>
      <trkpt lat="22.48085656841947" lon="113.92687253130137">
        <ele>1.8173637874424458</ele>
        <time>2026-08-22T11:47:29Z</time>
      </trkpt>
      <trkpt lat="22.480804853391817" lon="113.92704520766979">
        <ele>1.195833652280271</ele>
        <time>2026-08-22T11:47:38Z</time>
      </trkpt>
      <trkpt lat="22.480812420039307" lon="113.9272123672462">
        <ele>2.1231136219576</ele>
        <time>2026-08-22T11:47:47Z</time>
      </trkpt>
      <trkpt lat="22.480754963290234" lon="113.92746465112717">
        <ele>2.755670327693224</ele>
        <time>2026-08-22T11:48:02Z</time>
      </trkpt>
      <trkpt lat="22.4806812927479" lon="113.92764440594873">
        <ele>3.1507986783981323</ele>
        <time>2026-08-22T11:48:14Z</time>
      </trkpt>
      <trkpt lat="22.480615386266813" lon="113.92761921289062">
        <ele>2.6935432739555836</ele>
        <time>2026-08-22T11:48:21Z</time>
      </trkpt>
      <trkpt lat="22.480536731591176" lon="113.92770705416856">
        <ele>2.4251979077234864</ele>
        <time>2026-08-22T11:48:25Z</time>
      </trkpt>
      <trkpt lat="22.480482586983612" lon="113.92782050831163">
        <ele>1.076484901830554</ele>
        <time>2026-08-22T11:48:29Z</time>
      </trkpt>
      <trkpt lat="22.480429269446887" lon="113.92801503012645">
        <ele>0.6036217249929905</ele>
        <time>2026-08-22T11:48:37Z</time>
      </trkpt>
      <trkpt lat="22.48036180860519" lon="113.92807396166327">
        <ele>1.1654239520430565</ele>
        <time>2026-08-22T11:48:41Z</time>
      </trkpt>
      <trkpt lat="22.480284467731376" lon="113.92805108473874">
        <ele>0.9875557254999876</ele>
        <time>2026-08-22T11:48:45Z</time>
      </trkpt>
      <trkpt lat="22.48023660993968" lon="113.9281277731089">
        <ele>1.3474430963397026</ele>
        <time>2026-08-22T11:48:49Z</time>
      </trkpt>
      <trkpt lat="22.4802208241083" lon="113.92821841839094">
        <ele>1.4850416705012321</ele>
        <time>2026-08-22T11:48:53Z</time>
      </trkpt>
      <trkpt lat="22.480314277208954" lon="113.92818340746385">
        <ele>0.8783556679263711</ele>
        <time>2026-08-22T11:48:59Z</time>
      </trkpt>
      <trkpt lat="22.480286939125907" lon="113.9283661756051">
        <ele>0.8572638314217329</ele>
        <time>2026-08-22T11:49:08Z</time>
      </trkpt>
      <trkpt lat="22.480343220740796" lon="113.9284400500437">
        <ele>0.8322409875690937</ele>
        <time>2026-08-22T11:49:11Z</time>
      </trkpt>
      <trkpt lat="22.480365557775283" lon="113.92851925688333">
        <ele>1.4413567446172237</ele>
        <time>2026-08-22T11:49:14Z</time>
      </trkpt>
      <trkpt lat="22.480341515334388" lon="113.92859403793105">
        <ele>2.386687262915075</ele>
        <time>2026-08-22T11:49:17Z</time>
      </trkpt>
      <trkpt lat="22.480330925247486" lon="113.92893000727734">
        <ele>1.8446358209475875</ele>
        <time>2026-08-22T11:49:29Z</time>
      </trkpt>
      <trkpt lat="22.48031832329904" lon="113.92909137259218">
        <ele>2.0214815232902765</ele>
        <time>2026-08-22T11:49:35Z</time>
      </trkpt>
      <trkpt lat="22.480296373659623" lon="113.92916200698409">
        <ele>2.7077278262004256</ele>
        <time>2026-08-22T11:49:38Z</time>
      </trkpt>
      <trkpt lat="22.480290197808092" lon="113.92945031265258">
        <ele>3.1590771321207285</ele>
        <time>2026-08-22T11:49:47Z</time>
      </trkpt>
      <trkpt lat="22.48022790196147" lon="113.9297680552345">
        <ele>3.887174781411886</ele>
        <time>2026-08-22T11:50:02Z</time>
      </trkpt>
      <trkpt lat="22.480123072846855" lon="113.93011539418546">
        <ele>2.6137335542589426</ele>
        <time>2026-08-22T11:50:17Z</time>
      </trkpt>
      <trkpt lat="22.48008803824292" lon="113.93016343074521">
        <ele>2.857871566899121</ele>
        <time>2026-08-22T11:50:20Z</time>
      </trkpt>
      <trkpt lat="22.48011512630397" lon="113.93025140618197">
        <ele>1.9471846036612988</ele>
        <time>2026-08-22T11:50:23Z</time>
      </trkpt>
      <trkpt lat="22.48012437450081" lon="113.9303570425602">
        <ele>2.540277797728777</ele>
        <time>2026-08-22T11:50:27Z</time>
      </trkpt>
      <trkpt lat="22.48009802897248" lon="113.93055803951991">
        <ele>2.6875948207452893</ele>
        <time>2026-08-22T11:50:35Z</time>
      </trkpt>
      <trkpt lat="22.480062343407166" lon="113.93063191591717">
        <ele>2.4848426543176174</ele>
        <time>2026-08-22T11:50:39Z</time>
      </trkpt>
      <trkpt lat="22.480016342783884" lon="113.93097819658317">
        <ele>1.8044890249148011</ele>
        <time>2026-08-22T11:51:03Z</time>
      </trkpt>
      <trkpt lat="22.479972948327298" lon="113.9311187861234">
        <ele>1.3603260312229395</ele>
        <time>2026-08-22T11:51:10Z</time>
      </trkpt>
      <trkpt lat="22.479931949168503" lon="113.93120106934192">
        <ele>0.9178468035534024</ele>
        <time>2026-08-22T11:51:16Z</time>
      </trkpt>
      <trkpt lat="22.479909307048878" lon="113.93129585942197">
        <ele>0.9167540613561869</ele>
        <time>2026-08-22T11:51:19Z</time>
      </trkpt>
      <trkpt lat="22.479905946270854" lon="113.93139156188131">
        <ele>1.4684592746198177</ele>
        <time>2026-08-22T11:51:22Z</time>
      </trkpt>
      <trkpt lat="22.479924352868036" lon="113.93143977037225">
        <ele>0.3533624988049269</ele>
        <time>2026-08-22T11:51:25Z</time>
      </trkpt>
      <trkpt lat="22.47986892247807" lon="113.93136921923939">
        <ele>0.45937135349959135</ele>
        <time>2026-08-22T11:51:28Z</time>
      </trkpt>
      <trkpt lat="22.479842423176258" lon="113.9312926850765">
        <ele>0.3866118062287569</ele>
        <time>2026-08-22T11:51:31Z</time>
      </trkpt>
      <trkpt lat="22.47991774809273" lon="113.93124368615828">
        <ele>0.6212789723649621</ele>
        <time>2026-08-22T11:51:37Z</time>
      </trkpt>
      <trkpt lat="22.48014173122567" lon="113.93120599689378">
        <ele>0.15899362787604332</ele>
        <time>2026-08-22T11:51:43Z</time>
      </trkpt>
      <trkpt lat="22.480185709701566" lon="113.93118214382233">
        <ele>0.22829869575798512</ele>
        <time>2026-08-22T11:51:46Z</time>
      </trkpt>
      <trkpt lat="22.480520208481185" lon="113.9311315106187">
        <ele>2.7217180747538805</ele>
        <time>2026-08-22T11:52:01Z</time>
      </trkpt>
      <trkpt lat="22.480660182779822" lon="113.93112664695524">
        <ele>3.1894882721826434</ele>
        <time>2026-08-22T11:52:07Z</time>
      </trkpt>
      <trkpt lat="22.480750305940095" lon="113.93110263848627">
        <ele>3.049148586578667</ele>
        <time>2026-08-22T11:52:10Z</time>
      </trkpt>
      <trkpt lat="22.480909290463394" lon="113.93110620489809">
        <ele>3.2970490297302604</ele>
        <time>2026-08-22T11:52:16Z</time>
      </trkpt>
      <trkpt lat="22.481135359314695" lon="113.93105892150786">
        <ele>4.517381992191076</ele>
        <time>2026-08-22T11:52:25Z</time>
      </trkpt>
      <trkpt lat="22.48143254402571" lon="113.93104961543648">
        <ele>5.79066348914057</ele>
        <time>2026-08-22T11:52:35Z</time>
      </trkpt>
      <trkpt lat="22.481552515589083" lon="113.93104290735745">
        <ele>5.617462946102023</ele>
        <time>2026-08-22T11:52:39Z</time>
      </trkpt>
      <trkpt lat="22.48176270264655" lon="113.9310886047661">
        <ele>5.173812807537615</ele>
        <time>2026-08-22T11:52:47Z</time>
      </trkpt>
      <trkpt lat="22.481847655471118" lon="113.9311248738794">
        <ele>5.777536315843463</ele>
        <time>2026-08-22T11:52:51Z</time>
      </trkpt>
      <trkpt lat="22.482156940219202" lon="113.93115742458004">
        <ele>5.843559017404914</ele>
        <time>2026-08-22T11:53:03Z</time>
      </trkpt>
      <trkpt lat="22.482260006348334" lon="113.93117911346037">
        <ele>7.0513547183945775</ele>
        <time>2026-08-22T11:53:07Z</time>
      </trkpt>
      <trkpt lat="22.482354263175232" lon="113.9312371332434">
        <ele>5.183239843696356</ele>
        <time>2026-08-22T11:53:11Z</time>
      </trkpt>
      <trkpt lat="22.482474289727254" lon="113.93124647952105">
        <ele>5.752979553304613</ele>
        <time>2026-08-22T11:53:15Z</time>
      </trkpt>
      <trkpt lat="22.482622807542338" lon="113.93119754027559">
        <ele>5.5059070428833365</ele>
        <time>2026-08-22T11:53:22Z</time>
      </trkpt>
      <trkpt lat="22.482683498715893" lon="113.93122382138868">
        <ele>6.1559497425332665</ele>
        <time>2026-08-22T11:53:31Z</time>
      </trkpt>
      <trkpt lat="22.48279707053111" lon="113.93122233217485">
        <ele>6.504675078205764</ele>
        <time>2026-08-22T11:53:37Z</time>
      </trkpt>
      <trkpt lat="22.48286314588979" lon="113.93119859232392">
        <ele>5.438964658416808</ele>
        <time>2026-08-22T11:53:43Z</time>
      </trkpt>
      <trkpt lat="22.48286030321743" lon="113.93113877662616">
        <ele>6.095223858952522</ele>
        <time>2026-08-22T11:53:46Z</time>
      </trkpt>
      <trkpt lat="22.48277360887952" lon="113.93106509005084">
        <ele>6.366615306586027</ele>
        <time>2026-08-22T11:53:58Z</time>
      </trkpt>
      <trkpt lat="22.482688967147926" lon="113.93096639890015">
        <ele>6.8391224425286055</ele>
        <time>2026-08-22T11:54:53Z</time>
      </trkpt>
      <trkpt lat="22.48277032824983" lon="113.93104315693402">
        <ele>6.867330432869494</ele>
        <time>2026-08-22T11:55:09Z</time>
      </trkpt>
      <trkpt lat="22.48274300368937" lon="113.93091945248607">
        <ele>6.993567902594805</ele>
        <time>2026-08-22T11:55:17Z</time>
      </trkpt>
      <trkpt lat="22.482768916163955" lon="113.93102940835911">
        <ele>7.285263976082206</ele>
        <time>2026-08-22T11:55:21Z</time>
      </trkpt>
      <trkpt lat="22.482758200864442" lon="113.9311198708673">
        <ele>6.794276430271566</ele>
        <time>2026-08-22T11:55:25Z</time>
      </trkpt>
      <trkpt lat="22.482922936313084" lon="113.93136163646615">
        <ele>6.112946173176169</ele>
        <time>2026-08-22T11:55:33Z</time>
      </trkpt>
      <trkpt lat="22.483019158676484" lon="113.93139059815702">
        <ele>5.919788250699639</ele>
        <time>2026-08-22T11:55:39Z</time>
      </trkpt>
      <trkpt lat="22.483116247368592" lon="113.93139063874551">
        <ele>5.16545919701457</ele>
        <time>2026-08-22T11:55:45Z</time>
      </trkpt>
      <trkpt lat="22.48317845031958" lon="113.93143138820872">
        <ele>5.280664185993373</ele>
        <time>2026-08-22T11:55:51Z</time>
      </trkpt>
      <trkpt lat="22.483143715983232" lon="113.93146977584509">
        <ele>5.348478184081614</ele>
        <time>2026-08-22T11:55:54Z</time>
      </trkpt>
      <trkpt lat="22.483176014428945" lon="113.9315224934325">
        <ele>4.977167358621955</ele>
        <time>2026-08-22T11:56:00Z</time>
      </trkpt>
      <trkpt lat="22.483281865591866" lon="113.93146171683365">
        <ele>4.779431832022965</ele>
        <time>2026-08-22T11:56:09Z</time>
      </trkpt>
      <trkpt lat="22.483286042371184" lon="113.93151291178481">
        <ele>4.471890632994473</ele>
        <time>2026-08-22T11:56:36Z</time>
      </trkpt>
      <trkpt lat="22.483262614297416" lon="113.93152240322387">
        <ele>5.651755212806165</ele>
        <time>2026-08-22T11:58:07Z</time>
      </trkpt>
    </trkseg>
  </trk>
</gpx>