<?xml version="1.0" encoding="UTF-8"?>
<gpx xmlns="http://www.topografix.com/GPX/1/1" xmlns:gpxtpx="http://www.garmin.com/xmlschemas/TrackPointExtension/v1" xmlns:xsi="http://www.w3.org/2001/XMLSchema-instance" xsi:schemaLocation="http://www.topografix.com/GPX/1/1 http://www.topografix.com/GPX/1/1/gpx.xsd" version="1.1" creator="gpx.py -- https://github.com/tkrajina/gpxpy">
  <trk>
    <name>gpx from keep</name>
    <type>Run</type>
    <trkseg>
      <trkpt lat="22.48273432249639" lon="113.9312055039463">
        <ele>6.531871781684458</ele>
        <time>2026-08-16T11:58:08Z</time>
      </trkpt>
      <trkpt lat="22.48262662966732" lon="113.93123479242607">
        <ele>4.639625363051891</ele>
        <time>2026-08-16T11:58:14Z</time>
      </trkpt>
      <trkpt lat="22.482449555241946" lon="113.9312170372893">
        <ele>3.4679004084318876</ele>
        <time>2026-08-16T11:58:23Z</time>
      </trkpt>
      <trkpt lat="22.48231552055962" lon="113.93116461963866">
        <ele>2.942402094602585</ele>
        <time>2026-08-16T11:58:29Z</time>
      </trkpt>
      <trkpt lat="22.48214304264485" lon="113.93114448218584">
        <ele>3.7911442080512643</ele>
        <time>2026-08-16T11:58:38Z</time>
      </trkpt>
      <trkpt lat="22.481913247047714" lon="113.93109113108339">
        <ele>4.095287113450468</ele>
        <time>2026-08-16T11:58:50Z</time>
      </trkpt>
      <trkpt lat="22.481601827335066" lon="113.93107203166385">
        <ele>3.1142470436170697</ele>
        <time>2026-08-16T11:59:07Z</time>
      </trkpt>
      <trkpt lat="22.48142602233184" lon="113.93103703936788">
        <ele>3.1973313950002193</ele>
        <time>2026-08-16T11:59:16Z</time>
      </trkpt>
      <trkpt lat="22.481091432628123" lon="113.93109090674963">
        <ele>4.459161318838596</ele>
        <time>2026-08-16T11:59:31Z</time>
      </trkpt>
      <trkpt lat="22.480783438519754" lon="113.93113109422917">
        <ele>2.742666901089251</ele>
        <time>2026-08-16T11:59:46Z</time>
      </trkpt>
      <trkpt lat="22.480588110020353" lon="113.93115593844345">
        <ele>2.29466406442225</ele>
        <time>2026-08-16T11:59:55Z</time>
      </trkpt>
      <trkpt lat="22.48054045834002" lon="113.93114184425534">
        <ele>2.2959110476076603</ele>
        <time>2026-08-16T11:59:58Z</time>
      </trkpt>
      <trkpt lat="22.480404418006575" lon="113.93115411224171">
        <ele>1.9756369283422828</ele>
        <time>2026-08-16T12:00:04Z</time>
      </trkpt>
      <trkpt lat="22.48035143472765" lon="113.93118281304537">
        <ele>1.7285677595064044</ele>
        <time>2026-08-16T12:00:07Z</time>
      </trkpt>
      <trkpt lat="22.48004885295546" lon="113.9312037207758">
        <ele>0.8888343293219805</ele>
        <time>2026-08-16T12:00:22Z</time>
      </trkpt>
      <trkpt lat="22.479988133185493" lon="113.93121920102142">
        <ele>0.5813303953036666</ele>
        <time>2026-08-16T12:00:25Z</time>
      </trkpt>
      <trkpt lat="22.47992608643577" lon="113.9312130255064">
        <ele>0.08352458011358976</ele>
        <time>2026-08-16T12:00:28Z</time>
      </trkpt>
      <trkpt lat="22.479895764475515" lon="113.93115407518441">
        <ele>-0.29312088433653116</ele>
        <time>2026-08-16T12:00:31Z</time>
      </trkpt>
      <trkpt lat="22.479992954366317" lon="113.93087489920576">
        <ele>0.5193529399111867</ele>
        <time>2026-08-16T12:00:46Z</time>
      </trkpt>
      <trkpt lat="22.48000316527581" lon="113.93081410984692">
        <ele>2.2902480149641633</ele>
        <time>2026-08-16T12:00:49Z</time>
      </trkpt>
      <trkpt lat="22.480087459116984" lon="113.93059260274416">
        <ele>-3.557770631276071</ele>
        <time>2026-08-16T12:01:01Z</time>
      </trkpt>
      <trkpt lat="22.480109820535187" lon="113.93034608174382">
        <ele>-4.569564393721521</ele>
        <time>2026-08-16T12:01:14Z</time>
      </trkpt>
      <trkpt lat="22.480088850126666" lon="113.93023749378827">
        <ele>1.729317150078714</ele>
        <time>2026-08-16T12:01:20Z</time>
      </trkpt>
      <trkpt lat="22.480095335522797" lon="113.93018093150717">
        <ele>1.8485451620072126</ele>
        <time>2026-08-16T12:01:23Z</time>
      </trkpt>
      <trkpt lat="22.480083372900765" lon="113.93011888044795">
        <ele>2.8262289334088564</ele>
        <time>2026-08-16T12:01:26Z</time>
      </trkpt>
      <trkpt lat="22.480093416462978" lon="113.92998670893083">
        <ele>0.5453859018161893</ele>
        <time>2026-08-16T12:01:32Z</time>
      </trkpt>
      <trkpt lat="22.480168763438098" lon="113.92985374220255">
        <ele>2.443748447112739</ele>
        <time>2026-08-16T12:01:41Z</time>
      </trkpt>
      <trkpt lat="22.480181615323136" lon="113.92978044796328">
        <ele>3.035603786818683</ele>
        <time>2026-08-16T12:01:44Z</time>
      </trkpt>
      <trkpt lat="22.48021279239927" lon="113.9297301462193">
        <ele>3.484685010276735</ele>
        <time>2026-08-16T12:01:47Z</time>
      </trkpt>
      <trkpt lat="22.480212855162716" lon="113.92963658962965">
        <ele>3.0519041921943426</ele>
        <time>2026-08-16T12:01:50Z</time>
      </trkpt>
      <trkpt lat="22.480314227598814" lon="113.92933850525925">
        <ele>2.7061354340985417</ele>
        <time>2026-08-16T12:02:05Z</time>
      </trkpt>
      <trkpt lat="22.48030672789263" lon="113.92923994874499">
        <ele>3.8825084287673235</ele>
        <time>2026-08-16T12:02:08Z</time>
      </trkpt>
      <trkpt lat="22.480322914924937" lon="113.92917432235907">
        <ele>2.6170866563916206</ele>
        <time>2026-08-16T12:02:11Z</time>
      </trkpt>
      <trkpt lat="22.480374233287115" lon="113.92912166075176">
        <ele>2.5836060512810946</ele>
        <time>2026-08-16T12:02:14Z</time>
      </trkpt>
      <trkpt lat="22.480476045470162" lon="113.92885889742648">
        <ele>1.107709888368845</ele>
        <time>2026-08-16T12:02:26Z</time>
      </trkpt>
      <trkpt lat="22.480500572906664" lon="113.92868347677522">
        <ele>2.2438903832808137</ele>
        <time>2026-08-16T12:02:35Z</time>
      </trkpt>
      <trkpt lat="22.480522805860325" lon="113.92861905463533">
        <ele>3.0851179361343384</ele>
        <time>2026-08-16T12:02:38Z</time>
      </trkpt>
      <trkpt lat="22.480498034273197" lon="113.92853025085508">
        <ele>3.2403223775327206</ele>
        <time>2026-08-16T12:02:41Z</time>
      </trkpt>
      <trkpt lat="22.480447461853274" lon="113.92850096471173">
        <ele>3.340503280982375</ele>
        <time>2026-08-16T12:02:44Z</time>
      </trkpt>
      <trkpt lat="22.48033846867034" lon="113.9281971835806">
        <ele>1.2931933235377073</ele>
        <time>2026-08-16T12:02:59Z</time>
      </trkpt>
      <trkpt lat="22.480338214031313" lon="113.92802995273075">
        <ele>-1.1913983011618257</ele>
        <time>2026-08-16T12:03:05Z</time>
      </trkpt>
      <trkpt lat="22.48038026574629" lon="113.92792684435392">
        <ele>0.1970962779596448</ele>
        <time>2026-08-16T12:03:11Z</time>
      </trkpt>
      <trkpt lat="22.480447325031882" lon="113.92793645986896">
        <ele>0.6299685640260577</ele>
        <time>2026-08-16T12:03:15Z</time>
      </trkpt>
      <trkpt lat="22.48050710955419" lon="113.92790043720196">
        <ele>0.7835181141272187</ele>
        <time>2026-08-16T12:03:21Z</time>
      </trkpt>
      <trkpt lat="22.4805309231284" lon="113.92785355623626">
        <ele>1.3818862531334162</ele>
        <time>2026-08-16T12:03:25Z</time>
      </trkpt>
      <trkpt lat="22.480558197982734" lon="113.92770012506915">
        <ele>0.38383802119642496</ele>
        <time>2026-08-16T12:03:31Z</time>
      </trkpt>
      <trkpt lat="22.480587102689697" lon="113.92764860134028">
        <ele>0.5064361402764916</ele>
        <time>2026-08-16T12:03:34Z</time>
      </trkpt>
      <trkpt lat="22.480731518622118" lon="113.92762544938553">
        <ele>1.9943920513615012</ele>
        <time>2026-08-16T12:03:40Z</time>
      </trkpt>
      <trkpt lat="22.480776728595785" lon="113.92757300182836">
        <ele>2.3678763061761856</ele>
        <time>2026-08-16T12:03:43Z</time>
      </trkpt>
      <trkpt lat="22.480783083966347" lon="113.92744029440831">
        <ele>2.7887156903743744</ele>
        <time>2026-08-16T12:03:49Z</time>
      </trkpt>
      <trkpt lat="22.480803251695686" lon="113.92737082508452">
        <ele>3.4152252301573753</ele>
        <time>2026-08-16T12:03:52Z</time>
      </trkpt>
      <trkpt lat="22.480794247107028" lon="113.92730345979756">
        <ele>2.919164682738483</ele>
        <time>2026-08-16T12:03:55Z</time>
      </trkpt>
      <trkpt lat="22.480768526946854" lon="113.92724722055566">
        <ele>1.850978922098875</ele>
        <time>2026-08-16T12:03:58Z</time>
      </trkpt>
      <trkpt lat="22.480766942480802" lon="113.9271953649377">
        <ele>3.92261591181159</ele>
        <time>2026-08-16T12:04:01Z</time>
      </trkpt>
      <trkpt lat="22.48081067115929" lon="113.92713311840897">
        <ele>1.45137938298285</ele>
        <time>2026-08-16T12:04:04Z</time>
      </trkpt>
      <trkpt lat="22.480848767659754" lon="113.92701636459994">
        <ele>0.6464148312807083</ele>
        <time>2026-08-16T12:04:10Z</time>
      </trkpt>
      <trkpt lat="22.480842534288506" lon="113.92691596115263">
        <ele>0.32342556957155466</ele>
        <time>2026-08-16T12:04:16Z</time>
      </trkpt>
      <trkpt lat="22.480954437369483" lon="113.92662791650379">
        <ele>-1.9923463175073266</ele>
        <time>2026-08-16T12:04:34Z</time>
      </trkpt>
      <trkpt lat="22.48101420990747" lon="113.92631443455483">
        <ele>0.39226474426686764</ele>
        <time>2026-08-16T12:04:49Z</time>
      </trkpt>
      <trkpt lat="22.480995031697788" lon="113.92626271864694">
        <ele>1.071468942798674</ele>
        <time>2026-08-16T12:04:52Z</time>
      </trkpt>
      <trkpt lat="22.481081488037244" lon="113.9260343384877">
        <ele>1.1220799274742603</ele>
        <time>2026-08-16T12:05:07Z</time>
      </trkpt>
      <trkpt lat="22.48117552163144" lon="113.92584932329876">
        <ele>0.98579316213727</ele>
        <time>2026-08-16T12:05:19Z</time>
      </trkpt>
      <trkpt lat="22.481200418374694" lon="113.92577139331729">
        <ele>2.169167336076498</ele>
        <time>2026-08-16T12:05:23Z</time>
      </trkpt>
      <trkpt lat="22.481228653598624" lon="113.92551070665421">
        <ele>2.1466384986415505</ele>
        <time>2026-08-16T12:05:31Z</time>
      </trkpt>
      <trkpt lat="22.481263191153435" lon="113.92533886864261">
        <ele>1.4088736176490784</ele>
        <time>2026-08-16T12:05:38Z</time>
      </trkpt>
      <trkpt lat="22.48125968231329" lon="113.92510434673525">
        <ele>1.6233085170388222</ele>
        <time>2026-08-16T12:05:47Z</time>
      </trkpt>
      <trkpt lat="22.481286515871105" lon="113.92493995085003">
        <ele>2.0867403522133827</ele>
        <time>2026-08-16T12:05:53Z</time>
      </trkpt>
      <trkpt lat="22.481336140131592" lon="113.92482460134383">
        <ele>1.7164718564599752</ele>
        <time>2026-08-16T12:05:59Z</time>
      </trkpt>
      <trkpt lat="22.48134709669993" lon="113.92476193920798">
        <ele>2.18656755797565</ele>
        <time>2026-08-16T12:06:02Z</time>
      </trkpt>
      <trkpt lat="22.481444321393255" lon="113.92463683094627">
        <ele>2.6362524395808578</ele>
        <time>2026-08-16T12:06:08Z</time>
      </trkpt>
      <trkpt lat="22.481444435205482" lon="113.92457288364024">
        <ele>3.479247241280973</ele>
        <time>2026-08-16T12:06:11Z</time>
      </trkpt>
      <trkpt lat="22.48147896605975" lon="113.9245025460988">
        <ele>2.844504477456212</ele>
        <time>2026-08-16T12:06:14Z</time>
      </trkpt>
      <trkpt lat="22.48148142645233" lon="113.92444280897394">
        <ele>3.646520873531699</ele>
        <time>2026-08-16T12:06:17Z</time>
      </trkpt>
      <trkpt lat="22.481503404011328" lon="113.92437874014597">
        <ele>3.158061185851693</ele>
        <time>2026-08-16T12:06:20Z</time>
      </trkpt>
      <trkpt lat="22.48153933402868" lon="113.92433097854472">
        <ele>3.376081572845578</ele>
        <time>2026-08-16T12:06:23Z</time>
      </trkpt>
      <trkpt lat="22.48154470364368" lon="113.92426881552325">
        <ele>2.810003158636391</ele>
        <time>2026-08-16T12:06:26Z</time>
      </trkpt>
      <trkpt lat="22.481607427281443" lon="113.92409213306205">
        <ele>2.396267404779792</ele>
        <time>2026-08-16T12:06:35Z</time>
      </trkpt>
      <trkpt lat="22.48153838798345" lon="113.92398645481047">
        <ele>2.1052826875820756</ele>
        <time>2026-08-16T12:06:38Z</time>
      </trkpt>
      <trkpt lat="22.481572165845623" lon="113.923891245508">
        <ele>2.7122868951410055</ele>
        <time>2026-08-16T12:06:44Z</time>
      </trkpt>
      <trkpt lat="22.481626351180648" lon="113.92387702422678">
        <ele>2.92123272549361</ele>
        <time>2026-08-16T12:06:47Z</time>
      </trkpt>
      <trkpt lat="22.48170606819002" lon="113.92382991031945">
        <ele>2.601106063462794</ele>
        <time>2026-08-16T12:06:50Z</time>
      </trkpt>
      <trkpt lat="22.481767955399924" lon="113.92382941428416">
        <ele>2.715487563982606</ele>
        <time>2026-08-16T12:06:53Z</time>
      </trkpt>
      <trkpt lat="22.481857964505423" lon="113.92377706837122">
        <ele>3.9600288020446897</ele>
        <time>2026-08-16T12:06:59Z</time>
      </trkpt>
      <trkpt lat="22.48191986276138" lon="113.92378270598982">
        <ele>4.423170993104577</ele>
        <time>2026-08-16T12:07:02Z</time>
      </trkpt>
      <trkpt lat="22.481954597174646" lon="113.9238791581185">
        <ele>5.349398160353303</ele>
        <time>2026-08-16T12:07:05Z</time>
      </trkpt>
      <trkpt lat="22.482113925114174" lon="113.92390289759362">
        <ele>5.979156197048724</ele>
        <time>2026-08-16T12:07:11Z</time>
      </trkpt>
      <trkpt lat="22.482164068940524" lon="113.92385714355365">
        <ele>6.400240559130907</ele>
        <time>2026-08-16T12:07:14Z</time>
      </trkpt>
      <trkpt lat="22.48231601220658" lon="113.92383179178003">
        <ele>6.439285806380212</ele>
        <time>2026-08-16T12:07:20Z</time>
      </trkpt>
      <trkpt lat="22.482412209583693" lon="113.92383592383004">
        <ele>5.860171211883426</ele>
        <time>2026-08-16T12:07:27Z</time>
      </trkpt>
      <trkpt lat="22.482515358920807" lon="113.92391963452246">
        <ele>4.853917619213462</ele>
        <time>2026-08-16T12:07:31Z</time>
      </trkpt>
      <trkpt lat="22.482608476535777" lon="113.92393639751394">
        <ele>4.025268745608628</ele>
        <time>2026-08-16T12:07:35Z</time>
      </trkpt>
      <trkpt lat="22.482784898440382" lon="113.92401246770876">
        <ele>3.368593749590218</ele>
        <time>2026-08-16T12:07:43Z</time>
      </trkpt>
      <trkpt lat="22.48292523574885" lon="113.9242252579885">
        <ele>1.8646523710340261</ele>
        <time>2026-08-16T12:07:55Z</time>
      </trkpt>
      <trkpt lat="22.4829748127679" lon="113.92435015453766">
        <ele>2.3558604596182704</ele>
        <time>2026-08-16T12:08:01Z</time>
      </trkpt>
      <trkpt lat="22.483087993628573" lon="113.92445353418364">
        <ele>4.0660766419023275</ele>
        <time>2026-08-16T12:08:07Z</time>
      </trkpt>
      <trkpt lat="22.483230667921323" lon="113.9247582472055">
        <ele>6.5416905684396625</ele>
        <time>2026-08-16T12:08:22Z</time>
      </trkpt>
      <trkpt lat="22.483208043954793" lon="113.92483384377903">
        <ele>6.621536711230874</ele>
        <time>2026-08-16T12:08:25Z</time>
      </trkpt>
      <trkpt lat="22.48345347132322" lon="113.92495923540541">
        <ele>6.984095063060522</ele>
        <time>2026-08-16T12:08:37Z</time>
      </trkpt>
      <trkpt lat="22.483456148140267" lon="113.92505752873849">
        <ele>6.864593585953116</ele>
        <time>2026-08-16T12:08:43Z</time>
      </trkpt>
      <trkpt lat="22.483417184548987" lon="113.92521877087849">
        <ele>6.969001988880336</ele>
        <time>2026-08-16T12:08:49Z</time>
      </trkpt>
      <trkpt lat="22.48341356949787" lon="113.92536802423542">
        <ele>7.63153319619596</ele>
        <time>2026-08-16T12:08:55Z</time>
      </trkpt>
      <trkpt lat="22.483370485642325" lon="113.92544861127794">
        <ele>7.499564504250884</ele>
        <time>2026-08-16T12:08:58Z</time>
      </trkpt>
      <trkpt lat="22.483360089404044" lon="113.92557704351418">
        <ele>7.381167382001877</ele>
        <time>2026-08-16T12:09:04Z</time>
      </trkpt>
      <trkpt lat="22.483397187158424" lon="113.92563530085977">
        <ele>7.883650387637317</ele>
        <time>2026-08-16T12:09:07Z</time>
      </trkpt>
      <trkpt lat="22.483476852239598" lon="113.92566862780014">
        <ele>7.186240378767252</ele>
        <time>2026-08-16T12:09:13Z</time>
      </trkpt>
      <trkpt lat="22.48359531831657" lon="113.92564695798703">
        <ele>6.916003623045981</ele>
        <time>2026-08-16T12:09:19Z</time>
      </trkpt>
      <trkpt lat="22.483648553449385" lon="113.92570072731404">
        <ele>6.617017264477909</ele>
        <time>2026-08-16T12:09:22Z</time>
      </trkpt>
      <trkpt lat="22.48393011130847" lon="113.9256990951977">
        <ele>6.885123430751264</ele>
        <time>2026-08-16T12:09:35Z</time>
      </trkpt>
      <trkpt lat="22.484009082315993" lon="113.92577287796257">
        <ele>7.264069119468331</ele>
        <time>2026-08-16T12:09:39Z</time>
      </trkpt>
      <trkpt lat="22.484275366372692" lon="113.92581344302596">
        <ele>8.33664624672383</ele>
        <time>2026-08-16T12:09:51Z</time>
      </trkpt>
      <trkpt lat="22.484577446460598" lon="113.92583224477269">
        <ele>8.20134309772402</ele>
        <time>2026-08-16T12:10:06Z</time>
      </trkpt>
      <trkpt lat="22.484716534826898" lon="113.92585258417199">
        <ele>8.302731392905116</ele>
        <time>2026-08-16T12:10:12Z</time>
      </trkpt>
      <trkpt lat="22.48487517343263" lon="113.92594237625322">
        <ele>7.6872632363811135</ele>
        <time>2026-08-16T12:10:21Z</time>
      </trkpt>
      <trkpt lat="22.48493965788712" lon="113.92591524398487">
        <ele>7.847058793529868</ele>
        <time>2026-08-16T12:10:24Z</time>
      </trkpt>
      <trkpt lat="22.485006935129583" lon="113.92592206225778">
        <ele>7.6604103138670325</ele>
        <time>2026-08-16T12:10:27Z</time>
      </trkpt>
      <trkpt lat="22.485056626325726" lon="113.9259723551473">
        <ele>8.032205745577812</ele>
        <time>2026-08-16T12:10:30Z</time>
      </trkpt>
      <trkpt lat="22.485174450071412" lon="113.92594156836192">
        <ele>7.997500654309988</ele>
        <time>2026-08-16T12:10:36Z</time>
      </trkpt>
      <trkpt lat="22.485189111651902" lon="113.92583012753866">
        <ele>8.370287669822574</ele>
        <time>2026-08-16T12:10:39Z</time>
      </trkpt>
      <trkpt lat="22.485164862770386" lon="113.92575671389093">
        <ele>8.126925447955728</ele>
        <time>2026-08-16T12:10:42Z</time>
      </trkpt>
      <trkpt lat="22.485124546410194" lon="113.92540724107924">
        <ele>5.136307489126921</ele>
        <time>2026-08-16T12:10:57Z</time>
      </trkpt>
      <trkpt lat="22.48509408590991" lon="113.92534421109744">
        <ele>4.558618200011551</ele>
        <time>2026-08-16T12:11:00Z</time>
      </trkpt>
      <trkpt lat="22.485092328371408" lon="113.92526565824112">
        <ele>3.843701201491058</ele>
        <time>2026-08-16T12:11:03Z</time>
      </trkpt>
      <trkpt lat="22.485249689840458" lon="113.9252032022839">
        <ele>2.2831168677657843</ele>
        <time>2026-08-16T12:11:12Z</time>
      </trkpt>
      <trkpt lat="22.485450847259802" lon="113.92522640493331">
        <ele>3.124530754983425</ele>
        <time>2026-08-16T12:11:21Z</time>
      </trkpt>
      <trkpt lat="22.48558815111631" lon="113.92520657613497">
        <ele>3.0027953358367085</ele>
        <time>2026-08-16T12:11:30Z</time>
      </trkpt>
      <trkpt lat="22.48571131183228" lon="113.92512975605797">
        <ele>3.2118517691269517</ele>
        <time>2026-08-16T12:11:36Z</time>
      </trkpt>
      <trkpt lat="22.485656358707605" lon="113.9249969588742">
        <ele>3.3459150791168213</ele>
        <time>2026-08-16T12:11:44Z</time>
      </trkpt>
      <trkpt lat="22.48573598812226" lon="113.92466896408543">
        <ele>2.956881010904908</ele>
        <time>2026-08-16T12:12:00Z</time>
      </trkpt>
      <trkpt lat="22.485814087893363" lon="113.92434849569973">
        <ele>3.3512460300698876</ele>
        <time>2026-08-16T12:12:15Z</time>
      </trkpt>
      <trkpt lat="22.4858949575779" lon="113.92406898611347">
        <ele>3.009435153566301</ele>
        <time>2026-08-16T12:12:30Z</time>
      </trkpt>
      <trkpt lat="22.485966367113026" lon="113.92378708856712">
        <ele>3.546167269349098</ele>
        <time>2026-08-16T12:12:42Z</time>
      </trkpt>
      <trkpt lat="22.48607688008871" lon="113.92348333851812">
        <ele>3.3879632567986846</ele>
        <time>2026-08-16T12:12:57Z</time>
      </trkpt>
      <trkpt lat="22.486130521530274" lon="113.9233510959674">
        <ele>2.928173016756773</ele>
        <time>2026-08-16T12:13:03Z</time>
      </trkpt>
      <trkpt lat="22.486133296149127" lon="113.92327840968011">
        <ele>2.67845600284636</ele>
        <time>2026-08-16T12:13:06Z</time>
      </trkpt>
      <trkpt lat="22.486194143299652" lon="113.92310874888747">
        <ele>2.1320492764934897</ele>
        <time>2026-08-16T12:13:15Z</time>
      </trkpt>
      <trkpt lat="22.486227903784453" lon="113.92305707805275">
        <ele>2.234648760408163</ele>
        <time>2026-08-16T12:13:18Z</time>
      </trkpt>
      <trkpt lat="22.486281163733974" lon="113.92301293568883">
        <ele>2.7856613593176007</ele>
        <time>2026-08-16T12:13:21Z</time>
      </trkpt>
      <trkpt lat="22.48640478741346" lon="113.92298654688253">
        <ele>2.5318789491429925</ele>
        <time>2026-08-16T12:13:27Z</time>
      </trkpt>
      <trkpt lat="22.486601983425675" lon="113.92306285780073">
        <ele>3.0019663758575916</ele>
        <time>2026-08-16T12:13:39Z</time>
      </trkpt>
      <trkpt lat="22.486746178537707" lon="113.92308426549516">
        <ele>3.8237070702016354</ele>
        <time>2026-08-16T12:13:46Z</time>
      </trkpt>
      <trkpt lat="22.486791407452788" lon="113.92311217319968">
        <ele>3.9061414571478963</ele>
        <time>2026-08-16T12:13:49Z</time>
      </trkpt>
      <trkpt lat="22.486860382019803" lon="113.92311085050792">
        <ele>4.472792058251798</ele>
        <time>2026-08-16T12:13:52Z</time>
      </trkpt>
      <trkpt lat="22.486911139627676" lon="113.92313723873445">
        <ele>4.785934591665864</ele>
        <time>2026-08-16T12:13:55Z</time>
      </trkpt>
      <trkpt lat="22.48698939232409" lon="113.92311823688547">
        <ele>4.8810570342466235</ele>
        <time>2026-08-16T12:13:58Z</time>
      </trkpt>
      <trkpt lat="22.487030058933332" lon="113.92306616427864">
        <ele>5.249676420353353</ele>
        <time>2026-08-16T12:14:01Z</time>
      </trkpt>
      <trkpt lat="22.48705684476207" lon="113.92295818422495">
        <ele>5.232481012120843</ele>
        <time>2026-08-16T12:14:07Z</time>
      </trkpt>
      <trkpt lat="22.487058064996102" lon="113.92288553162838">
        <ele>5.287856197915971</ele>
        <time>2026-08-16T12:14:10Z</time>
      </trkpt>
      <trkpt lat="22.48709064912167" lon="113.92282684688917">
        <ele>4.635835614055395</ele>
        <time>2026-08-16T12:14:13Z</time>
      </trkpt>
      <trkpt lat="22.48717101951212" lon="113.92251645314118">
        <ele>3.082400110550225</ele>
        <time>2026-08-16T12:14:28Z</time>
      </trkpt>
      <trkpt lat="22.48725667227229" lon="113.92220655563244">
        <ele>2.672401638701558</ele>
        <time>2026-08-16T12:14:43Z</time>
      </trkpt>
      <trkpt lat="22.487378381105934" lon="113.9218764206664">
        <ele>0.15990135166794062</ele>
        <time>2026-08-16T12:14:58Z</time>
      </trkpt>
      <trkpt lat="22.487357519450686" lon="113.92180768634313">
        <ele>-0.24602274037897587</ele>
        <time>2026-08-16T12:15:01Z</time>
      </trkpt>
      <trkpt lat="22.487263079934838" lon="113.92171464157803">
        <ele>0.1778178196400404</ele>
        <time>2026-08-16T12:15:07Z</time>
      </trkpt>
      <trkpt lat="22.487202475357016" lon="113.92159522149915">
        <ele>0.619441382586956</ele>
        <time>2026-08-16T12:15:13Z</time>
      </trkpt>
      <trkpt lat="22.487038492919865" lon="113.92135689886132">
        <ele>-0.8930752836167812</ele>
        <time>2026-08-16T12:15:28Z</time>
      </trkpt>
      <trkpt lat="22.48687558895032" lon="113.92117331196592">
        <ele>0.14866508916020393</ele>
        <time>2026-08-16T12:15:40Z</time>
      </trkpt>
      <trkpt lat="22.486833512162995" lon="113.92109533806406">
        <ele>1.4950684290379286</ele>
        <time>2026-08-16T12:15:46Z</time>
      </trkpt>
      <trkpt lat="22.48680454194197" lon="113.92080357829794">
        <ele>-0.30008000042289495</ele>
        <time>2026-08-16T12:16:01Z</time>
      </trkpt>
      <trkpt lat="22.486790800588043" lon="113.92046752349574">
        <ele>-0.4356953203678131</ele>
        <time>2026-08-16T12:16:17Z</time>
      </trkpt>
      <trkpt lat="22.48677961231107" lon="113.92040623361477">
        <ele>-0.2868327312171459</ele>
        <time>2026-08-16T12:16:20Z</time>
      </trkpt>
      <trkpt lat="22.48679914975847" lon="113.92026122802241">
        <ele>0.8325385516509414</ele>
        <time>2026-08-16T12:16:26Z</time>
      </trkpt>
      <trkpt lat="22.486913751774324" lon="113.92008267498913">
        <ele>0.558506689965725</ele>
        <time>2026-08-16T12:16:38Z</time>
      </trkpt>
      <trkpt lat="22.48708672956966" lon="113.91988319146547">
        <ele>1.9219235321506858</ele>
        <time>2026-08-16T12:16:53Z</time>
      </trkpt>
      <trkpt lat="22.487145527789444" lon="113.91979412622453">
        <ele>0.5660280156880617</ele>
        <time>2026-08-16T12:16:59Z</time>
      </trkpt>
      <trkpt lat="22.487342607440905" lon="113.91963012071817">
        <ele>1.509408738464117</ele>
        <time>2026-08-16T12:17:14Z</time>
      </trkpt>
      <trkpt lat="22.48742538651367" lon="113.91954233319976">
        <ele>2.3020564150065184</ele>
        <time>2026-08-16T12:17:17Z</time>
      </trkpt>
      <trkpt lat="22.487469980583924" lon="113.91946175291629">
        <ele>2.597072564996779</ele>
        <time>2026-08-16T12:17:20Z</time>
      </trkpt>
      <trkpt lat="22.48745101716045" lon="113.9192914472541">
        <ele>2.554335752502084</ele>
        <time>2026-08-16T12:17:23Z</time>
      </trkpt>
      <trkpt lat="22.487486471552263" lon="113.91925347160145">
        <ele>2.144591965712607</ele>
        <time>2026-08-16T12:17:26Z</time>
      </trkpt>
      <trkpt lat="22.48752173859047" lon="113.919149236491">
        <ele>1.9587096460163593</ele>
        <time>2026-08-16T12:17:29Z</time>
      </trkpt>
      <trkpt lat="22.487343457761135" lon="113.91893141275384">
        <ele>1.8487422931939363</ele>
        <time>2026-08-16T12:17:32Z</time>
      </trkpt>
      <trkpt lat="22.487377190302638" lon="113.91883111771824">
        <ele>1.3885789373889565</ele>
        <time>2026-08-16T12:17:35Z</time>
      </trkpt>
      <trkpt lat="22.487513424816772" lon="113.91900459622353">
        <ele>1.1664158375933766</ele>
        <time>2026-08-16T12:17:38Z</time>
      </trkpt>
      <trkpt lat="22.487610559137686" lon="113.91894139064243">
        <ele>2.358959237113595</ele>
        <time>2026-08-16T12:17:41Z</time>
      </trkpt>
      <trkpt lat="22.487626534396725" lon="113.9188244407234">
        <ele>2.9921856559813023</ele>
        <time>2026-08-16T12:17:47Z</time>
      </trkpt>
      <trkpt lat="22.487539762750348" lon="113.91870470913116">
        <ele>2.733749837614596</ele>
        <time>2026-08-16T12:17:50Z</time>
      </trkpt>
      <trkpt lat="22.48756457560876" lon="113.91864826736132">
        <ele>2.234351401217282</ele>
        <time>2026-08-16T12:17:53Z</time>
      </trkpt>
      <trkpt lat="22.487571677633067" lon="113.91842404612866">
        <ele>2.2545758485794067</ele>
        <time>2026-08-16T12:18:03Z</time>
      </trkpt>
      <trkpt lat="22.487553166045814" lon="113.9183539140194">
        <ele>1.9797786250710487</ele>
        <time>2026-08-16T12:18:06Z</time>
      </trkpt>
      <trkpt lat="22.487567719380614" lon="113.91804697301623">
        <ele>2.8601860869675875</ele>
        <time>2026-08-16T12:18:21Z</time>
      </trkpt>
      <trkpt lat="22.48757602079691" lon="113.9177065953191">
        <ele>2.266248126514256</ele>
        <time>2026-08-16T12:18:36Z</time>
      </trkpt>
      <trkpt lat="22.487570978342458" lon="113.91739238742952">
        <ele>1.4542905632406473</ele>
        <time>2026-08-16T12:18:51Z</time>
      </trkpt>
      <trkpt lat="22.48757903731783" lon="113.91722866361532">
        <ele>1.2609264710918069</ele>
        <time>2026-08-16T12:19:00Z</time>
      </trkpt>
      <trkpt lat="22.487633754037507" lon="113.91710338807519">
        <ele>0.6725075924769044</ele>
        <time>2026-08-16T12:19:06Z</time>
      </trkpt>
      <trkpt lat="22.487689551486973" lon="113.91709153299524">
        <ele>0.744560225866735</ele>
        <time>2026-08-16T12:19:12Z</time>
      </trkpt>
      <trkpt lat="22.48768049691508" lon="113.91743636943957">
        <ele>-0.23176648933440447</ele>
        <time>2026-08-16T12:19:33Z</time>
      </trkpt>
      <trkpt lat="22.487669539434542" lon="113.91764583536045">
        <ele>1.436374044045806</ele>
        <time>2026-08-16T12:19:42Z</time>
      </trkpt>
      <trkpt lat="22.48762831998342" lon="113.91791913421795">
        <ele>2.4383086506277323</ele>
        <time>2026-08-16T12:19:54Z</time>
      </trkpt>
      <trkpt lat="22.4876389010378" lon="113.91816806350788">
        <ele>1.2566126976162195</ele>
        <time>2026-08-16T12:20:07Z</time>
      </trkpt>
      <trkpt lat="22.48762296027056" lon="113.91827126525445">
        <ele>1.4769759308546782</ele>
        <time>2026-08-16T12:20:13Z</time>
      </trkpt>
      <trkpt lat="22.487635078088104" lon="113.9183971842168">
        <ele>0.7649870235472918</ele>
        <time>2026-08-16T12:20:19Z</time>
      </trkpt>
      <trkpt lat="22.487614649737633" lon="113.91847556906835">
        <ele>0.3127424521371722</ele>
        <time>2026-08-16T12:20:22Z</time>
      </trkpt>
      <trkpt lat="22.487647248638833" lon="113.91859604012903">
        <ele>2.1173101514577866</ele>
        <time>2026-08-16T12:20:28Z</time>
      </trkpt>
      <trkpt lat="22.48763172398574" lon="113.91890173419529">
        <ele>2.568076439201832</ele>
        <time>2026-08-16T12:20:40Z</time>
      </trkpt>
      <trkpt lat="22.487640010518234" lon="113.91906712006326">
        <ele>2.7818419793620706</ele>
        <time>2026-08-16T12:20:49Z</time>
      </trkpt>
      <trkpt lat="22.487399190643664" lon="113.91938884578515">
        <ele>0.6712443763390183</ele>
        <time>2026-08-16T12:21:07Z</time>
      </trkpt>
      <trkpt lat="22.487220515000335" lon="113.91967001544327">
        <ele>0.9685061192139983</ele>
        <time>2026-08-16T12:21:25Z</time>
      </trkpt>
      <trkpt lat="22.487089191456313" lon="113.91987105191559">
        <ele>1.3720727739855647</ele>
        <time>2026-08-16T12:21:37Z</time>
      </trkpt>
      <trkpt lat="22.486922097496915" lon="113.91995564256604">
        <ele>1.9701954629272223</ele>
        <time>2026-08-16T12:21:46Z</time>
      </trkpt>
      <trkpt lat="22.48691927131393" lon="113.92001181720656">
        <ele>1.4450698299333453</ele>
        <time>2026-08-16T12:21:49Z</time>
      </trkpt>
      <trkpt lat="22.486758253176625" lon="113.92017792830376">
        <ele>1.0787467062473297</ele>
        <time>2026-08-16T12:21:55Z</time>
      </trkpt>
      <trkpt lat="22.486703812897296" lon="113.9202008009629">
        <ele>1.47334795165807</ele>
        <time>2026-08-16T12:21:58Z</time>
      </trkpt>
      <trkpt lat="22.48667906352459" lon="113.92024762613666">
        <ele>1.6738022807985544</ele>
        <time>2026-08-16T12:22:01Z</time>
      </trkpt>
      <trkpt lat="22.486694577571615" lon="113.92034986422429">
        <ele>1.4341284055262804</ele>
        <time>2026-08-16T12:22:04Z</time>
      </trkpt>
      <trkpt lat="22.486787629522272" lon="113.92036523933669">
        <ele>1.1501031704246998</ele>
        <time>2026-08-16T12:22:07Z</time>
      </trkpt>
      <trkpt lat="22.486791292155175" lon="113.9206089409502">
        <ele>1.5023970426991582</ele>
        <time>2026-08-16T12:22:17Z</time>
      </trkpt>
      <trkpt lat="22.486804510600493" lon="113.92066548791159">
        <ele>1.7242152215912938</ele>
        <time>2026-08-16T12:22:20Z</time>
      </trkpt>
      <trkpt lat="22.486780470635434" lon="113.92076956168621">
        <ele>2.30142411775887</ele>
        <time>2026-08-16T12:22:26Z</time>
      </trkpt>
      <trkpt lat="22.48675492971238" lon="113.92109151892429">
        <ele>1.8406761502847075</ele>
        <time>2026-08-16T12:22:38Z</time>
      </trkpt>
      <trkpt lat="22.48677638672314" lon="113.92114956818277">
        <ele>1.7508022813126445</ele>
        <time>2026-08-16T12:22:41Z</time>
      </trkpt>
      <trkpt lat="22.486885503229885" lon="113.92111533550329">
        <ele>1.732797802425921</ele>
        <time>2026-08-16T12:22:44Z</time>
      </trkpt>
      <trkpt lat="22.486966920623114" lon="113.92136105421825">
        <ele>1.5854815663769841</ele>
        <time>2026-08-16T12:22:56Z</time>
      </trkpt>
      <trkpt lat="22.487024403587277" lon="113.92146694657337">
        <ele>1.5638631163164973</ele>
        <time>2026-08-16T12:23:05Z</time>
      </trkpt>
      <trkpt lat="22.487036819178744" lon="113.92154626923038">
        <ele>1.168591887690127</ele>
        <time>2026-08-16T12:23:08Z</time>
      </trkpt>
      <trkpt lat="22.487073924905143" lon="113.92151354550035">
        <ele>0.8043289678171277</ele>
        <time>2026-08-16T12:23:11Z</time>
      </trkpt>
      <trkpt lat="22.487241168725763" lon="113.92159876123458">
        <ele>0.6311423135921359</ele>
        <time>2026-08-16T12:23:20Z</time>
      </trkpt>
      <trkpt lat="22.48735805372995" lon="113.92170393301163">
        <ele>0.6021069930866361</ele>
        <time>2026-08-16T12:23:29Z</time>
      </trkpt>
      <trkpt lat="22.487277507015676" lon="113.92198350870032">
        <ele>-0.8268950320780277</ele>
        <time>2026-08-16T12:23:47Z</time>
      </trkpt>
      <trkpt lat="22.48721335754255" lon="113.92218088779427">
        <ele>0.05761874094605446</ele>
        <time>2026-08-16T12:23:59Z</time>
      </trkpt>
      <trkpt lat="22.487163776665422" lon="113.9222502019819">
        <ele>0.9234273908659816</ele>
        <time>2026-08-16T12:24:02Z</time>
      </trkpt>
      <trkpt lat="22.487137296715353" lon="113.92249160644735">
        <ele>2.4555532727390528</ele>
        <time>2026-08-16T12:24:11Z</time>
      </trkpt>
      <trkpt lat="22.487109998651267" lon="113.92260384933259">
        <ele>3.6317623127251863</ele>
        <time>2026-08-16T12:24:15Z</time>
      </trkpt>
      <trkpt lat="22.48707493651926" lon="113.92266370790668">
        <ele>3.744639879092574</ele>
        <time>2026-08-16T12:24:18Z</time>
      </trkpt>
      <trkpt lat="22.487032557031984" lon="113.92280195881978">
        <ele>3.1809840435162187</ele>
        <time>2026-08-16T12:24:24Z</time>
      </trkpt>
      <trkpt lat="22.48699523657387" lon="113.9228641660443">
        <ele>2.6478840447962284</ele>
        <time>2026-08-16T12:24:27Z</time>
      </trkpt>
      <trkpt lat="22.487003940470586" lon="113.92294947726637">
        <ele>3.2305076625198126</ele>
        <time>2026-08-16T12:24:30Z</time>
      </trkpt>
      <trkpt lat="22.486984211049315" lon="113.92301980000438">
        <ele>4.057276793755591</ele>
        <time>2026-08-16T12:24:33Z</time>
      </trkpt>
      <trkpt lat="22.486943769023235" lon="113.9230920307541">
        <ele>4.351773072965443</ele>
        <time>2026-08-16T12:24:36Z</time>
      </trkpt>
      <trkpt lat="22.48693342274899" lon="113.92314164323503">
        <ele>4.043756634928286</ele>
        <time>2026-08-16T12:24:39Z</time>
      </trkpt>
      <trkpt lat="22.486778314580967" lon="113.92311818146875">
        <ele>4.283762096427381</ele>
        <time>2026-08-16T12:24:45Z</time>
      </trkpt>
      <trkpt lat="22.486721378770508" lon="113.92308739471214">
        <ele>4.814942852593958</ele>
        <time>2026-08-16T12:24:48Z</time>
      </trkpt>
      <trkpt lat="22.486681244689382" lon="113.92302788856485">
        <ele>4.693871454335749</ele>
        <time>2026-08-16T12:24:51Z</time>
      </trkpt>
      <trkpt lat="22.48649053633819" lon="113.92297976167188">
        <ele>3.1558770025148988</ele>
        <time>2026-08-16T12:25:00Z</time>
      </trkpt>
      <trkpt lat="22.48639435134843" lon="113.9229262964859">
        <ele>2.698817392811179</ele>
        <time>2026-08-16T12:25:06Z</time>
      </trkpt>
      <trkpt lat="22.486327722885072" lon="113.92291320573662">
        <ele>2.3848547535017133</ele>
        <time>2026-08-16T12:25:09Z</time>
      </trkpt>
      <trkpt lat="22.48624772856813" lon="113.92292811785752">
        <ele>1.8670274764299393</ele>
        <time>2026-08-16T12:25:12Z</time>
      </trkpt>
      <trkpt lat="22.4861901315885" lon="113.92298036711955">
        <ele>1.6302836872637272</ele>
        <time>2026-08-16T12:25:15Z</time>
      </trkpt>
      <trkpt lat="22.486164469191703" lon="113.92317779122611">
        <ele>1.703985440544784</ele>
        <time>2026-08-16T12:25:24Z</time>
      </trkpt>
      <trkpt lat="22.48611970863334" lon="113.9232523747686">
        <ele>2.075604785233736</ele>
        <time>2026-08-16T12:25:27Z</time>
      </trkpt>
      <trkpt lat="22.48607985732439" lon="113.92337608591444">
        <ele>2.2529848543927073</ele>
        <time>2026-08-16T12:25:33Z</time>
      </trkpt>
      <trkpt lat="22.486021326525968" lon="113.92347385096372">
        <ele>2.7977081798017025</ele>
        <time>2026-08-16T12:25:39Z</time>
      </trkpt>
      <trkpt lat="22.48595927093269" lon="113.9236396403783">
        <ele>3.1416907301172614</ele>
        <time>2026-08-16T12:25:48Z</time>
      </trkpt>
      <trkpt lat="22.485926618991602" lon="113.9238298622513">
        <ele>2.872705311514437</ele>
        <time>2026-08-16T12:25:57Z</time>
      </trkpt>
      <trkpt lat="22.4859309079911" lon="113.92387893318616">
        <ele>3.015153443440795</ele>
        <time>2026-08-16T12:26:00Z</time>
      </trkpt>
      <trkpt lat="22.48586052415931" lon="113.92403511652734">
        <ele>2.9728968385607004</ele>
        <time>2026-08-16T12:26:06Z</time>
      </trkpt>
      <trkpt lat="22.485868493820746" lon="113.92411496583514">
        <ele>3.5507042538374662</ele>
        <time>2026-08-16T12:26:09Z</time>
      </trkpt>
      <trkpt lat="22.48585376827648" lon="113.92419170552994">
        <ele>4.235487971454859</ele>
        <time>2026-08-16T12:26:12Z</time>
      </trkpt>
      <trkpt lat="22.485814186382125" lon="113.92422384555887">
        <ele>3.7325036637485027</ele>
        <time>2026-08-16T12:26:15Z</time>
      </trkpt>
      <trkpt lat="22.48580342799285" lon="113.92433121321297">
        <ele>3.7347984202206135</ele>
        <time>2026-08-16T12:26:22Z</time>
      </trkpt>
      <trkpt lat="22.485823534161533" lon="113.9243898754286">
        <ele>3.454263238236308</ele>
        <time>2026-08-16T12:26:26Z</time>
      </trkpt>
      <trkpt lat="22.485738906356715" lon="113.92460285644736">
        <ele>3.8386331973597407</ele>
        <time>2026-08-16T12:26:34Z</time>
      </trkpt>
      <trkpt lat="22.485710494454768" lon="113.92473680719463">
        <ele>3.476786139421165</ele>
        <time>2026-08-16T12:26:40Z</time>
      </trkpt>
      <trkpt lat="22.485718208936422" lon="113.92493869513783">
        <ele>3.246336942538619</ele>
        <time>2026-08-16T12:26:49Z</time>
      </trkpt>
      <trkpt lat="22.485684590725466" lon="113.9250660217228">
        <ele>3.6052999841049314</ele>
        <time>2026-08-16T12:26:55Z</time>
      </trkpt>
      <trkpt lat="22.485651549710983" lon="113.92512427390217">
        <ele>3.7140975072979927</ele>
        <time>2026-08-16T12:26:58Z</time>
      </trkpt>
      <trkpt lat="22.48559948446193" lon="113.92517215559658">
        <ele>3.7331829154863954</ele>
        <time>2026-08-16T12:27:01Z</time>
      </trkpt>
      <trkpt lat="22.4855853672346" lon="113.9252416691059">
        <ele>3.4803453208878636</ele>
        <time>2026-08-16T12:27:04Z</time>
      </trkpt>
      <trkpt lat="22.485440807256868" lon="113.9252754215369">
        <ele>3.338918278925121</ele>
        <time>2026-08-16T12:27:10Z</time>
      </trkpt>
      <trkpt lat="22.485302227321434" lon="113.92528082258333">
        <ele>3.3487975345924497</ele>
        <time>2026-08-16T12:27:16Z</time>
      </trkpt>
      <trkpt lat="22.485104647494946" lon="113.92525303422626">
        <ele>2.4639121973887086</ele>
        <time>2026-08-16T12:27:25Z</time>
      </trkpt>
      <trkpt lat="22.4850971607901" lon="113.92533284839944">
        <ele>2.486087807454169</ele>
        <time>2026-08-16T12:27:31Z</time>
      </trkpt>
      <trkpt lat="22.485123821401622" lon="113.92544948367376">
        <ele>4.287147371098399</ele>
        <time>2026-08-16T12:27:37Z</time>
      </trkpt>
      <trkpt lat="22.485108115846472" lon="113.92551473586977">
        <ele>4.709250643849373</ele>
        <time>2026-08-16T12:27:40Z</time>
      </trkpt>
      <trkpt lat="22.4851657644882" lon="113.92576600938857">
        <ele>6.9817935526371</ele>
        <time>2026-08-16T12:27:49Z</time>
      </trkpt>
      <trkpt lat="22.48521034392781" lon="113.92583533245221">
        <ele>7.878806158900261</ele>
        <time>2026-08-16T12:27:52Z</time>
      </trkpt>
      <trkpt lat="22.485189077045504" lon="113.9259160342377">
        <ele>8.127220209687948</ele>
        <time>2026-08-16T12:27:55Z</time>
      </trkpt>
      <trkpt lat="22.48512592047474" lon="113.9259614047564">
        <ele>9.138074482791126</ele>
        <time>2026-08-16T12:28:01Z</time>
      </trkpt>
      <trkpt lat="22.484963461025274" lon="113.92592040127398">
        <ele>8.609643164090812</ele>
        <time>2026-08-16T12:28:10Z</time>
      </trkpt>
      <trkpt lat="22.484844217203893" lon="113.92591554633208">
        <ele>8.065464953891933</ele>
        <time>2026-08-16T12:28:16Z</time>
      </trkpt>
      <trkpt lat="22.48474574639619" lon="113.92587413608256">
        <ele>8.054913795553148</ele>
        <time>2026-08-16T12:28:19Z</time>
      </trkpt>
      <trkpt lat="22.484561616457185" lon="113.92575637018777">
        <ele>7.440723125822842</ele>
        <time>2026-08-16T12:28:29Z</time>
      </trkpt>
      <trkpt lat="22.484472404476946" lon="113.925753018102">
        <ele>7.110196481458843</ele>
        <time>2026-08-16T12:28:33Z</time>
      </trkpt>
      <trkpt lat="22.484391550313713" lon="113.92577188779623">
        <ele>6.547752616927028</ele>
        <time>2026-08-16T12:28:37Z</time>
      </trkpt>
      <trkpt lat="22.48436589006795" lon="113.92573157341737">
        <ele>7.0669026440009475</ele>
        <time>2026-08-16T12:28:41Z</time>
      </trkpt>
      <trkpt lat="22.484209506665305" lon="113.92569746746186">
        <ele>5.840280566364527</ele>
        <time>2026-08-16T12:28:49Z</time>
      </trkpt>
      <trkpt lat="22.4841155650113" lon="113.92569799128474">
        <ele>6.306233612820506</ele>
        <time>2026-08-16T12:28:52Z</time>
      </trkpt>
      <trkpt lat="22.48395448882635" lon="113.92576175045414">
        <ele>7.139644159935415</ele>
        <time>2026-08-16T12:28:55Z</time>
      </trkpt>
      <trkpt lat="22.483871969454047" lon="113.92577615968564">
        <ele>6.815220171585679</ele>
        <time>2026-08-16T12:28:58Z</time>
      </trkpt>
      <trkpt lat="22.483777145520765" lon="113.92570707302882">
        <ele>7.472145990468562</ele>
        <time>2026-08-16T12:29:01Z</time>
      </trkpt>
      <trkpt lat="22.48363369338759" lon="113.92563619398983">
        <ele>7.4333720151335</ele>
        <time>2026-08-16T12:29:04Z</time>
      </trkpt>
      <trkpt lat="22.4835207519458" lon="113.92553543655183">
        <ele>7.728791791014373</ele>
        <time>2026-08-16T12:29:07Z</time>
      </trkpt>
      <trkpt lat="22.483418528675344" lon="113.92552648521298">
        <ele>7.709068899042904</ele>
        <time>2026-08-16T12:29:10Z</time>
      </trkpt>
      <trkpt lat="22.48349200252168" lon="113.92557014623554">
        <ele>7.135020975023508</ele>
        <time>2026-08-16T12:29:13Z</time>
      </trkpt>
      <trkpt lat="22.483487236572905" lon="113.92550987902096">
        <ele>5.990572655573487</ele>
        <time>2026-08-16T12:29:16Z</time>
      </trkpt>
      <trkpt lat="22.483458351778218" lon="113.92543637711114">
        <ele>6.2105986420065165</ele>
        <time>2026-08-16T12:29:19Z</time>
      </trkpt>
      <trkpt lat="22.483359225145215" lon="113.92536848956576">
        <ele>6.386019799858332</ele>
        <time>2026-08-16T12:29:22Z</time>
      </trkpt>
      <trkpt lat="22.483303599611133" lon="113.92554293786968">
        <ele>4.7149396585300565</ele>
        <time>2026-08-16T12:29:25Z</time>
      </trkpt>
      <trkpt lat="22.483198270972256" lon="113.92545068113299">
        <ele>7.538226052187383</ele>
        <time>2026-08-16T12:29:31Z</time>
      </trkpt>
      <trkpt lat="22.483371211328954" lon="113.92531094750859">
        <ele>7.702873167581856</ele>
        <time>2026-08-16T12:29:40Z</time>
      </trkpt>
      <trkpt lat="22.483426146880486" lon="113.9251772939798">
        <ele>7.307754889130592</ele>
        <time>2026-08-16T12:29:46Z</time>
      </trkpt>
      <trkpt lat="22.483424563323492" lon="113.92506014689033">
        <ele>7.46326280105859</ele>
        <time>2026-08-16T12:29:52Z</time>
      </trkpt>
      <trkpt lat="22.48338238556547" lon="113.92495032025353">
        <ele>6.057092590257525</ele>
        <time>2026-08-16T12:29:58Z</time>
      </trkpt>
      <trkpt lat="22.483316639676005" lon="113.92492743255039">
        <ele>6.898317388258874</ele>
        <time>2026-08-16T12:30:04Z</time>
      </trkpt>
      <trkpt lat="22.48327807902589" lon="113.92487028655636">
        <ele>6.259228967130184</ele>
        <time>2026-08-16T12:30:07Z</time>
      </trkpt>
      <trkpt lat="22.483249011189564" lon="113.92473597293854">
        <ele>6.356560689397156</ele>
        <time>2026-08-16T12:30:16Z</time>
      </trkpt>
      <trkpt lat="22.4831509984676" lon="113.9245235227184">
        <ele>5.031041955575347</ele>
        <time>2026-08-16T12:30:31Z</time>
      </trkpt>
      <trkpt lat="22.483009256589977" lon="113.92431820537679">
        <ele>4.307129494845867</ele>
        <time>2026-08-16T12:30:43Z</time>
      </trkpt>
      <trkpt lat="22.48298756513594" lon="113.92423724537979">
        <ele>2.1603746404871345</ele>
        <time>2026-08-16T12:30:47Z</time>
      </trkpt>
      <trkpt lat="22.4829329213639" lon="113.92413291885461">
        <ele>0.545520425774157</ele>
        <time>2026-08-16T12:30:51Z</time>
      </trkpt>
      <trkpt lat="22.482878152713294" lon="113.92407960600028">
        <ele>1.294707260094583</ele>
        <time>2026-08-16T12:30:54Z</time>
      </trkpt>
      <trkpt lat="22.48284019745568" lon="113.92400952075322">
        <ele>0.8510523932054639</ele>
        <time>2026-08-16T12:30:57Z</time>
      </trkpt>
      <trkpt lat="22.482649470670292" lon="113.92388463737966">
        <ele>1.423216768540442</ele>
        <time>2026-08-16T12:31:06Z</time>
      </trkpt>
      <trkpt lat="22.48258130306297" lon="113.92385986608642">
        <ele>2.035326723009348</ele>
        <time>2026-08-16T12:31:09Z</time>
      </trkpt>
      <trkpt lat="22.482387315192522" lon="113.9238366361611">
        <ele>3.0446402123197913</ele>
        <time>2026-08-16T12:31:15Z</time>
      </trkpt>
      <trkpt lat="22.482341358714887" lon="113.92384938657428">
        <ele>4.191690559498966</ele>
        <time>2026-08-16T12:31:18Z</time>
      </trkpt>
      <trkpt lat="22.482272850949116" lon="113.92381151646293">
        <ele>4.8874697629362345</ele>
        <time>2026-08-16T12:31:21Z</time>
      </trkpt>
      <trkpt lat="22.482119049996314" lon="113.92378092686401">
        <ele>5.466953203082085</ele>
        <time>2026-08-16T12:31:30Z</time>
      </trkpt>
      <trkpt lat="22.481905449682333" lon="113.92380078478877">
        <ele>2.843492648564279</ele>
        <time>2026-08-16T12:31:45Z</time>
      </trkpt>
      <trkpt lat="22.48178587994267" lon="113.92376655488565">
        <ele>2.784480662085116</ele>
        <time>2026-08-16T12:31:48Z</time>
      </trkpt>
      <trkpt lat="22.481727615082722" lon="113.92381032965075">
        <ele>1.664927694015205</ele>
        <time>2026-08-16T12:31:51Z</time>
      </trkpt>
      <trkpt lat="22.48163536211782" lon="113.92381371414454">
        <ele>1.017364352941513</ele>
        <time>2026-08-16T12:31:54Z</time>
      </trkpt>
      <trkpt lat="22.481559459595694" lon="113.92387610013874">
        <ele>0.8795611253008246</ele>
        <time>2026-08-16T12:31:57Z</time>
      </trkpt>
      <trkpt lat="22.481492500963984" lon="113.92389730411584">
        <ele>0.9599326066672802</ele>
        <time>2026-08-16T12:32:00Z</time>
      </trkpt>
      <trkpt lat="22.48143608546399" lon="113.9240440161656">
        <ele>0.5606595650315285</ele>
        <time>2026-08-16T12:32:06Z</time>
      </trkpt>
      <trkpt lat="22.481486477526136" lon="113.92426080053717">
        <ele>1.109894486144185</ele>
        <time>2026-08-16T12:32:15Z</time>
      </trkpt>
      <trkpt lat="22.48143467066997" lon="113.92459615553011">
        <ele>2.696130975149572</ele>
        <time>2026-08-16T12:32:36Z</time>
      </trkpt>
      <trkpt lat="22.48140843591832" lon="113.92493262510733">
        <ele>2.808360585011542</ele>
        <time>2026-08-16T12:32:53Z</time>
      </trkpt>
      <trkpt lat="22.481360509347994" lon="113.92507802307917">
        <ele>2.8322936529293656</ele>
        <time>2026-08-16T12:32:59Z</time>
      </trkpt>
      <trkpt lat="22.481253247031002" lon="113.9251280143019">
        <ele>2.3962757270783186</ele>
        <time>2026-08-16T12:33:02Z</time>
      </trkpt>
      <trkpt lat="22.481234127681677" lon="113.92519125759651">
        <ele>2.6206637984141707</ele>
        <time>2026-08-16T12:33:05Z</time>
      </trkpt>
      <trkpt lat="22.481283263771044" lon="113.92533597961646">
        <ele>3.009237718768418</ele>
        <time>2026-08-16T12:33:11Z</time>
      </trkpt>
      <trkpt lat="22.481273736340253" lon="113.9254218754504">
        <ele>2.8322880286723375</ele>
        <time>2026-08-16T12:33:14Z</time>
      </trkpt>
      <trkpt lat="22.481235573029295" lon="113.92549784073852">
        <ele>1.4879753701388836</ele>
        <time>2026-08-16T12:33:17Z</time>
      </trkpt>
      <trkpt lat="22.481179321541887" lon="113.92556176997681">
        <ele>0.7375507317483425</ele>
        <time>2026-08-16T12:33:20Z</time>
      </trkpt>
      <trkpt lat="22.481124791760138" lon="113.92570672181937">
        <ele>0.7999926805496216</ele>
        <time>2026-08-16T12:33:26Z</time>
      </trkpt>
      <trkpt lat="22.481122203805185" lon="113.9257896425114">
        <ele>0.8309327205643058</ele>
        <time>2026-08-16T12:33:29Z</time>
      </trkpt>
      <trkpt lat="22.48103588202779" lon="113.92606881078481">
        <ele>-0.2016916861757636</ele>
        <time>2026-08-16T12:33:38Z</time>
      </trkpt>
      <trkpt lat="22.48105158788252" lon="113.92617109018298">
        <ele>-0.10773895122110844</ele>
        <time>2026-08-16T12:33:41Z</time>
      </trkpt>
      <trkpt lat="22.480993545118693" lon="113.92646744735622">
        <ele>-0.119889035820961</ele>
        <time>2026-08-16T12:33:50Z</time>
      </trkpt>
      <trkpt lat="22.48097909907554" lon="113.92658288496337">
        <ele>0.042498993687331676</ele>
        <time>2026-08-16T12:33:53Z</time>
      </trkpt>
      <trkpt lat="22.48094509322348" lon="113.92665741644842">
        <ele>0.24149804469197989</ele>
        <time>2026-08-16T12:33:56Z</time>
      </trkpt>
      <trkpt lat="22.480833366491307" lon="113.92677791693464">
        <ele>0.6125214602798223</ele>
        <time>2026-08-16T12:34:02Z</time>
      </trkpt>
      <trkpt lat="22.48077973791664" lon="113.92710021364054">
        <ele>1.0920057753100991</ele>
        <time>2026-08-16T12:34:20Z</time>
      </trkpt>
      <trkpt lat="22.48078042572925" lon="113.92723150009161">
        <ele>1.5720109976828098</ele>
        <time>2026-08-16T12:34:26Z</time>
      </trkpt>
      <trkpt lat="22.480750375781604" lon="113.92728650941957">
        <ele>1.2962987208738923</ele>
        <time>2026-08-16T12:34:29Z</time>
      </trkpt>
      <trkpt lat="22.4807640802678" lon="113.92737846204086">
        <ele>0.9523791382089257</ele>
        <time>2026-08-16T12:34:32Z</time>
      </trkpt>
      <trkpt lat="22.480736225600864" lon="113.92753629481987">
        <ele>1.1246005296707153</ele>
        <time>2026-08-16T12:34:38Z</time>
      </trkpt>
      <trkpt lat="22.4806817886883" lon="113.9275746890668">
        <ele>1.4490026598796248</ele>
        <time>2026-08-16T12:34:41Z</time>
      </trkpt>
      <trkpt lat="22.48058978911918" lon="113.92756629118055">
        <ele>-1.0899768406525254</ele>
        <time>2026-08-16T12:34:45Z</time>
      </trkpt>
      <trkpt lat="22.48055073723499" lon="113.92759564652839">
        <ele>-0.33346518222242594</ele>
        <time>2026-08-16T12:34:48Z</time>
      </trkpt>
      <trkpt lat="22.480504322972315" lon="113.9277429910706">
        <ele>0.5478062899783254</ele>
        <time>2026-08-16T12:34:54Z</time>
      </trkpt>
      <trkpt lat="22.48051847534954" lon="113.92790219558186">
        <ele>1.0204637236893177</ele>
        <time>2026-08-16T12:35:00Z</time>
      </trkpt>
      <trkpt lat="22.480473906172154" lon="113.9279752426523">
        <ele>0.9913665093481541</ele>
        <time>2026-08-16T12:35:03Z</time>
      </trkpt>
      <trkpt lat="22.480320589949994" lon="113.92800334072665">
        <ele>-0.9654643032699823</ele>
        <time>2026-08-16T12:35:09Z</time>
      </trkpt>
      <trkpt lat="22.480326002014277" lon="113.92808599081444">
        <ele>-0.9925116328522563</ele>
        <time>2026-08-16T12:35:12Z</time>
      </trkpt>
      <trkpt lat="22.48030234107467" lon="113.92816205623994">
        <ele>0.21157120820134878</ele>
        <time>2026-08-16T12:35:15Z</time>
      </trkpt>
      <trkpt lat="22.480380241555046" lon="113.92820338992107">
        <ele>0.35708565916866064</ele>
        <time>2026-08-16T12:35:18Z</time>
      </trkpt>
      <trkpt lat="22.48047652464776" lon="113.92813359255285">
        <ele>1.0799249904230237</ele>
        <time>2026-08-16T12:35:21Z</time>
      </trkpt>
      <trkpt lat="22.480527433673917" lon="113.92812027340543">
        <ele>0.9943758444860578</ele>
        <time>2026-08-16T12:35:24Z</time>
      </trkpt>
      <trkpt lat="22.4804438721758" lon="113.92839131404456">
        <ele>1.0676239132881165</ele>
        <time>2026-08-16T12:35:30Z</time>
      </trkpt>
      <trkpt lat="22.480536625607254" lon="113.92853526459719">
        <ele>2.5189648494124413</ele>
        <time>2026-08-16T12:35:36Z</time>
      </trkpt>
      <trkpt lat="22.480435210385455" lon="113.92885605210336">
        <ele>2.555173574015498</ele>
        <time>2026-08-16T12:35:48Z</time>
      </trkpt>
      <trkpt lat="22.4803872283997" lon="113.92892831971321">
        <ele>2.135998166166246</ele>
        <time>2026-08-16T12:35:51Z</time>
      </trkpt>
      <trkpt lat="22.480353842160515" lon="113.92910797568352">
        <ele>2.4039841443300247</ele>
        <time>2026-08-16T12:35:57Z</time>
      </trkpt>
      <trkpt lat="22.480286265678085" lon="113.92926957253808">
        <ele>2.749902947805822</ele>
        <time>2026-08-16T12:36:03Z</time>
      </trkpt>
      <trkpt lat="22.48021578142065" lon="113.92960597500894">
        <ele>2.4973683329299092</ele>
        <time>2026-08-16T12:36:15Z</time>
      </trkpt>
      <trkpt lat="22.480192170326678" lon="113.92976054439383">
        <ele>2.9622736433520913</ele>
        <time>2026-08-16T12:36:21Z</time>
      </trkpt>
      <trkpt lat="22.480139543093337" lon="113.9297558130753">
        <ele>3.063528294675052</ele>
        <time>2026-08-16T12:36:27Z</time>
      </trkpt>
      <trkpt lat="22.480115888244384" lon="113.9297974825975">
        <ele>3.040071106515825</ele>
        <time>2026-08-16T12:36:30Z</time>
      </trkpt>
      <trkpt lat="22.480097354082364" lon="113.92988667279957">
        <ele>2.324100647121668</ele>
        <time>2026-08-16T12:36:33Z</time>
      </trkpt>
      <trkpt lat="22.480038195769357" lon="113.93000165513509">
        <ele>2.3755172165110707</ele>
        <time>2026-08-16T12:36:36Z</time>
      </trkpt>
      <trkpt lat="22.479994735985187" lon="113.93020093611551">
        <ele>1.8835976030677557</ele>
        <time>2026-08-16T12:36:45Z</time>
      </trkpt>
      <trkpt lat="22.48007042895618" lon="113.93021902664718">
        <ele>1.7365923020988703</ele>
        <time>2026-08-16T12:36:48Z</time>
      </trkpt>
      <trkpt lat="22.48009634504873" lon="113.93054468118466">
        <ele>1.6645805398002267</ele>
        <time>2026-08-16T12:37:00Z</time>
      </trkpt>
      <trkpt lat="22.48009459151162" lon="113.9306184725451">
        <ele>1.9366921773180366</ele>
        <time>2026-08-16T12:37:04Z</time>
      </trkpt>
      <trkpt lat="22.480067749966494" lon="113.93073581506839">
        <ele>1.623133066110313</ele>
        <time>2026-08-16T12:37:08Z</time>
      </trkpt>
      <trkpt lat="22.480068754243856" lon="113.93080786625062">
        <ele>1.5978111205622554</ele>
        <time>2026-08-16T12:37:12Z</time>
      </trkpt>
      <trkpt lat="22.47997257148831" lon="113.9310457239798">
        <ele>0.8392114453017712</ele>
        <time>2026-08-16T12:37:20Z</time>
      </trkpt>
      <trkpt lat="22.479984153211756" lon="113.93113425514446">
        <ele>1.2229161970317364</ele>
        <time>2026-08-16T12:37:23Z</time>
      </trkpt>
      <trkpt lat="22.48002013453389" lon="113.93120976381007">
        <ele>1.5624773800373077</ele>
        <time>2026-08-16T12:37:26Z</time>
      </trkpt>
      <trkpt lat="22.480143375186625" lon="113.9312080657358">
        <ele>1.1625533094629645</ele>
        <time>2026-08-16T12:37:32Z</time>
      </trkpt>
      <trkpt lat="22.48029102277837" lon="113.93116447671879">
        <ele>1.769816949032247</ele>
        <time>2026-08-16T12:37:38Z</time>
      </trkpt>
      <trkpt lat="22.480635257885922" lon="113.93115150624399">
        <ele>3.323948534205556</ele>
        <time>2026-08-16T12:37:50Z</time>
      </trkpt>
      <trkpt lat="22.48095550363321" lon="113.93108854304153">
        <ele>4.550595071166754</ele>
        <time>2026-08-16T12:38:02Z</time>
      </trkpt>
      <trkpt lat="22.48110878012909" lon="113.93105646145791">
        <ele>4.232513202354312</ele>
        <time>2026-08-16T12:38:08Z</time>
      </trkpt>
      <trkpt lat="22.481357289543258" lon="113.93104004043528">
        <ele>5.67687273491174</ele>
        <time>2026-08-16T12:38:17Z</time>
      </trkpt>
      <trkpt lat="22.481442900834644" lon="113.93101772025832">
        <ele>6.403644832782447</ele>
        <time>2026-08-16T12:38:20Z</time>
      </trkpt>
      <trkpt lat="22.481534697439965" lon="113.93105071174614">
        <ele>6.295393030159175</ele>
        <time>2026-08-16T12:38:23Z</time>
      </trkpt>
      <trkpt lat="22.481816898257943" lon="113.93108289013246">
        <ele>6.212564477697015</ele>
        <time>2026-08-16T12:38:35Z</time>
      </trkpt>
      <trkpt lat="22.482096795470138" lon="113.93113390367611">
        <ele>5.634439796209335</ele>
        <time>2026-08-16T12:38:47Z</time>
      </trkpt>
      <trkpt lat="22.482164700259126" lon="113.93116442129751">
        <ele>5.187424210831523</ele>
        <time>2026-08-16T12:38:50Z</time>
      </trkpt>
      <trkpt lat="22.482205192269706" lon="113.93121116078206">
        <ele>5.500876361504197</ele>
        <time>2026-08-16T12:38:53Z</time>
      </trkpt>
      <trkpt lat="22.482479385822636" lon="113.93125861628579">
        <ele>4.668156077153981</ele>
        <time>2026-08-16T12:39:05Z</time>
      </trkpt>
      <trkpt lat="22.482686877508364" lon="113.93125122169451">
        <ele>5.764346456155181</ele>
        <time>2026-08-16T12:39:13Z</time>
      </trkpt>
      <trkpt lat="22.482848106682667" lon="113.93120564400802">
        <ele>5.807579334825277</ele>
        <time>2026-08-16T12:39:25Z</time>
      </trkpt>
      <trkpt lat="22.48285400475094" lon="113.93115512277863">
        <ele>5.986716363579035</ele>
        <time>2026-08-16T12:39:29Z</time>
      </trkpt>
      <trkpt lat="22.482893993574763" lon="113.93112181603179">
        <ele>6.222298135049641</ele>
        <time>2026-08-16T12:39:32Z</time>
      </trkpt>
      <trkpt lat="22.482890794803815" lon="113.93107233332972">
        <ele>5.120532676577568</ele>
        <time>2026-08-16T12:39:53Z</time>
      </trkpt>
      <trkpt lat="22.483031327416143" lon="113.93105933588913">
        <ele>5.082834525965154</ele>
        <time>2026-08-16T12:39:56Z</time>
        <extensions>
          <gpxtpx:TrackPointExtension>
            <gpxtpx:hr>183</gpxtpx:hr>
          </gpxtpx:TrackPointExtension>
        </extensions>
      </trkpt>
      <trkpt lat="22.482912636931403" lon="113.93100022391758">
        <ele>5.841808119788766</ele>
        <time>2026-08-16T12:39:59Z</time>
        <extensions>
          <gpxtpx:TrackPointExtension>
            <gpxtpx:hr>183</gpxtpx:hr>
          </gpxtpx:TrackPointExtension>
        </extensions>
      </trkpt>
      <trkpt lat="22.483044315530055" lon="113.93096340617026">
        <ele>4.332354709506035</ele>
        <time>2026-08-16T12:40:05Z</time>
        <extensions>
          <gpxtpx:TrackPointExtension>
            <gpxtpx:hr>183</gpxtpx:hr>
          </gpxtpx:TrackPointExtension>
        </extensions>
      </trkpt>
      <trkpt lat="22.482994095733638" lon="113.9310647324843">
        <ele>7.375200075097382</ele>
        <time>2026-08-16T12:40:08Z</time>
        <extensions>
          <gpxtpx:TrackPointExtension>
            <gpxtpx:hr>183</gpxtpx:hr>
          </gpxtpx:TrackPointExtension>
        </extensions>
      </trkpt>
    </trkseg>
  </trk>
</gpx>