<?xml version="1.0" encoding="UTF-8"?>
<gpx xmlns="http://www.topografix.com/GPX/1/1" xmlns:gpxtpx="http://www.garmin.com/xmlschemas/TrackPointExtension/v1" xmlns:xsi="http://www.w3.org/2001/XMLSchema-instance" xsi:schemaLocation="http://www.topografix.com/GPX/1/1 http://www.topografix.com/GPX/1/1/gpx.xsd" version="1.1" creator="gpx.py -- https://github.com/tkrajina/gpxpy">
  <trk>
    <name>gpx from keep</name>
    <type>Run</type>
    <trkseg>
      <trkpt lat="22.51077559921079" lon="113.93974621797243">
        <ele>2.9749987991526723</ele>
        <time>2026-09-17T11:12:17Z</time>
      </trkpt>
      <trkpt lat="22.510546343855932" lon="113.93990684456602">
        <ele>3.2487016953527927</ele>
        <time>2026-09-17T11:12:29Z</time>
      </trkpt>
      <trkpt lat="22.510399227293863" lon="113.94001159197414">
        <ele>3.07751133851707</ele>
        <time>2026-09-17T11:12:37Z</time>
      </trkpt>
      <trkpt lat="22.510278301072358" lon="113.94015125001643">
        <ele>5.489577096886933</ele>
        <time>2026-09-17T11:12:45Z</time>
      </trkpt>
      <trkpt lat="22.51001909051764" lon="113.9403461666562">
        <ele>4.106745800934732</ele>
        <time>2026-09-17T11:13:01Z</time>
      </trkpt>
      <trkpt lat="22.50993427621254" lon="113.94049399764707">
        <ele>4.666103530675173</ele>
        <time>2026-09-17T11:13:09Z</time>
      </trkpt>
      <trkpt lat="22.509817956474603" lon="113.94081420558113">
        <ele>4.7343551171943545</ele>
        <time>2026-09-17T11:13:25Z</time>
      </trkpt>
      <trkpt lat="22.509783868241914" lon="113.94098569717474">
        <ele>5.013941177166998</ele>
        <time>2026-09-17T11:13:33Z</time>
      </trkpt>
      <trkpt lat="22.509819248364977" lon="113.94125224635718">
        <ele>7.3124833488836884</ele>
        <time>2026-09-17T11:13:45Z</time>
      </trkpt>
      <trkpt lat="22.509858441397466" lon="113.94134848678563">
        <ele>6.999841444194317</ele>
        <time>2026-09-17T11:13:49Z</time>
      </trkpt>
      <trkpt lat="22.50986766480683" lon="113.94145110949158">
        <ele>7.034802964888513</ele>
        <time>2026-09-17T11:13:53Z</time>
      </trkpt>
      <trkpt lat="22.509831104563627" lon="113.94161995820436">
        <ele>8.859399917535484</ele>
        <time>2026-09-17T11:14:01Z</time>
      </trkpt>
      <trkpt lat="22.509778178531967" lon="113.9417050556874">
        <ele>7.874880562536418</ele>
        <time>2026-09-17T11:14:05Z</time>
      </trkpt>
      <trkpt lat="22.50972394790071" lon="113.94196495845786">
        <ele>5.042753428220749</ele>
        <time>2026-09-17T11:14:17Z</time>
      </trkpt>
      <trkpt lat="22.509624148750163" lon="113.94223496033311">
        <ele>2.6762435361742973</ele>
        <time>2026-09-17T11:14:29Z</time>
      </trkpt>
      <trkpt lat="22.50961440799212" lon="113.94253532184638">
        <ele>3.8501316709443927</ele>
        <time>2026-09-17T11:14:41Z</time>
      </trkpt>
      <trkpt lat="22.509611634402088" lon="113.942801635808">
        <ele>5.0849348567426205</ele>
        <time>2026-09-17T11:14:53Z</time>
      </trkpt>
      <trkpt lat="22.509624845652763" lon="113.94293341632819">
        <ele>6.443825902417302</ele>
        <time>2026-09-17T11:14:59Z</time>
      </trkpt>
      <trkpt lat="22.509661073348987" lon="113.94300975905102">
        <ele>5.408318439498544</ele>
        <time>2026-09-17T11:15:02Z</time>
      </trkpt>
      <trkpt lat="22.50969669293278" lon="113.94323784939391">
        <ele>6.098761762492359</ele>
        <time>2026-09-17T11:15:11Z</time>
      </trkpt>
      <trkpt lat="22.509797860666872" lon="113.94340069537093">
        <ele>4.927641974762082</ele>
        <time>2026-09-17T11:15:17Z</time>
      </trkpt>
      <trkpt lat="22.50981049706836" lon="113.94349664440652">
        <ele>2.8676569126546383</ele>
        <time>2026-09-17T11:15:20Z</time>
      </trkpt>
      <trkpt lat="22.509867843110207" lon="113.94355485137514">
        <ele>1.667602002620697</ele>
        <time>2026-09-17T11:15:23Z</time>
      </trkpt>
      <trkpt lat="22.509995246950503" lon="113.94360038109546">
        <ele>1.1713979477062821</ele>
        <time>2026-09-17T11:15:29Z</time>
      </trkpt>
      <trkpt lat="22.510093001814877" lon="113.94369511478175">
        <ele>-0.3422362320125103</ele>
        <time>2026-09-17T11:15:35Z</time>
      </trkpt>
      <trkpt lat="22.510161586942914" lon="113.94372644737248">
        <ele>-1.027032820507884</ele>
        <time>2026-09-17T11:15:38Z</time>
      </trkpt>
      <trkpt lat="22.510215131540637" lon="113.94377731280937">
        <ele>-0.3846315424889326</ele>
        <time>2026-09-17T11:15:41Z</time>
      </trkpt>
      <trkpt lat="22.51026849303406" lon="113.9438873568063">
        <ele>0.027463596314191818</ele>
        <time>2026-09-17T11:15:47Z</time>
      </trkpt>
      <trkpt lat="22.510218688644006" lon="113.94390552272341">
        <ele>2.565146142616868</ele>
        <time>2026-09-17T11:15:53Z</time>
      </trkpt>
      <trkpt lat="22.51025496622723" lon="113.94403797813645">
        <ele>3.2982638366520405</ele>
        <time>2026-09-17T11:16:02Z</time>
      </trkpt>
      <trkpt lat="22.510255360249793" lon="113.94421181729231">
        <ele>4.401803221553564</ele>
        <time>2026-09-17T11:16:08Z</time>
      </trkpt>
      <trkpt lat="22.510212448101637" lon="113.94436494789335">
        <ele>3.1195109700784087</ele>
        <time>2026-09-17T11:16:14Z</time>
      </trkpt>
      <trkpt lat="22.510152564621663" lon="113.94449067242374">
        <ele>2.5776390228420496</ele>
        <time>2026-09-17T11:16:21Z</time>
      </trkpt>
      <trkpt lat="22.51015382175552" lon="113.94461350342783">
        <ele>1.7531934659928083</ele>
        <time>2026-09-17T11:16:27Z</time>
      </trkpt>
      <trkpt lat="22.51010595683415" lon="113.94494309195531">
        <ele>1.015644570812583</ele>
        <time>2026-09-17T11:16:42Z</time>
      </trkpt>
      <trkpt lat="22.51014801975677" lon="113.94523061975106">
        <ele>2.471750058233738</ele>
        <time>2026-09-17T11:16:54Z</time>
      </trkpt>
      <trkpt lat="22.510234356175808" lon="113.94535608412885">
        <ele>2.2664698231965303</ele>
        <time>2026-09-17T11:17:00Z</time>
      </trkpt>
      <trkpt lat="22.510357917270063" lon="113.94545902707576">
        <ele>4.0140101769939065</ele>
        <time>2026-09-17T11:17:06Z</time>
      </trkpt>
      <trkpt lat="22.510487543676422" lon="113.94553290168054">
        <ele>4.518625020980835</ele>
        <time>2026-09-17T11:17:12Z</time>
      </trkpt>
      <trkpt lat="22.51055776140658" lon="113.94554000291595">
        <ele>4.999518496915698</ele>
        <time>2026-09-17T11:17:15Z</time>
      </trkpt>
      <trkpt lat="22.510617741974833" lon="113.94556541596299">
        <ele>5.250959428027272</ele>
        <time>2026-09-17T11:17:18Z</time>
      </trkpt>
      <trkpt lat="22.51087016323087" lon="113.9455581539548">
        <ele>4.221787886694074</ele>
        <time>2026-09-17T11:17:30Z</time>
      </trkpt>
      <trkpt lat="22.510924148968904" lon="113.94553569464084">
        <ele>5.490365137346089</ele>
        <time>2026-09-17T11:17:33Z</time>
      </trkpt>
      <trkpt lat="22.51098922564831" lon="113.94554336150642">
        <ele>4.57664383854717</ele>
        <time>2026-09-17T11:17:36Z</time>
      </trkpt>
      <trkpt lat="22.511047799059053" lon="113.9455820716441">
        <ele>5.949018804356456</ele>
        <time>2026-09-17T11:17:39Z</time>
      </trkpt>
      <trkpt lat="22.511162099394813" lon="113.94557632355742">
        <ele>5.887479092925787</ele>
        <time>2026-09-17T11:17:45Z</time>
      </trkpt>
      <trkpt lat="22.51123849325307" lon="113.94560853249592">
        <ele>5.4190844083204865</ele>
        <time>2026-09-17T11:17:48Z</time>
      </trkpt>
      <trkpt lat="22.51147202362566" lon="113.9456519752304">
        <ele>4.786213208921254</ele>
        <time>2026-09-17T11:18:00Z</time>
      </trkpt>
      <trkpt lat="22.51173850822504" lon="113.9457587103281">
        <ele>4.331138936802745</ele>
        <time>2026-09-17T11:18:15Z</time>
      </trkpt>
      <trkpt lat="22.511984618023135" lon="113.9459269740793">
        <ele>4.058948294259608</ele>
        <time>2026-09-17T11:18:28Z</time>
      </trkpt>
      <trkpt lat="22.51205594851485" lon="113.94600210256701">
        <ele>3.400627332739532</ele>
        <time>2026-09-17T11:18:34Z</time>
      </trkpt>
      <trkpt lat="22.512141997506152" lon="113.94613180558085">
        <ele>3.9779456751421094</ele>
        <time>2026-09-17T11:18:40Z</time>
      </trkpt>
      <trkpt lat="22.512187448670726" lon="113.94625135831305">
        <ele>4.413422959856689</ele>
        <time>2026-09-17T11:18:46Z</time>
      </trkpt>
      <trkpt lat="22.512236029700002" lon="113.94629966342325">
        <ele>4.2357930187135935</ele>
        <time>2026-09-17T11:18:49Z</time>
      </trkpt>
      <trkpt lat="22.512314386822666" lon="113.94650610934023">
        <ele>3.126319844275713</ele>
        <time>2026-09-17T11:18:58Z</time>
      </trkpt>
      <trkpt lat="22.512354915807258" lon="113.94656528977657">
        <ele>4.087141470052302</ele>
        <time>2026-09-17T11:19:01Z</time>
      </trkpt>
      <trkpt lat="22.51235036375459" lon="113.94674060884113">
        <ele>2.459131999872625</ele>
        <time>2026-09-17T11:19:07Z</time>
      </trkpt>
      <trkpt lat="22.512361434078155" lon="113.94681943968256">
        <ele>2.33421285264194</ele>
        <time>2026-09-17T11:19:10Z</time>
      </trkpt>
      <trkpt lat="22.512326767216045" lon="113.9470505244093">
        <ele>1.557513663545251</ele>
        <time>2026-09-17T11:19:22Z</time>
      </trkpt>
      <trkpt lat="22.512260438005928" lon="113.94725240008813">
        <ele>2.486136489547789</ele>
        <time>2026-09-17T11:19:34Z</time>
      </trkpt>
      <trkpt lat="22.51219904610832" lon="113.94737466153583">
        <ele>2.635127605870366</ele>
        <time>2026-09-17T11:19:43Z</time>
      </trkpt>
      <trkpt lat="22.512206939073653" lon="113.9476746851978">
        <ele>4.925311625003815</ele>
        <time>2026-09-17T11:20:01Z</time>
      </trkpt>
      <trkpt lat="22.51219120929548" lon="113.94791437170643">
        <ele>5.797705868259072</ele>
        <time>2026-09-17T11:20:10Z</time>
      </trkpt>
      <trkpt lat="22.512056379776904" lon="113.94807365055841">
        <ele>5.435811016708612</ele>
        <time>2026-09-17T11:20:16Z</time>
      </trkpt>
      <trkpt lat="22.512025595557482" lon="113.94817907795824">
        <ele>5.499723504297435</ele>
        <time>2026-09-17T11:20:19Z</time>
      </trkpt>
      <trkpt lat="22.51202858745666" lon="113.9483638103461">
        <ele>4.778840535320342</ele>
        <time>2026-09-17T11:20:25Z</time>
      </trkpt>
      <trkpt lat="22.5119942869792" lon="113.94844512723017">
        <ele>5.248172368854284</ele>
        <time>2026-09-17T11:20:28Z</time>
      </trkpt>
      <trkpt lat="22.51182870180274" lon="113.94859852775622">
        <ele>5.227440691553056</ele>
        <time>2026-09-17T11:20:38Z</time>
      </trkpt>
      <trkpt lat="22.51166435464699" lon="113.9488380090498">
        <ele>5.808147151954472</ele>
        <time>2026-09-17T11:20:51Z</time>
      </trkpt>
      <trkpt lat="22.511526864836934" lon="113.94906017721">
        <ele>7.402108301408589</ele>
        <time>2026-09-17T11:21:03Z</time>
      </trkpt>
      <trkpt lat="22.51130481137255" lon="113.94924786206971">
        <ele>6.859522581100464</ele>
        <time>2026-09-17T11:21:15Z</time>
      </trkpt>
      <trkpt lat="22.51129271526288" lon="113.94930704579423">
        <ele>6.71598385181278</ele>
        <time>2026-09-17T11:21:18Z</time>
      </trkpt>
      <trkpt lat="22.511230445379354" lon="113.94932912639283">
        <ele>5.925993108190596</ele>
        <time>2026-09-17T11:21:21Z</time>
      </trkpt>
      <trkpt lat="22.511137647558094" lon="113.94941940792756">
        <ele>5.086499420925975</ele>
        <time>2026-09-17T11:21:27Z</time>
      </trkpt>
      <trkpt lat="22.51106438018348" lon="113.94943809283586">
        <ele>5.01143048144877</ele>
        <time>2026-09-17T11:21:30Z</time>
      </trkpt>
      <trkpt lat="22.510860980781636" lon="113.94956899229916">
        <ele>5.630136977881193</ele>
        <time>2026-09-17T11:21:42Z</time>
      </trkpt>
      <trkpt lat="22.510699371323895" lon="113.94962904815877">
        <ele>5.565206732600927</ele>
        <time>2026-09-17T11:21:51Z</time>
      </trkpt>
      <trkpt lat="22.51049764884823" lon="113.94974697492103">
        <ele>4.846317419782281</ele>
        <time>2026-09-17T11:22:03Z</time>
      </trkpt>
      <trkpt lat="22.510282313957017" lon="113.94981872881591">
        <ele>6.26474058162421</ele>
        <time>2026-09-17T11:22:15Z</time>
      </trkpt>
      <trkpt lat="22.510133599777614" lon="113.94979973453273">
        <ele>6.325557273812592</ele>
        <time>2026-09-17T11:22:21Z</time>
      </trkpt>
      <trkpt lat="22.509832140993012" lon="113.94984615320821">
        <ele>6.866815034300089</ele>
        <time>2026-09-17T11:22:33Z</time>
      </trkpt>
      <trkpt lat="22.509659127194634" lon="113.94982459617346">
        <ele>6.20145748089999</ele>
        <time>2026-09-17T11:22:40Z</time>
      </trkpt>
      <trkpt lat="22.509553629570764" lon="113.94987055047474">
        <ele>3.9013506900519133</ele>
        <time>2026-09-17T11:22:44Z</time>
      </trkpt>
      <trkpt lat="22.50947067605087" lon="113.94987283529098">
        <ele>2.441352056339383</ele>
        <time>2026-09-17T11:22:48Z</time>
      </trkpt>
      <trkpt lat="22.509172587284386" lon="113.94982423429035">
        <ele>2.185695360414684</ele>
        <time>2026-09-17T11:23:00Z</time>
      </trkpt>
      <trkpt lat="22.508951719658242" lon="113.94977890759455">
        <ele>2.0000245943665504</ele>
        <time>2026-09-17T11:23:10Z</time>
      </trkpt>
      <trkpt lat="22.508858407195866" lon="113.94972940822281">
        <ele>1.9235384417697787</ele>
        <time>2026-09-17T11:23:16Z</time>
      </trkpt>
      <trkpt lat="22.508789764155523" lon="113.94972789784774">
        <ele>2.1803979463875294</ele>
        <time>2026-09-17T11:23:19Z</time>
      </trkpt>
      <trkpt lat="22.508586325986098" lon="113.94962878951323">
        <ele>2.6324940836057067</ele>
        <time>2026-09-17T11:23:28Z</time>
      </trkpt>
      <trkpt lat="22.508501287471546" lon="113.9495642660761">
        <ele>2.7527350252494216</ele>
        <time>2026-09-17T11:23:34Z</time>
      </trkpt>
      <trkpt lat="22.508433187595678" lon="113.94954162280811">
        <ele>3.0681744990870357</ele>
        <time>2026-09-17T11:23:37Z</time>
      </trkpt>
      <trkpt lat="22.5082052984033" lon="113.94940003615558">
        <ele>3.824969543144107</ele>
        <time>2026-09-17T11:23:49Z</time>
      </trkpt>
      <trkpt lat="22.508152326880055" lon="113.94934205006348">
        <ele>4.207061250694096</ele>
        <time>2026-09-17T11:23:52Z</time>
      </trkpt>
      <trkpt lat="22.508037630529483" lon="113.9492797381763">
        <ele>4.374540075659752</ele>
        <time>2026-09-17T11:23:58Z</time>
      </trkpt>
      <trkpt lat="22.508045621108696" lon="113.94923117051982">
        <ele>6.413098711520433</ele>
        <time>2026-09-17T11:24:01Z</time>
      </trkpt>
      <trkpt lat="22.507997508271043" lon="113.94920409535636">
        <ele>6.693140388466418</ele>
        <time>2026-09-17T11:24:04Z</time>
      </trkpt>
      <trkpt lat="22.507874779846237" lon="113.94903734229011">
        <ele>7.286849006079137</ele>
        <time>2026-09-17T11:24:13Z</time>
      </trkpt>
      <trkpt lat="22.5077550115515" lon="113.94894267256689">
        <ele>7.224610696546733</ele>
        <time>2026-09-17T11:24:19Z</time>
      </trkpt>
      <trkpt lat="22.507554558583603" lon="113.9487445323764">
        <ele>6.347287478856742</ele>
        <time>2026-09-17T11:24:31Z</time>
      </trkpt>
      <trkpt lat="22.507301834787928" lon="113.94857259031366">
        <ele>4.471141497604549</ele>
        <time>2026-09-17T11:24:43Z</time>
      </trkpt>
      <trkpt lat="22.507185356098816" lon="113.9484667802706">
        <ele>3.5601266603916883</ele>
        <time>2026-09-17T11:24:50Z</time>
      </trkpt>
      <trkpt lat="22.50692716046718" lon="113.94832951543937">
        <ele>3.0479436814785004</ele>
        <time>2026-09-17T11:25:04Z</time>
      </trkpt>
      <trkpt lat="22.50670867136055" lon="113.94825278432953">
        <ele>2.8711197273805737</ele>
        <time>2026-09-17T11:25:13Z</time>
      </trkpt>
      <trkpt lat="22.506471339956708" lon="113.9481699286915">
        <ele>4.17698089312762</ele>
        <time>2026-09-17T11:25:25Z</time>
      </trkpt>
      <trkpt lat="22.50615818390696" lon="113.94811324134164">
        <ele>3.799496738240123</ele>
        <time>2026-09-17T11:25:40Z</time>
      </trkpt>
      <trkpt lat="22.505889170900893" lon="113.94804569199198">
        <ele>2.1387769486755133</ele>
        <time>2026-09-17T11:25:52Z</time>
      </trkpt>
      <trkpt lat="22.505671492768833" lon="113.94803942429743">
        <ele>2.9014275735244155</ele>
        <time>2026-09-17T11:26:01Z</time>
      </trkpt>
      <trkpt lat="22.505590224344527" lon="113.94802329636232">
        <ele>2.371221293695271</ele>
        <time>2026-09-17T11:26:04Z</time>
      </trkpt>
      <trkpt lat="22.505535557805167" lon="113.9480369249236">
        <ele>3.373665204271674</ele>
        <time>2026-09-17T11:26:07Z</time>
      </trkpt>
      <trkpt lat="22.50546029930172" lon="113.94802080994009">
        <ele>3.690810368396342</ele>
        <time>2026-09-17T11:26:10Z</time>
      </trkpt>
      <trkpt lat="22.5053536097136" lon="113.9480227308925">
        <ele>3.5648271618410945</ele>
        <time>2026-09-17T11:26:16Z</time>
      </trkpt>
      <trkpt lat="22.5052423171228" lon="113.94807245604541">
        <ele>4.202654302120209</ele>
        <time>2026-09-17T11:26:22Z</time>
      </trkpt>
      <trkpt lat="22.505076852657545" lon="113.94808274423495">
        <ele>4.013246054761112</ele>
        <time>2026-09-17T11:26:31Z</time>
      </trkpt>
      <trkpt lat="22.504765264911285" lon="113.94817036012617">
        <ele>3.2881615702062845</ele>
        <time>2026-09-17T11:26:43Z</time>
      </trkpt>
      <trkpt lat="22.50450307377224" lon="113.94826277490655">
        <ele>1.8727822545915842</ele>
        <time>2026-09-17T11:26:56Z</time>
      </trkpt>
      <trkpt lat="22.50424273680924" lon="113.94838531018735">
        <ele>2.1555692553520203</ele>
        <time>2026-09-17T11:27:08Z</time>
      </trkpt>
      <trkpt lat="22.50394833241825" lon="113.94855241773995">
        <ele>1.6042476575821638</ele>
        <time>2026-09-17T11:27:23Z</time>
      </trkpt>
      <trkpt lat="22.503767533696923" lon="113.94865365102682">
        <ele>1.1555619034916162</ele>
        <time>2026-09-17T11:27:32Z</time>
      </trkpt>
      <trkpt lat="22.50350515570227" lon="113.9487613678642">
        <ele>3.3951404355466366</ele>
        <time>2026-09-17T11:27:44Z</time>
      </trkpt>
      <trkpt lat="22.503216848533665" lon="113.9488338326231">
        <ele>2.810432688333094</ele>
        <time>2026-09-17T11:27:56Z</time>
      </trkpt>
      <trkpt lat="22.503044514015034" lon="113.94889166222312">
        <ele>3.161070958711207</ele>
        <time>2026-09-17T11:28:05Z</time>
      </trkpt>
      <trkpt lat="22.50291999881566" lon="113.94890202896916">
        <ele>3.5189032703638077</ele>
        <time>2026-09-17T11:28:11Z</time>
      </trkpt>
      <trkpt lat="22.50259851376951" lon="113.94895500819895">
        <ele>3.0437203999608755</ele>
        <time>2026-09-17T11:28:26Z</time>
      </trkpt>
      <trkpt lat="22.50243106482832" lon="113.94907362714375">
        <ele>2.5405263919383287</ele>
        <time>2026-09-17T11:28:35Z</time>
      </trkpt>
      <trkpt lat="22.502330029428673" lon="113.94905511519453">
        <ele>4.331353310495615</ele>
        <time>2026-09-17T11:28:41Z</time>
      </trkpt>
      <trkpt lat="22.502168844192855" lon="113.94907409256291">
        <ele>4.990263681858778</ele>
        <time>2026-09-17T11:28:47Z</time>
      </trkpt>
      <trkpt lat="22.501905379168747" lon="113.9489640176681">
        <ele>3.3853798182681203</ele>
        <time>2026-09-17T11:29:00Z</time>
      </trkpt>
      <trkpt lat="22.501785518010383" lon="113.94893733906818">
        <ele>3.3441158244386315</ele>
        <time>2026-09-17T11:29:06Z</time>
      </trkpt>
      <trkpt lat="22.501722470739843" lon="113.9489418351518">
        <ele>2.771585932932794</ele>
        <time>2026-09-17T11:29:09Z</time>
      </trkpt>
      <trkpt lat="22.501445516958267" lon="113.94888970910402">
        <ele>2.3773732613772154</ele>
        <time>2026-09-17T11:29:24Z</time>
      </trkpt>
      <trkpt lat="22.501270566125104" lon="113.94885586353446">
        <ele>2.0993934934958816</ele>
        <time>2026-09-17T11:29:33Z</time>
      </trkpt>
      <trkpt lat="22.501226936150054" lon="113.94882243180606">
        <ele>1.9582932852208614</ele>
        <time>2026-09-17T11:29:36Z</time>
      </trkpt>
      <trkpt lat="22.501181038651062" lon="113.94883797855371">
        <ele>2.1968605453148484</ele>
        <time>2026-09-17T11:29:39Z</time>
      </trkpt>
      <trkpt lat="22.5008832117295" lon="113.9486585623305">
        <ele>1.8988759173080325</ele>
        <time>2026-09-17T11:29:54Z</time>
      </trkpt>
      <trkpt lat="22.500801911385548" lon="113.94864770271559">
        <ele>1.3270841529592872</ele>
        <time>2026-09-17T11:29:57Z</time>
      </trkpt>
      <trkpt lat="22.500543475260766" lon="113.94846257336233">
        <ele>2.863918292336166</ele>
        <time>2026-09-17T11:30:12Z</time>
      </trkpt>
      <trkpt lat="22.50032108966366" lon="113.94837132405556">
        <ele>4.948652463965118</ele>
        <time>2026-09-17T11:30:21Z</time>
      </trkpt>
      <trkpt lat="22.500274656886745" lon="113.9483172882441">
        <ele>4.074626979418099</ele>
        <time>2026-09-17T11:30:24Z</time>
      </trkpt>
      <trkpt lat="22.50017446297659" lon="113.9482389326195">
        <ele>4.689617067575455</ele>
        <time>2026-09-17T11:30:30Z</time>
      </trkpt>
      <trkpt lat="22.500115430757475" lon="113.94822588719516">
        <ele>5.771897725760937</ele>
        <time>2026-09-17T11:30:33Z</time>
      </trkpt>
      <trkpt lat="22.50000856322901" lon="113.94814910140872">
        <ele>5.567108343355358</ele>
        <time>2026-09-17T11:30:39Z</time>
      </trkpt>
      <trkpt lat="22.499918339888392" lon="113.94803590932358">
        <ele>7.637352843768895</ele>
        <time>2026-09-17T11:30:45Z</time>
      </trkpt>
      <trkpt lat="22.499896731612044" lon="113.94798331019906">
        <ele>7.696356657892466</ele>
        <time>2026-09-17T11:30:48Z</time>
      </trkpt>
      <trkpt lat="22.49971410151829" lon="113.94783262920018">
        <ele>7.002537198364735</ele>
        <time>2026-09-17T11:31:00Z</time>
      </trkpt>
      <trkpt lat="22.499551137875645" lon="113.94777902626576">
        <ele>6.402030096389353</ele>
        <time>2026-09-17T11:31:08Z</time>
      </trkpt>
      <trkpt lat="22.499499425195303" lon="113.94773674431826">
        <ele>6.460053444840014</ele>
        <time>2026-09-17T11:31:11Z</time>
      </trkpt>
      <trkpt lat="22.499407386019897" lon="113.94770176699507">
        <ele>6.132538054138422</ele>
        <time>2026-09-17T11:31:15Z</time>
      </trkpt>
      <trkpt lat="22.499309813081464" lon="113.94760556159352">
        <ele>4.632086837664247</ele>
        <time>2026-09-17T11:31:21Z</time>
      </trkpt>
      <trkpt lat="22.49925500561714" lon="113.94757800638534">
        <ele>5.728183073922992</ele>
        <time>2026-09-17T11:31:24Z</time>
      </trkpt>
      <trkpt lat="22.499207385350754" lon="113.94753113518048">
        <ele>5.355027384124696</ele>
        <time>2026-09-17T11:31:27Z</time>
      </trkpt>
      <trkpt lat="22.499024589055423" lon="113.94744743963817">
        <ele>5.227569880895317</ele>
        <time>2026-09-17T11:31:36Z</time>
      </trkpt>
      <trkpt lat="22.498928068133328" lon="113.9473678792765">
        <ele>4.997246289625764</ele>
        <time>2026-09-17T11:31:39Z</time>
      </trkpt>
      <trkpt lat="22.498796105157215" lon="113.94734066904591">
        <ele>4.633917240425944</ele>
        <time>2026-09-17T11:31:45Z</time>
      </trkpt>
      <trkpt lat="22.498674778168734" lon="113.94727871004228">
        <ele>4.2041880479082465</ele>
        <time>2026-09-17T11:31:51Z</time>
      </trkpt>
      <trkpt lat="22.498449411235264" lon="113.94726639249276">
        <ele>4.247266595251858</ele>
        <time>2026-09-17T11:32:00Z</time>
      </trkpt>
      <trkpt lat="22.49832724909785" lon="113.94723153923287">
        <ele>5.0173378409817815</ele>
        <time>2026-09-17T11:32:06Z</time>
      </trkpt>
      <trkpt lat="22.49821701415467" lon="113.94715519967774">
        <ele>5.819236434996128</ele>
        <time>2026-09-17T11:32:12Z</time>
      </trkpt>
      <trkpt lat="22.49808277335353" lon="113.94715534994698">
        <ele>5.828033753670752</ele>
        <time>2026-09-17T11:32:18Z</time>
      </trkpt>
      <trkpt lat="22.497797126021762" lon="113.94708200959448">
        <ele>6.184780418872833</ele>
        <time>2026-09-17T11:32:33Z</time>
      </trkpt>
      <trkpt lat="22.497738080859936" lon="113.94708480012201">
        <ele>6.129718993790448</ele>
        <time>2026-09-17T11:32:36Z</time>
      </trkpt>
      <trkpt lat="22.49768257534307" lon="113.94706594529448">
        <ele>6.266982167027891</ele>
        <time>2026-09-17T11:32:39Z</time>
      </trkpt>
      <trkpt lat="22.497345060721" lon="113.94704610292884">
        <ele>6.322767253033817</ele>
        <time>2026-09-17T11:32:57Z</time>
      </trkpt>
      <trkpt lat="22.49704703402276" lon="113.94707493240274">
        <ele>6.10705831926316</ele>
        <time>2026-09-17T11:33:13Z</time>
      </trkpt>
      <trkpt lat="22.4967671377827" lon="113.94712047944635">
        <ele>6.102317861281335</ele>
        <time>2026-09-17T11:33:27Z</time>
      </trkpt>
      <trkpt lat="22.496708329425484" lon="113.94712780415662">
        <ele>6.1953009301796556</ele>
        <time>2026-09-17T11:33:30Z</time>
      </trkpt>
      <trkpt lat="22.49663091095196" lon="113.94717008168348">
        <ele>6.358128597959876</ele>
        <time>2026-09-17T11:33:36Z</time>
      </trkpt>
      <trkpt lat="22.49643827661993" lon="113.94722121663307">
        <ele>6.475732493214309</ele>
        <time>2026-09-17T11:33:45Z</time>
      </trkpt>
      <trkpt lat="22.496381613828124" lon="113.94725313692418">
        <ele>7.828263527713716</ele>
        <time>2026-09-17T11:33:48Z</time>
      </trkpt>
      <trkpt lat="22.496114515923185" lon="113.94732879770147">
        <ele>6.230169131420553</ele>
        <time>2026-09-17T11:34:00Z</time>
      </trkpt>
      <trkpt lat="22.49597142309181" lon="113.94742786483832">
        <ele>6.481342232786119</ele>
        <time>2026-09-17T11:34:06Z</time>
      </trkpt>
      <trkpt lat="22.495822136786455" lon="113.9474586827386">
        <ele>6.384842692874372</ele>
        <time>2026-09-17T11:34:15Z</time>
      </trkpt>
      <trkpt lat="22.49567351233633" lon="113.94756729047887">
        <ele>7.222631208598614</ele>
        <time>2026-09-17T11:34:24Z</time>
      </trkpt>
      <trkpt lat="22.495404333760234" lon="113.94770075247921">
        <ele>6.545896182768047</ele>
        <time>2026-09-17T11:34:39Z</time>
      </trkpt>
      <trkpt lat="22.49526972387428" lon="113.94775191104159">
        <ele>7.197503857314587</ele>
        <time>2026-09-17T11:34:45Z</time>
      </trkpt>
      <trkpt lat="22.49518607398902" lon="113.94780593918873">
        <ele>6.683587376028299</ele>
        <time>2026-09-17T11:34:51Z</time>
      </trkpt>
      <trkpt lat="22.494917130068885" lon="113.947880749755">
        <ele>6.699688347056508</ele>
        <time>2026-09-17T11:35:03Z</time>
      </trkpt>
      <trkpt lat="22.494629365810432" lon="113.94795057859523">
        <ele>6.703885838389397</ele>
        <time>2026-09-17T11:35:16Z</time>
      </trkpt>
      <trkpt lat="22.49454991924423" lon="113.94796713636747">
        <ele>5.453369069844484</ele>
        <time>2026-09-17T11:35:20Z</time>
      </trkpt>
      <trkpt lat="22.49447338980409" lon="113.94796226314375">
        <ele>5.659776066429913</ele>
        <time>2026-09-17T11:35:24Z</time>
      </trkpt>
      <trkpt lat="22.494263793738664" lon="113.94799357227478">
        <ele>5.442392233759165</ele>
        <time>2026-09-17T11:35:36Z</time>
      </trkpt>
      <trkpt lat="22.49398350226595" lon="113.94795555435776">
        <ele>5.694608447141945</ele>
        <time>2026-09-17T11:35:48Z</time>
      </trkpt>
      <trkpt lat="22.493668552497954" lon="113.94788560937502">
        <ele>6.38648465462029</ele>
        <time>2026-09-17T11:36:06Z</time>
      </trkpt>
      <trkpt lat="22.49338232521387" lon="113.94779377794103">
        <ele>6.692098489031196</ele>
        <time>2026-09-17T11:36:22Z</time>
      </trkpt>
      <trkpt lat="22.493132800592925" lon="113.94767663397387">
        <ele>5.937603062950075</ele>
        <time>2026-09-17T11:36:34Z</time>
      </trkpt>
      <trkpt lat="22.49295448409892" lon="113.94754538752626">
        <ele>5.704744630493224</ele>
        <time>2026-09-17T11:36:46Z</time>
      </trkpt>
      <trkpt lat="22.492848811221172" lon="113.94750584826139">
        <ele>5.994522284716368</ele>
        <time>2026-09-17T11:36:52Z</time>
      </trkpt>
      <trkpt lat="22.4927749086907" lon="113.94750436690572">
        <ele>6.835103729739785</ele>
        <time>2026-09-17T11:36:55Z</time>
      </trkpt>
      <trkpt lat="22.492718928821386" lon="113.94745950180778">
        <ele>6.729499612934887</ele>
        <time>2026-09-17T11:36:58Z</time>
      </trkpt>
      <trkpt lat="22.492377468959187" lon="113.94741845339364">
        <ele>6.323376757092774</ele>
        <time>2026-09-17T11:37:13Z</time>
      </trkpt>
      <trkpt lat="22.492248950572304" lon="113.9474092805413">
        <ele>6.8283696519210935</ele>
        <time>2026-09-17T11:37:19Z</time>
      </trkpt>
      <trkpt lat="22.492206664713756" lon="113.94737816433931">
        <ele>7.323658863082528</ele>
        <time>2026-09-17T11:37:22Z</time>
      </trkpt>
      <trkpt lat="22.492129305325555" lon="113.9473983001561">
        <ele>6.8410767912864685</ele>
        <time>2026-09-17T11:37:26Z</time>
      </trkpt>
      <trkpt lat="22.492039371782173" lon="113.94738693441177">
        <ele>6.378657887689769</ele>
        <time>2026-09-17T11:37:30Z</time>
      </trkpt>
      <trkpt lat="22.491957266501124" lon="113.94741743950222">
        <ele>6.241590358316898</ele>
        <time>2026-09-17T11:37:34Z</time>
      </trkpt>
      <trkpt lat="22.491644011863272" lon="113.94747243193014">
        <ele>5.959095261991024</ele>
        <time>2026-09-17T11:37:54Z</time>
      </trkpt>
      <trkpt lat="22.491874513449343" lon="113.94745050250253">
        <ele>5.624880539253354</ele>
        <time>2026-09-17T11:38:02Z</time>
      </trkpt>
      <trkpt lat="22.492020053875706" lon="113.94740037678224">
        <ele>6.2773094195872545</ele>
        <time>2026-09-17T11:38:10Z</time>
      </trkpt>
      <trkpt lat="22.49222752470143" lon="113.94738898887478">
        <ele>6.160556362941861</ele>
        <time>2026-09-17T11:38:18Z</time>
      </trkpt>
      <trkpt lat="22.492535509057813" lon="113.94742241888049">
        <ele>4.778672851622105</ele>
        <time>2026-09-17T11:38:39Z</time>
      </trkpt>
      <trkpt lat="22.492617635264924" lon="113.94744141589652">
        <ele>4.761880044825375</ele>
        <time>2026-09-17T11:38:42Z</time>
      </trkpt>
      <trkpt lat="22.49270198658928" lon="113.94751221511693">
        <ele>5.6101996917277575</ele>
        <time>2026-09-17T11:38:48Z</time>
      </trkpt>
      <trkpt lat="22.49289254769825" lon="113.94755122289894">
        <ele>4.521489859558642</ele>
        <time>2026-09-17T11:38:57Z</time>
      </trkpt>
      <trkpt lat="22.49306991451532" lon="113.94764888429623">
        <ele>3.8367522628977895</ele>
        <time>2026-09-17T11:39:06Z</time>
      </trkpt>
      <trkpt lat="22.493182542762685" lon="113.94769366053673">
        <ele>3.775490284897387</ele>
        <time>2026-09-17T11:39:12Z</time>
      </trkpt>
      <trkpt lat="22.493292237408664" lon="113.94776653727904">
        <ele>4.402538049966097</ele>
        <time>2026-09-17T11:39:18Z</time>
      </trkpt>
      <trkpt lat="22.493364527663342" lon="113.94777028841379">
        <ele>4.297214622609317</ele>
        <time>2026-09-17T11:39:21Z</time>
      </trkpt>
      <trkpt lat="22.493451954468956" lon="113.94781742781642">
        <ele>4.764711814001203</ele>
        <time>2026-09-17T11:39:27Z</time>
      </trkpt>
      <trkpt lat="22.493539089298682" lon="113.94781492388697">
        <ele>5.003395422361791</ele>
        <time>2026-09-17T11:39:31Z</time>
      </trkpt>
      <trkpt lat="22.493615382023915" lon="113.94783355592247">
        <ele>4.608462809585035</ele>
        <time>2026-09-17T11:39:35Z</time>
      </trkpt>
      <trkpt lat="22.493809906926103" lon="113.94792558632804">
        <ele>5.893127595074475</ele>
        <time>2026-09-17T11:39:47Z</time>
      </trkpt>
      <trkpt lat="22.494121859569816" lon="113.9479572755973">
        <ele>4.761664466932416</ele>
        <time>2026-09-17T11:39:59Z</time>
      </trkpt>
      <trkpt lat="22.49428000070908" lon="113.94794018636439">
        <ele>5.126752711832523</ele>
        <time>2026-09-17T11:40:07Z</time>
      </trkpt>
      <trkpt lat="22.49459550120398" lon="113.94800014957089">
        <ele>5.213172489777207</ele>
        <time>2026-09-17T11:40:23Z</time>
      </trkpt>
      <trkpt lat="22.494679149907483" lon="113.94798393473727">
        <ele>5.594812381081283</ele>
        <time>2026-09-17T11:40:27Z</time>
      </trkpt>
      <trkpt lat="22.49476724205197" lon="113.94799512186013">
        <ele>5.82172277290374</ele>
        <time>2026-09-17T11:40:31Z</time>
      </trkpt>
      <trkpt lat="22.495142106092576" lon="113.9478162766764">
        <ele>6.4043813133612275</ele>
        <time>2026-09-17T11:40:43Z</time>
      </trkpt>
      <trkpt lat="22.49538619388619" lon="113.94773628650042">
        <ele>5.9855473060160875</ele>
        <time>2026-09-17T11:40:55Z</time>
      </trkpt>
      <trkpt lat="22.49564465461572" lon="113.9475805796509">
        <ele>6.516395577229559</ele>
        <time>2026-09-17T11:41:09Z</time>
      </trkpt>
      <trkpt lat="22.495915749999057" lon="113.94744596421397">
        <ele>6.402521156705916</ele>
        <time>2026-09-17T11:41:23Z</time>
      </trkpt>
      <trkpt lat="22.496196690728848" lon="113.94731251379653">
        <ele>5.800775784999132</ele>
        <time>2026-09-17T11:41:39Z</time>
      </trkpt>
      <trkpt lat="22.49636707454542" lon="113.94723886796764">
        <ele>6.1266983253881335</ele>
        <time>2026-09-17T11:41:47Z</time>
      </trkpt>
      <trkpt lat="22.496455227851538" lon="113.94722599965732">
        <ele>6.128741734661162</ele>
        <time>2026-09-17T11:41:51Z</time>
      </trkpt>
      <trkpt lat="22.496535622191733" lon="113.94718959669507">
        <ele>6.4772760374471545</ele>
        <time>2026-09-17T11:41:55Z</time>
      </trkpt>
      <trkpt lat="22.496698830633044" lon="113.94717291668111">
        <ele>6.7231578985229135</ele>
        <time>2026-09-17T11:42:03Z</time>
      </trkpt>
      <trkpt lat="22.496770914985085" lon="113.94713068710938">
        <ele>6.685742324218154</ele>
        <time>2026-09-17T11:42:07Z</time>
      </trkpt>
      <trkpt lat="22.4968592275031" lon="113.94710946186848">
        <ele>5.8824867233633995</ele>
        <time>2026-09-17T11:42:11Z</time>
      </trkpt>
      <trkpt lat="22.497144075193273" lon="113.94708830692959">
        <ele>6.080374863930047</ele>
        <time>2026-09-17T11:42:23Z</time>
      </trkpt>
      <trkpt lat="22.497280423664638" lon="113.94707678935295">
        <ele>5.965414456091821</ele>
        <time>2026-09-17T11:42:30Z</time>
      </trkpt>
      <trkpt lat="22.49742766283738" lon="113.94703042369329">
        <ele>6.444033153355122</ele>
        <time>2026-09-17T11:42:38Z</time>
      </trkpt>
      <trkpt lat="22.49771407149294" lon="113.94703597763196">
        <ele>6.4024778651073575</ele>
        <time>2026-09-17T11:42:50Z</time>
      </trkpt>
      <trkpt lat="22.49774093132109" lon="113.94708424174905">
        <ele>5.842403854243457</ele>
        <time>2026-09-17T11:42:54Z</time>
      </trkpt>
      <trkpt lat="22.49781376368696" lon="113.94707950418504">
        <ele>5.143613367341459</ele>
        <time>2026-09-17T11:42:58Z</time>
      </trkpt>
      <trkpt lat="22.497858963539002" lon="113.94711544452085">
        <ele>5.451151999644935</ele>
        <time>2026-09-17T11:43:02Z</time>
      </trkpt>
      <trkpt lat="22.497932361147644" lon="113.94709532456395">
        <ele>4.390067300759256</ele>
        <time>2026-09-17T11:43:06Z</time>
      </trkpt>
      <trkpt lat="22.498141780197564" lon="113.94713066701824">
        <ele>4.858061153441668</ele>
        <time>2026-09-17T11:43:18Z</time>
      </trkpt>
      <trkpt lat="22.498207244617657" lon="113.94715874427857">
        <ele>4.986997463740408</ele>
        <time>2026-09-17T11:43:22Z</time>
      </trkpt>
      <trkpt lat="22.498369034000156" lon="113.9471079913666">
        <ele>4.843511760234833</ele>
        <time>2026-09-17T11:43:30Z</time>
      </trkpt>
      <trkpt lat="22.498658079122393" lon="113.94728537457917">
        <ele>3.7033121632412076</ele>
        <time>2026-09-17T11:43:41Z</time>
      </trkpt>
      <trkpt lat="22.49881305563758" lon="113.94734668269807">
        <ele>2.8246835665777326</ele>
        <time>2026-09-17T11:43:50Z</time>
      </trkpt>
      <trkpt lat="22.49893606949358" lon="113.94742835079472">
        <ele>3.665082328952849</ele>
        <time>2026-09-17T11:43:59Z</time>
      </trkpt>
      <trkpt lat="22.499085872393206" lon="113.94745718287137">
        <ele>3.240133094601333</ele>
        <time>2026-09-17T11:44:05Z</time>
      </trkpt>
      <trkpt lat="22.499126430869566" lon="113.94748126072197">
        <ele>3.592672862112522</ele>
        <time>2026-09-17T11:44:08Z</time>
      </trkpt>
      <trkpt lat="22.49920479639806" lon="113.94758467478374">
        <ele>3.4375612810254097</ele>
        <time>2026-09-17T11:44:14Z</time>
      </trkpt>
      <trkpt lat="22.499314753254087" lon="113.94759981102477">
        <ele>3.93760899733752</ele>
        <time>2026-09-17T11:44:20Z</time>
      </trkpt>
      <trkpt lat="22.49948082016139" lon="113.94772864924552">
        <ele>4.240638718008995</ele>
        <time>2026-09-17T11:44:29Z</time>
      </trkpt>
      <trkpt lat="22.49958860129311" lon="113.9478619408511">
        <ele>4.8194875959306955</ele>
        <time>2026-09-17T11:44:35Z</time>
      </trkpt>
      <trkpt lat="22.49976617258428" lon="113.94796543117515">
        <ele>5.22846638225019</ele>
        <time>2026-09-17T11:44:47Z</time>
      </trkpt>
      <trkpt lat="22.499856349129992" lon="113.9480498912846">
        <ele>4.949742610566318</ele>
        <time>2026-09-17T11:44:51Z</time>
      </trkpt>
      <trkpt lat="22.499895777997658" lon="113.9481306643311">
        <ele>4.657085362821817</ele>
        <time>2026-09-17T11:44:55Z</time>
      </trkpt>
      <trkpt lat="22.49998830854157" lon="113.94820244066615">
        <ele>5.162370750680566</ele>
        <time>2026-09-17T11:45:03Z</time>
      </trkpt>
      <trkpt lat="22.500056956711795" lon="113.94822998009741">
        <ele>4.57006964366883</ele>
        <time>2026-09-17T11:45:06Z</time>
      </trkpt>
      <trkpt lat="22.50021334299705" lon="113.94836588405823">
        <ele>5.386983170174062</ele>
        <time>2026-09-17T11:45:17Z</time>
      </trkpt>
      <trkpt lat="22.500259426090185" lon="113.94838523208806">
        <ele>5.786321580410004</ele>
        <time>2026-09-17T11:45:21Z</time>
      </trkpt>
      <trkpt lat="22.500311273137875" lon="113.9484362385338">
        <ele>5.496693431399763</ele>
        <time>2026-09-17T11:45:24Z</time>
      </trkpt>
      <trkpt lat="22.50037399420611" lon="113.94844437662131">
        <ele>5.551122013479471</ele>
        <time>2026-09-17T11:45:27Z</time>
      </trkpt>
      <trkpt lat="22.50041069501836" lon="113.94849223686376">
        <ele>5.9844600185751915</ele>
        <time>2026-09-17T11:45:31Z</time>
      </trkpt>
      <trkpt lat="22.500493395654324" lon="113.94853207727195">
        <ele>5.41613258048892</ele>
        <time>2026-09-17T11:45:35Z</time>
      </trkpt>
      <trkpt lat="22.500517115832544" lon="113.94859071456017">
        <ele>6.111417347565293</ele>
        <time>2026-09-17T11:45:38Z</time>
      </trkpt>
      <trkpt lat="22.500574373585213" lon="113.94863666539575">
        <ele>5.6349290600046515</ele>
        <time>2026-09-17T11:45:41Z</time>
      </trkpt>
      <trkpt lat="22.500789849293245" lon="113.94863565252375">
        <ele>5.177869503386319</ele>
        <time>2026-09-17T11:45:52Z</time>
      </trkpt>
      <trkpt lat="22.501038146461863" lon="113.9487405593655">
        <ele>6.741516423411667</ele>
        <time>2026-09-17T11:46:08Z</time>
      </trkpt>
      <trkpt lat="22.50110655547386" lon="113.94878300740187">
        <ele>6.754747688770294</ele>
        <time>2026-09-17T11:46:12Z</time>
      </trkpt>
      <trkpt lat="22.501190946258767" lon="113.94880225347148">
        <ele>6.975898091681302</ele>
        <time>2026-09-17T11:46:16Z</time>
      </trkpt>
      <trkpt lat="22.50126857500711" lon="113.94885008500243">
        <ele>6.50610205437988</ele>
        <time>2026-09-17T11:46:20Z</time>
      </trkpt>
      <trkpt lat="22.50151441499335" lon="113.94888966723884">
        <ele>6.615839843638241</ele>
        <time>2026-09-17T11:46:32Z</time>
      </trkpt>
      <trkpt lat="22.50161233441619" lon="113.94888487553315">
        <ele>6.894135704264045</ele>
        <time>2026-09-17T11:46:36Z</time>
      </trkpt>
      <trkpt lat="22.50169553091009" lon="113.94891707815887">
        <ele>6.7496893014758825</ele>
        <time>2026-09-17T11:46:40Z</time>
      </trkpt>
      <trkpt lat="22.501768993765193" lon="113.94890606085006">
        <ele>6.798971964977682</ele>
        <time>2026-09-17T11:46:44Z</time>
      </trkpt>
      <trkpt lat="22.50182963774874" lon="113.94894979521561">
        <ele>6.1302757523953915</ele>
        <time>2026-09-17T11:46:48Z</time>
      </trkpt>
      <trkpt lat="22.501914185747385" lon="113.9489520456054">
        <ele>1.7848839210346341</ele>
        <time>2026-09-17T11:46:52Z</time>
      </trkpt>
      <trkpt lat="22.502156496509652" lon="113.94904603269622">
        <ele>-3.1392765156924725</ele>
        <time>2026-09-17T11:47:04Z</time>
      </trkpt>
      <trkpt lat="22.502402729575635" lon="113.94910654862713">
        <ele>-6.909637998789549</ele>
        <time>2026-09-17T11:47:16Z</time>
      </trkpt>
      <trkpt lat="22.502474022420113" lon="113.9491111062683">
        <ele>-7.849585173651576</ele>
        <time>2026-09-17T11:47:20Z</time>
      </trkpt>
      <trkpt lat="22.50278697370594" lon="113.94898095333465">
        <ele>-8.24892751686275</ele>
        <time>2026-09-17T11:47:40Z</time>
      </trkpt>
      <trkpt lat="22.503082142308102" lon="113.94888378089432">
        <ele>-10.728380398824811</ele>
        <time>2026-09-17T11:47:54Z</time>
      </trkpt>
      <trkpt lat="22.503399958342268" lon="113.94874098717794">
        <ele>-15.847630189731717</ele>
        <time>2026-09-17T11:48:09Z</time>
      </trkpt>
      <trkpt lat="22.503483108839166" lon="113.94870112118012">
        <ele>-15.706669881939888</ele>
        <time>2026-09-17T11:48:13Z</time>
      </trkpt>
      <trkpt lat="22.503572358204597" lon="113.94869510088452">
        <ele>-15.499953201040626</ele>
        <time>2026-09-17T11:48:17Z</time>
      </trkpt>
      <trkpt lat="22.503839759856273" lon="113.94857466634099">
        <ele>-13.736689521931112</ele>
        <time>2026-09-17T11:48:33Z</time>
      </trkpt>
      <trkpt lat="22.503967520791274" lon="113.948504486936">
        <ele>-15.339672466740012</ele>
        <time>2026-09-17T11:48:41Z</time>
      </trkpt>
      <trkpt lat="22.50401891551374" lon="113.9484602973493">
        <ele>-15.841007265262306</ele>
        <time>2026-09-17T11:48:45Z</time>
      </trkpt>
      <trkpt lat="22.50431222492931" lon="113.94831155442343">
        <ele>-17.330734100192785</ele>
        <time>2026-09-17T11:49:01Z</time>
      </trkpt>
      <trkpt lat="22.504575042938374" lon="113.9481752002837">
        <ele>-16.969077410176396</ele>
        <time>2026-09-17T11:49:17Z</time>
      </trkpt>
      <trkpt lat="22.504857415410022" lon="113.94810118803944">
        <ele>-17.781376137398183</ele>
        <time>2026-09-17T11:49:33Z</time>
      </trkpt>
      <trkpt lat="22.505156865388606" lon="113.94802184283873">
        <ele>-18.20726798288524</ele>
        <time>2026-09-17T11:49:49Z</time>
      </trkpt>
      <trkpt lat="22.505375785706164" lon="113.9479439145238">
        <ele>-18.59911577682942</ele>
        <time>2026-09-17T11:50:00Z</time>
      </trkpt>
      <trkpt lat="22.50553296221848" lon="113.94795767893898">
        <ele>-19.278484400361776</ele>
        <time>2026-09-17T11:50:11Z</time>
      </trkpt>
      <trkpt lat="22.505855627943667" lon="113.94796611079225">
        <ele>-17.90871450304985</ele>
        <time>2026-09-17T11:50:27Z</time>
      </trkpt>
      <trkpt lat="22.506169206776303" lon="113.94803950794204">
        <ele>-17.25699422787875</ele>
        <time>2026-09-17T11:50:43Z</time>
      </trkpt>
      <trkpt lat="22.50631005916599" lon="113.94806282243772">
        <ele>-16.387148275971413</ele>
        <time>2026-09-17T11:50:51Z</time>
      </trkpt>
      <trkpt lat="22.506370875434378" lon="113.94809534284066">
        <ele>-15.165121014229953</ele>
        <time>2026-09-17T11:50:55Z</time>
      </trkpt>
      <trkpt lat="22.50646307433442" lon="113.94811424188542">
        <ele>-15.560447384603322</ele>
        <time>2026-09-17T11:50:59Z</time>
      </trkpt>
      <trkpt lat="22.50660147935868" lon="113.94818795673515">
        <ele>-15.15998291131109</ele>
        <time>2026-09-17T11:51:07Z</time>
      </trkpt>
      <trkpt lat="22.506676637809196" lon="113.94820310180712">
        <ele>-14.787556113675237</ele>
        <time>2026-09-17T11:51:11Z</time>
      </trkpt>
      <trkpt lat="22.506826461688533" lon="113.94827078814465">
        <ele>-15.729181782342494</ele>
        <time>2026-09-17T11:51:19Z</time>
      </trkpt>
      <trkpt lat="22.50688360156552" lon="113.94831777682582">
        <ele>-14.807402749545872</ele>
        <time>2026-09-17T11:51:23Z</time>
      </trkpt>
      <trkpt lat="22.506944437247657" lon="113.94833224884138">
        <ele>-13.67383290361613</ele>
        <time>2026-09-17T11:51:27Z</time>
      </trkpt>
      <trkpt lat="22.507141299388024" lon="113.94849166859854">
        <ele>-11.48616947606206</ele>
        <time>2026-09-17T11:51:39Z</time>
      </trkpt>
      <trkpt lat="22.507369595579846" lon="113.94871497730105">
        <ele>-12.256302651949227</ele>
        <time>2026-09-17T11:51:55Z</time>
      </trkpt>
      <trkpt lat="22.507419899825116" lon="113.94875883565966">
        <ele>-12.772330458275974</ele>
        <time>2026-09-17T11:51:59Z</time>
      </trkpt>
      <trkpt lat="22.50756638579825" lon="113.94884140532545">
        <ele>-11.706250354647636</ele>
        <time>2026-09-17T11:52:08Z</time>
      </trkpt>
      <trkpt lat="22.50781405742424" lon="113.94910303041533">
        <ele>-12.094612865708768</ele>
        <time>2026-09-17T11:52:26Z</time>
      </trkpt>
      <trkpt lat="22.508030655817436" lon="113.94933893985784">
        <ele>-13.612622608430684</ele>
        <time>2026-09-17T11:52:42Z</time>
      </trkpt>
      <trkpt lat="22.50814270594659" lon="113.9493790627796">
        <ele>-12.391344076953828</ele>
        <time>2026-09-17T11:52:50Z</time>
      </trkpt>
      <trkpt lat="22.508262359177927" lon="113.94947858475321">
        <ele>-12.740448076277971</ele>
        <time>2026-09-17T11:52:58Z</time>
      </trkpt>
      <trkpt lat="22.508299476441515" lon="113.94953900394316">
        <ele>-12.812927821651101</ele>
        <time>2026-09-17T11:53:02Z</time>
      </trkpt>
      <trkpt lat="22.508554360969363" lon="113.94969943880514">
        <ele>-13.25792995467782</ele>
        <time>2026-09-17T11:53:22Z</time>
      </trkpt>
      <trkpt lat="22.508678904778513" lon="113.94969375235412">
        <ele>-12.601674591191113</ele>
        <time>2026-09-17T11:53:30Z</time>
      </trkpt>
      <trkpt lat="22.508728344344767" lon="113.94972926218983">
        <ele>-13.077419671230018</ele>
        <time>2026-09-17T11:53:34Z</time>
      </trkpt>
      <trkpt lat="22.508812558995636" lon="113.94973851023506">
        <ele>-10.489631009288132</ele>
        <time>2026-09-17T11:53:42Z</time>
      </trkpt>
      <trkpt lat="22.508895179975873" lon="113.94978606169335">
        <ele>-11.283365415409207</ele>
        <time>2026-09-17T11:53:46Z</time>
      </trkpt>
      <trkpt lat="22.508939691418316" lon="113.9497940884835">
        <ele>-10.788584736175835</ele>
        <time>2026-09-17T11:53:50Z</time>
      </trkpt>
      <trkpt lat="22.508986475299523" lon="113.94977824900275">
        <ele>-10.440961296670139</ele>
        <time>2026-09-17T11:53:54Z</time>
      </trkpt>
      <trkpt lat="22.509132968173795" lon="113.94978996029606">
        <ele>-11.603902138769627</ele>
        <time>2026-09-17T11:54:02Z</time>
      </trkpt>
      <trkpt lat="22.50918269304339" lon="113.94982687662687">
        <ele>-11.682354243472219</ele>
        <time>2026-09-17T11:54:06Z</time>
      </trkpt>
      <trkpt lat="22.50928096277141" lon="113.9498450527147">
        <ele>-10.716385648585856</ele>
        <time>2026-09-17T11:54:09Z</time>
      </trkpt>
      <trkpt lat="22.50940611236067" lon="113.94985479456369">
        <ele>-9.481862556189299</ele>
        <time>2026-09-17T11:54:17Z</time>
      </trkpt>
      <trkpt lat="22.50951204373638" lon="113.94988317231913">
        <ele>-10.6375917699188</ele>
        <time>2026-09-17T11:54:21Z</time>
      </trkpt>
      <trkpt lat="22.509766843811278" lon="113.9498631940701">
        <ele>-10.931389615871012</ele>
        <time>2026-09-17T11:54:33Z</time>
      </trkpt>
      <trkpt lat="22.509984994061256" lon="113.94985832720835">
        <ele>-9.94543354678899</ele>
        <time>2026-09-17T11:54:45Z</time>
      </trkpt>
      <trkpt lat="22.510070550787802" lon="113.94983208756088">
        <ele>-9.970340756699443</ele>
        <time>2026-09-17T11:54:49Z</time>
      </trkpt>
      <trkpt lat="22.510150085236425" lon="113.94984672265478">
        <ele>-9.160544445738196</ele>
        <time>2026-09-17T11:54:53Z</time>
      </trkpt>
      <trkpt lat="22.510462269422423" lon="113.9497585208242">
        <ele>-10.61190948355943</ele>
        <time>2026-09-17T11:55:09Z</time>
      </trkpt>
      <trkpt lat="22.51071642354114" lon="113.94963429113584">
        <ele>-11.771017262712121</ele>
        <time>2026-09-17T11:55:21Z</time>
      </trkpt>
      <trkpt lat="22.510788220361153" lon="113.9495933055873">
        <ele>-12.764709907583892</ele>
        <time>2026-09-17T11:55:25Z</time>
      </trkpt>
      <trkpt lat="22.51096743700745" lon="113.94954321425072">
        <ele>-11.199293368496</ele>
        <time>2026-09-17T11:55:33Z</time>
      </trkpt>
      <trkpt lat="22.511010246243085" lon="113.94947816583442">
        <ele>-11.54211965110153</ele>
        <time>2026-09-17T11:55:37Z</time>
      </trkpt>
      <trkpt lat="22.51128943698078" lon="113.94926983444516">
        <ele>-15.035244135186076</ele>
        <time>2026-09-17T11:55:53Z</time>
      </trkpt>
      <trkpt lat="22.511478007698205" lon="113.9491004491513">
        <ele>-15.834673180244863</ele>
        <time>2026-09-17T11:56:05Z</time>
      </trkpt>
      <trkpt lat="22.511529001933077" lon="113.94903639413762">
        <ele>-15.491429990157485</ele>
        <time>2026-09-17T11:56:09Z</time>
      </trkpt>
      <trkpt lat="22.511739653553395" lon="113.94883486522473">
        <ele>-13.433394961990416</ele>
        <time>2026-09-17T11:56:23Z</time>
      </trkpt>
      <trkpt lat="22.51183569280119" lon="113.94871455822076">
        <ele>-10.341872779652476</ele>
        <time>2026-09-17T11:56:31Z</time>
      </trkpt>
      <trkpt lat="22.511921751723943" lon="113.94857174671536">
        <ele>-8.97659814171493</ele>
        <time>2026-09-17T11:56:39Z</time>
      </trkpt>
      <trkpt lat="22.511975181508443" lon="113.94853157978412">
        <ele>-7.735460774041712</ele>
        <time>2026-09-17T11:56:43Z</time>
      </trkpt>
      <trkpt lat="22.512087134835507" lon="113.94833180644974">
        <ele>-7.097260103560984</ele>
        <time>2026-09-17T11:56:55Z</time>
      </trkpt>
      <trkpt lat="22.512066016948285" lon="113.94815832322685">
        <ele>-7.00883147213608</ele>
        <time>2026-09-17T11:57:03Z</time>
      </trkpt>
      <trkpt lat="22.512069879712573" lon="113.94807142615433">
        <ele>-6.950002631172538</ele>
        <time>2026-09-17T11:57:07Z</time>
      </trkpt>
      <trkpt lat="22.512121187130013" lon="113.94793061843481">
        <ele>-6.066742506809533</ele>
        <time>2026-09-17T11:57:15Z</time>
      </trkpt>
      <trkpt lat="22.512144697847376" lon="113.9477683025522">
        <ele>-5.205968081951141</ele>
        <time>2026-09-17T11:57:23Z</time>
      </trkpt>
      <trkpt lat="22.51217681977922" lon="113.94772307958834">
        <ele>-1.8734952006489038</ele>
        <time>2026-09-17T11:57:27Z</time>
      </trkpt>
      <trkpt lat="22.51218262487148" lon="113.9476504003831">
        <ele>-1.7536466727033257</ele>
        <time>2026-09-17T11:57:31Z</time>
      </trkpt>
      <trkpt lat="22.51222647852591" lon="113.94759370024471">
        <ele>-1.7361069982871413</ele>
        <time>2026-09-17T11:57:35Z</time>
      </trkpt>
      <trkpt lat="22.51229952775324" lon="113.9472621661909">
        <ele>0.9663616446778178</ele>
        <time>2026-09-17T11:57:55Z</time>
      </trkpt>
      <trkpt lat="22.512327260619966" lon="113.9471756226741">
        <ele>0.7420591814443469</ele>
        <time>2026-09-17T11:57:59Z</time>
      </trkpt>
      <trkpt lat="22.512279008994714" lon="113.94698173511928">
        <ele>1.0398548217490315</ele>
        <time>2026-09-17T11:58:11Z</time>
      </trkpt>
      <trkpt lat="22.51229369597768" lon="113.94673678539543">
        <ele>1.6650916067883372</ele>
        <time>2026-09-17T11:58:19Z</time>
      </trkpt>
      <trkpt lat="22.51222125607298" lon="113.94661843815084">
        <ele>1.0667825769633055</ele>
        <time>2026-09-17T11:58:22Z</time>
      </trkpt>
      <trkpt lat="22.512204222828448" lon="113.94648179939767">
        <ele>1.8988458858802915</ele>
        <time>2026-09-17T11:58:26Z</time>
      </trkpt>
      <trkpt lat="22.5122185108308" lon="113.94641108683518">
        <ele>2.172483497299254</ele>
        <time>2026-09-17T11:58:30Z</time>
      </trkpt>
      <trkpt lat="22.51215862282159" lon="113.94629590487583">
        <ele>2.3669707234948874</ele>
        <time>2026-09-17T11:58:34Z</time>
      </trkpt>
      <trkpt lat="22.51206188832597" lon="113.94627185077296">
        <ele>2.909419379197061</ele>
        <time>2026-09-17T11:58:38Z</time>
      </trkpt>
      <trkpt lat="22.512200464575706" lon="113.94624912373952">
        <ele>4.1009622206911445</ele>
        <time>2026-09-17T11:58:42Z</time>
      </trkpt>
      <trkpt lat="22.51201339488119" lon="113.94605066077958">
        <ele>2.1379483127966523</ele>
        <time>2026-09-17T11:58:54Z</time>
      </trkpt>
      <trkpt lat="22.51185104531105" lon="113.94583064088305">
        <ele>2.5120247080922127</ele>
        <time>2026-09-17T11:59:06Z</time>
      </trkpt>
      <trkpt lat="22.511704241040547" lon="113.94568422883542">
        <ele>4.433948947116733</ele>
        <time>2026-09-17T11:59:18Z</time>
      </trkpt>
      <trkpt lat="22.511373448791012" lon="113.94559233379643">
        <ele>3.4619521368294954</ele>
        <time>2026-09-17T11:59:34Z</time>
      </trkpt>
      <trkpt lat="22.511075517505326" lon="113.94552274406867">
        <ele>3.022080416791141</ele>
        <time>2026-09-17T11:59:50Z</time>
      </trkpt>
      <trkpt lat="22.511005950954537" lon="113.94548276150641">
        <ele>2.2766220904886723</ele>
        <time>2026-09-17T11:59:54Z</time>
      </trkpt>
      <trkpt lat="22.510894255036494" lon="113.9454536003437">
        <ele>3.034691197797656</ele>
        <time>2026-09-17T11:59:58Z</time>
      </trkpt>
      <trkpt lat="22.51079604041591" lon="113.94545286539305">
        <ele>3.3482809429988265</ele>
        <time>2026-09-17T12:00:02Z</time>
      </trkpt>
      <trkpt lat="22.51070950412543" lon="113.94542694384684">
        <ele>4.090799336321652</ele>
        <time>2026-09-17T12:00:06Z</time>
      </trkpt>
      <trkpt lat="22.510635010139783" lon="113.94542725549287">
        <ele>3.2493310645222664</ele>
        <time>2026-09-17T12:00:10Z</time>
      </trkpt>
      <trkpt lat="22.510565335747817" lon="113.9454881639525">
        <ele>3.8022896694019437</ele>
        <time>2026-09-17T12:00:14Z</time>
      </trkpt>
      <trkpt lat="22.510311779808337" lon="113.94537027213318">
        <ele>3.8961613392457366</ele>
        <time>2026-09-17T12:00:26Z</time>
      </trkpt>
      <trkpt lat="22.51020129893566" lon="113.94534698868532">
        <ele>2.5183166302740574</ele>
        <time>2026-09-17T12:00:29Z</time>
      </trkpt>
      <trkpt lat="22.51011174876892" lon="113.94529951821997">
        <ele>3.784608862362802</ele>
        <time>2026-09-17T12:00:33Z</time>
      </trkpt>
      <trkpt lat="22.510032891706462" lon="113.94520372757945">
        <ele>2.611959632486105</ele>
        <time>2026-09-17T12:00:40Z</time>
      </trkpt>
      <trkpt lat="22.510194595636957" lon="113.94508719484145">
        <ele>3.1063346676528454</ele>
        <time>2026-09-17T12:00:44Z</time>
      </trkpt>
      <trkpt lat="22.510141676124107" lon="113.94487515271143">
        <ele>2.9990549255162477</ele>
        <time>2026-09-17T12:00:52Z</time>
      </trkpt>
      <trkpt lat="22.510176221131086" lon="113.94478023950536">
        <ele>4.067151675932109</ele>
        <time>2026-09-17T12:00:56Z</time>
      </trkpt>
      <trkpt lat="22.510174627081728" lon="113.94448612761339">
        <ele>1.5104781864210963</ele>
        <time>2026-09-17T12:01:08Z</time>
      </trkpt>
      <trkpt lat="22.51027891233169" lon="113.94424973268964">
        <ele>1.1225948007777333</ele>
        <time>2026-09-17T12:01:20Z</time>
      </trkpt>
      <trkpt lat="22.510261175379554" lon="113.94398426365537">
        <ele>1.9871094021946192</ele>
        <time>2026-09-17T12:01:36Z</time>
      </trkpt>
      <trkpt lat="22.510118541745175" lon="113.94374462856688">
        <ele>2.5171535843983293</ele>
        <time>2026-09-17T12:01:44Z</time>
      </trkpt>
      <trkpt lat="22.51010097918404" lon="113.94365290009134">
        <ele>1.496490528807044</ele>
        <time>2026-09-17T12:01:48Z</time>
      </trkpt>
      <trkpt lat="22.51005275560218" lon="113.94357553372605">
        <ele>2.4453380638733506</ele>
        <time>2026-09-17T12:01:52Z</time>
      </trkpt>
      <trkpt lat="22.509901400793435" lon="113.94347563666275">
        <ele>1.6246100515127182</ele>
        <time>2026-09-17T12:02:00Z</time>
      </trkpt>
      <trkpt lat="22.50965209562883" lon="113.94323584928831">
        <ele>0.42150941863656044</ele>
        <time>2026-09-17T12:02:12Z</time>
      </trkpt>
      <trkpt lat="22.509584479251227" lon="113.94315000972357">
        <ele>0.6147229634225368</ele>
        <time>2026-09-17T12:02:16Z</time>
      </trkpt>
      <trkpt lat="22.509558499909208" lon="113.94308699769726">
        <ele>0.23764169588685036</ele>
        <time>2026-09-17T12:02:20Z</time>
      </trkpt>
      <trkpt lat="22.509534637323068" lon="113.94287352556721">
        <ele>0.9266517106443644</ele>
        <time>2026-09-17T12:02:28Z</time>
      </trkpt>
      <trkpt lat="22.509618945896484" lon="113.94282364586802">
        <ele>0.2159962933510542</ele>
        <time>2026-09-17T12:02:35Z</time>
      </trkpt>
      <trkpt lat="22.509621582630054" lon="113.94270587102875">
        <ele>0.16770518478006124</ele>
        <time>2026-09-17T12:02:41Z</time>
      </trkpt>
      <trkpt lat="22.50960081947087" lon="113.94262832378615">
        <ele>1.0767769943922758</ele>
        <time>2026-09-17T12:02:44Z</time>
      </trkpt>
      <trkpt lat="22.50962109051992" lon="113.94255797840114">
        <ele>0.9520400613546371</ele>
        <time>2026-09-17T12:02:47Z</time>
      </trkpt>
      <trkpt lat="22.509621190339818" lon="113.94248213985087">
        <ele>1.3496962860226631</ele>
        <time>2026-09-17T12:02:50Z</time>
      </trkpt>
      <trkpt lat="22.50969469196938" lon="113.94216017105543">
        <ele>2.2689416659995914</ele>
        <time>2026-09-17T12:03:08Z</time>
      </trkpt>
      <trkpt lat="22.509711278099797" lon="113.94204610182987">
        <ele>1.079421205446124</ele>
        <time>2026-09-17T12:03:12Z</time>
      </trkpt>
      <trkpt lat="22.509754639439404" lon="113.94195529903895">
        <ele>1.4153156224638224</ele>
        <time>2026-09-17T12:03:16Z</time>
      </trkpt>
      <trkpt lat="22.50981036341272" lon="113.94188855416942">
        <ele>0.9998647635802627</ele>
        <time>2026-09-17T12:03:20Z</time>
      </trkpt>
      <trkpt lat="22.509844110589217" lon="113.94164826610205">
        <ele>1.8883680207654834</ele>
        <time>2026-09-17T12:03:32Z</time>
      </trkpt>
      <trkpt lat="22.509871209906287" lon="113.94160021064654">
        <ele>3.787451253272593</ele>
        <time>2026-09-17T12:03:44Z</time>
      </trkpt>
      <trkpt lat="22.50984814400068" lon="113.94140670376028">
        <ele>5.675144825130701</ele>
        <time>2026-09-17T12:04:00Z</time>
      </trkpt>
      <trkpt lat="22.509889098875217" lon="113.94132838040328">
        <ele>5.6704407492652535</ele>
        <time>2026-09-17T12:04:08Z</time>
      </trkpt>
      <trkpt lat="22.509852117955948" lon="113.94125880701132">
        <ele>7.321047767996788</ele>
        <time>2026-09-17T12:04:12Z</time>
      </trkpt>
      <trkpt lat="22.509817924882118" lon="113.94113169142246">
        <ele>8.068902110680938</ele>
        <time>2026-09-17T12:04:20Z</time>
      </trkpt>
      <trkpt lat="22.50980969837623" lon="113.94096254542187">
        <ele>9.584849032573402</ele>
        <time>2026-09-17T12:04:32Z</time>
      </trkpt>
      <trkpt lat="22.509840332114113" lon="113.9408289417734">
        <ele>10.312760508619249</ele>
        <time>2026-09-17T12:04:42Z</time>
      </trkpt>
      <trkpt lat="22.509878840325634" lon="113.94077446857655">
        <ele>10.42951604258269</ele>
        <time>2026-09-17T12:04:48Z</time>
      </trkpt>
      <trkpt lat="22.50994760005842" lon="113.94056857723444">
        <ele>10.071483072824776</ele>
        <time>2026-09-17T12:05:06Z</time>
      </trkpt>
      <trkpt lat="22.509981206573073" lon="113.9405152468939">
        <ele>9.776913965120912</ele>
        <time>2026-09-17T12:05:14Z</time>
      </trkpt>
      <trkpt lat="22.509977268616822" lon="113.94044917139654">
        <ele>9.8220817996189</ele>
        <time>2026-09-17T12:05:22Z</time>
      </trkpt>
      <trkpt lat="22.510006481376315" lon="113.9403413996484">
        <ele>8.862774451263249</ele>
        <time>2026-09-17T12:05:26Z</time>
      </trkpt>
      <trkpt lat="22.510068777012314" lon="113.94021254638544">
        <ele>8.694370940327644</ele>
        <time>2026-09-17T12:05:34Z</time>
      </trkpt>
      <trkpt lat="22.510175057804567" lon="113.9401932657867">
        <ele>8.17699775006622</ele>
        <time>2026-09-17T12:05:38Z</time>
      </trkpt>
      <trkpt lat="22.510300246258165" lon="113.94009453535371">
        <ele>6.665849566459656</ele>
        <time>2026-09-17T12:05:42Z</time>
      </trkpt>
      <trkpt lat="22.51038579022443" lon="113.9401003342127">
        <ele>4.428220943547785</ele>
        <time>2026-09-17T12:05:46Z</time>
      </trkpt>
      <trkpt lat="22.510425017773745" lon="113.94005035606314">
        <ele>2.1669632252305746</ele>
        <time>2026-09-17T12:05:50Z</time>
      </trkpt>
      <trkpt lat="22.510715925200255" lon="113.93989210779048">
        <ele>-6.949100838974118</ele>
        <time>2026-09-17T12:06:26Z</time>
      </trkpt>
      <trkpt lat="22.51080318805975" lon="113.93987327590175">
        <ele>-8.942696396261454</ele>
        <time>2026-09-17T12:06:34Z</time>
      </trkpt>
      <trkpt lat="22.51092134819704" lon="113.93992690066898">
        <ele>-9.002867218106985</ele>
        <time>2026-09-17T12:06:42Z</time>
      </trkpt>
      <trkpt lat="22.510973777579768" lon="113.93988869065248">
        <ele>-4.855704222805798</ele>
        <time>2026-09-17T12:06:49Z</time>
      </trkpt>
      <trkpt lat="22.511255017909683" lon="113.93987722814">
        <ele>-6.344199161976576</ele>
        <time>2026-09-17T12:07:15Z</time>
      </trkpt>
      <trkpt lat="22.511299192451087" lon="113.93989020609817">
        <ele>-5.330479395575821</ele>
        <time>2026-09-17T12:07:21Z</time>
      </trkpt>
      <trkpt lat="22.511333701163267" lon="113.93984609764186">
        <ele>-3.876704583875835</ele>
        <time>2026-09-17T12:07:27Z</time>
      </trkpt>
      <trkpt lat="22.51136445155947" lon="113.9397342834645">
        <ele>-5.887797182425857</ele>
        <time>2026-09-17T12:07:47Z</time>
      </trkpt>
      <trkpt lat="22.51130948692826" lon="113.93972822171361">
        <ele>-7.308754602447152</ele>
        <time>2026-09-17T12:07:55Z</time>
      </trkpt>
      <trkpt lat="22.511257897683908" lon="113.93974640575671">
        <ele>-9.49832088779658</ele>
        <time>2026-09-17T12:08:03Z</time>
      </trkpt>
      <trkpt lat="22.511281918928447" lon="113.93969621404173">
        <ele>-10.896350177004933</ele>
        <time>2026-09-17T12:08:15Z</time>
      </trkpt>
      <trkpt lat="22.51127763249011" lon="113.93970093469646">
        <ele>-13.78677736967802</ele>
        <time>2026-09-17T12:08:39Z</time>
      </trkpt>
      <trkpt lat="22.51127763249011" lon="113.93970093469646">
        <ele>-13.78677736967802</ele>
        <time>2026-09-17T12:08:45Z</time>
      </trkpt>
    </trkseg>
  </trk>
</gpx>