<?xml version="1.0" encoding="UTF-8"?>
<gpx xmlns="http://www.topografix.com/GPX/1/1" xmlns:gpxtpx="http://www.garmin.com/xmlschemas/TrackPointExtension/v1" xmlns:xsi="http://www.w3.org/2001/XMLSchema-instance" xsi:schemaLocation="http://www.topografix.com/GPX/1/1 http://www.topografix.com/GPX/1/1/gpx.xsd" version="1.1" creator="gpx.py -- https://github.com/tkrajina/gpxpy">
  <trk>
    <name>gpx from keep</name>
    <type>Run</type>
    <trkseg>
      <trkpt lat="22.51058429234085" lon="113.93992449648334">
        <ele>16.62179207801819</ele>
        <time>2026-08-18T11:22:58Z</time>
      </trkpt>
      <trkpt lat="22.510413901950773" lon="113.94005894212317">
        <ele>11.415044341236353</ele>
        <time>2026-08-18T11:23:07Z</time>
      </trkpt>
      <trkpt lat="22.510337779037773" lon="113.94010140460983">
        <ele>8.2156717851758</ele>
        <time>2026-08-18T11:23:11Z</time>
      </trkpt>
      <trkpt lat="22.510291475029813" lon="113.94011013412494">
        <ele>8.719470407813787</ele>
        <time>2026-08-18T11:23:14Z</time>
      </trkpt>
      <trkpt lat="22.510180239249223" lon="113.9401709820159">
        <ele>7.006981769576669</ele>
        <time>2026-08-18T11:23:20Z</time>
      </trkpt>
      <trkpt lat="22.510164334118063" lon="113.94025434707103">
        <ele>14.800282835029066</ele>
        <time>2026-08-18T11:23:26Z</time>
      </trkpt>
      <trkpt lat="22.51012656269724" lon="113.9403261823504">
        <ele>14.424400729127228</ele>
        <time>2026-08-18T11:23:29Z</time>
      </trkpt>
      <trkpt lat="22.51002899064168" lon="113.94042646479488">
        <ele>14.352637149393559</ele>
        <time>2026-08-18T11:23:35Z</time>
      </trkpt>
      <trkpt lat="22.50998096335945" lon="113.94050339712228">
        <ele>14.281695348210633</ele>
        <time>2026-08-18T11:23:38Z</time>
      </trkpt>
      <trkpt lat="22.509964956282293" lon="113.9405938018206">
        <ele>15.095283698290586</ele>
        <time>2026-08-18T11:23:41Z</time>
      </trkpt>
      <trkpt lat="22.509832113797668" lon="113.94092173880497">
        <ele>14.996872815303504</ele>
        <time>2026-08-18T11:23:50Z</time>
      </trkpt>
      <trkpt lat="22.509791285212128" lon="113.9410500062871">
        <ele>14.782549501396716</ele>
        <time>2026-08-18T11:23:56Z</time>
      </trkpt>
      <trkpt lat="22.509796372674057" lon="113.94141255881063">
        <ele>14.780355052091181</ele>
        <time>2026-08-18T11:24:11Z</time>
      </trkpt>
      <trkpt lat="22.509795290981764" lon="113.94156630486707">
        <ele>14.633967484347522</ele>
        <time>2026-08-18T11:24:17Z</time>
      </trkpt>
      <trkpt lat="22.509834510701776" lon="113.94175483005235">
        <ele>14.482313128188252</ele>
        <time>2026-08-18T11:24:23Z</time>
      </trkpt>
      <trkpt lat="22.509888744594804" lon="113.9418114538739">
        <ele>15.262723688036203</ele>
        <time>2026-08-18T11:24:26Z</time>
      </trkpt>
      <trkpt lat="22.509806839211215" lon="113.9420194616529">
        <ele>15.680209193378687</ele>
        <time>2026-08-18T11:24:35Z</time>
      </trkpt>
      <trkpt lat="22.509713616574903" lon="113.94204338525353">
        <ele>14.707406144589186</ele>
        <time>2026-08-18T11:24:38Z</time>
      </trkpt>
      <trkpt lat="22.50967332719833" lon="113.94208465074996">
        <ele>15.27614388242364</ele>
        <time>2026-08-18T11:24:41Z</time>
      </trkpt>
      <trkpt lat="22.509646912172904" lon="113.94226129640874">
        <ele>15.79156346898526</ele>
        <time>2026-08-18T11:24:47Z</time>
      </trkpt>
      <trkpt lat="22.50960008261447" lon="113.94235873938571">
        <ele>15.667485196143389</ele>
        <time>2026-08-18T11:24:50Z</time>
      </trkpt>
      <trkpt lat="22.50958915622457" lon="113.9425412634591">
        <ele>14.739840412512422</ele>
        <time>2026-08-18T11:24:56Z</time>
      </trkpt>
      <trkpt lat="22.509565551186935" lon="113.94264279853445">
        <ele>13.82480973470956</ele>
        <time>2026-08-18T11:24:59Z</time>
      </trkpt>
      <trkpt lat="22.509640876125523" lon="113.9428961590646">
        <ele>9.786961602047086</ele>
        <time>2026-08-18T11:25:06Z</time>
      </trkpt>
      <trkpt lat="22.50962154364659" lon="113.94305151797343">
        <ele>11.41433513071388</ele>
        <time>2026-08-18T11:25:14Z</time>
      </trkpt>
      <trkpt lat="22.50966722305571" lon="113.94326712177127">
        <ele>12.333450745791197</ele>
        <time>2026-08-18T11:25:24Z</time>
      </trkpt>
      <trkpt lat="22.509775365682238" lon="113.94345139728472">
        <ele>12.298004062846303</ele>
        <time>2026-08-18T11:25:39Z</time>
      </trkpt>
      <trkpt lat="22.509954887206945" lon="113.94361030685945">
        <ele>10.861084436997771</ele>
        <time>2026-08-18T11:25:48Z</time>
      </trkpt>
      <trkpt lat="22.510000183568334" lon="113.9437221454156">
        <ele>11.10878859180957</ele>
        <time>2026-08-18T11:25:54Z</time>
      </trkpt>
      <trkpt lat="22.51005875983227" lon="113.94377384642554">
        <ele>10.707628455013037</ele>
        <time>2026-08-18T11:25:57Z</time>
      </trkpt>
      <trkpt lat="22.510131182155767" lon="113.94392073505897">
        <ele>10.964733146131039</ele>
        <time>2026-08-18T11:26:03Z</time>
      </trkpt>
      <trkpt lat="22.510199286653204" lon="113.94401657952523">
        <ele>11.255803251639009</ele>
        <time>2026-08-18T11:26:06Z</time>
      </trkpt>
      <trkpt lat="22.5102245895893" lon="113.94417542932699">
        <ele>9.870578990317881</ele>
        <time>2026-08-18T11:26:12Z</time>
      </trkpt>
      <trkpt lat="22.510279100784626" lon="113.94430589134002">
        <ele>9.236540022306144</ele>
        <time>2026-08-18T11:26:15Z</time>
      </trkpt>
      <trkpt lat="22.51027861233571" lon="113.94440272890704">
        <ele>9.593318920582533</ele>
        <time>2026-08-18T11:26:18Z</time>
      </trkpt>
      <trkpt lat="22.510218447645556" lon="113.94472115108312">
        <ele>9.219414081424475</ele>
        <time>2026-08-18T11:26:33Z</time>
      </trkpt>
      <trkpt lat="22.510148032005002" lon="113.94485809277552">
        <ele>6.761966255493462</ele>
        <time>2026-08-18T11:26:36Z</time>
      </trkpt>
      <trkpt lat="22.510137867695473" lon="113.94507179317638">
        <ele>5.424984583631158</ele>
        <time>2026-08-18T11:26:45Z</time>
      </trkpt>
      <trkpt lat="22.510162646846542" lon="113.94512198878567">
        <ele>5.616400996223092</ele>
        <time>2026-08-18T11:26:51Z</time>
      </trkpt>
      <trkpt lat="22.510171417917682" lon="113.94523774495774">
        <ele>5.687414989806712</ele>
        <time>2026-08-18T11:26:57Z</time>
      </trkpt>
      <trkpt lat="22.510207866257563" lon="113.94528311169478">
        <ele>6.024735402315855</ele>
        <time>2026-08-18T11:27:00Z</time>
      </trkpt>
      <trkpt lat="22.510257824078316" lon="113.94539283462329">
        <ele>6.954597946256399</ele>
        <time>2026-08-18T11:27:06Z</time>
      </trkpt>
      <trkpt lat="22.51030656723976" lon="113.94543935413293">
        <ele>6.111002082005143</ele>
        <time>2026-08-18T11:27:10Z</time>
      </trkpt>
      <trkpt lat="22.510398662199172" lon="113.94548252109178">
        <ele>6.54672780726105</ele>
        <time>2026-08-18T11:27:14Z</time>
      </trkpt>
      <trkpt lat="22.51068626757007" lon="113.94550303516282">
        <ele>7.141589961946011</ele>
        <time>2026-08-18T11:27:30Z</time>
      </trkpt>
      <trkpt lat="22.510859879718318" lon="113.94550133242356">
        <ele>6.62012221198529</ele>
        <time>2026-08-18T11:27:38Z</time>
      </trkpt>
      <trkpt lat="22.511169906986098" lon="113.94559829118843">
        <ele>2.771813896484673</ele>
        <time>2026-08-18T11:27:50Z</time>
      </trkpt>
      <trkpt lat="22.51148355972318" lon="113.94568594293247">
        <ele>1.8055994547903538</ele>
        <time>2026-08-18T11:28:05Z</time>
      </trkpt>
      <trkpt lat="22.511623354065133" lon="113.94571879842246">
        <ele>0.30173369217664003</ele>
        <time>2026-08-18T11:28:11Z</time>
      </trkpt>
      <trkpt lat="22.51176209770569" lon="113.94582157617297">
        <ele>0.26704832818359137</ele>
        <time>2026-08-18T11:28:17Z</time>
      </trkpt>
      <trkpt lat="22.51182948617156" lon="113.9458507388525">
        <ele>0.05478555615991354</ele>
        <time>2026-08-18T11:28:20Z</time>
      </trkpt>
      <trkpt lat="22.51201595064015" lon="113.94602172120099">
        <ele>0.0457612220197916</ele>
        <time>2026-08-18T11:28:29Z</time>
      </trkpt>
      <trkpt lat="22.512153731683167" lon="113.9462076111712">
        <ele>1.5997152114287019</ele>
        <time>2026-08-18T11:28:38Z</time>
      </trkpt>
      <trkpt lat="22.51221509010509" lon="113.94631891631258">
        <ele>2.4459832329303026</ele>
        <time>2026-08-18T11:28:44Z</time>
      </trkpt>
      <trkpt lat="22.512270198980055" lon="113.94658415198535">
        <ele>1.512372818775475</ele>
        <time>2026-08-18T11:28:59Z</time>
      </trkpt>
      <trkpt lat="22.512286234328496" lon="113.94676746389862">
        <ele>2.383390501141548</ele>
        <time>2026-08-18T11:29:08Z</time>
      </trkpt>
      <trkpt lat="22.51234868593366" lon="113.94694112496622">
        <ele>2.651127927005291</ele>
        <time>2026-08-18T11:29:15Z</time>
      </trkpt>
      <trkpt lat="22.512338084467384" lon="113.94721308785944">
        <ele>5.180973558686674</ele>
        <time>2026-08-18T11:29:31Z</time>
      </trkpt>
      <trkpt lat="22.512306130592595" lon="113.94726432072657">
        <ele>4.823920759372413</ele>
        <time>2026-08-18T11:29:35Z</time>
      </trkpt>
      <trkpt lat="22.512286905569844" lon="113.94744021697198">
        <ele>4.495533007197082</ele>
        <time>2026-08-18T11:29:47Z</time>
      </trkpt>
      <trkpt lat="22.512205343444478" lon="113.94765808649875">
        <ele>8.584870713762939</ele>
        <time>2026-08-18T11:29:55Z</time>
      </trkpt>
      <trkpt lat="22.51216041546094" lon="113.94773724821667">
        <ele>9.50653868354857</ele>
        <time>2026-08-18T11:30:02Z</time>
      </trkpt>
      <trkpt lat="22.512124502072954" lon="113.94787023901739">
        <ele>9.403748297132552</ele>
        <time>2026-08-18T11:30:11Z</time>
      </trkpt>
      <trkpt lat="22.512133873356415" lon="113.94793895947767">
        <ele>9.943891439586878</ele>
        <time>2026-08-18T11:30:14Z</time>
      </trkpt>
      <trkpt lat="22.51211780188456" lon="113.94800995981502">
        <ele>9.602129663340747</ele>
        <time>2026-08-18T11:30:17Z</time>
      </trkpt>
      <trkpt lat="22.51204949545455" lon="113.94808675449953">
        <ele>9.436878552660346</ele>
        <time>2026-08-18T11:30:20Z</time>
      </trkpt>
      <trkpt lat="22.511966803596373" lon="113.94814998734584">
        <ele>8.042451766319573</ele>
        <time>2026-08-18T11:30:23Z</time>
      </trkpt>
      <trkpt lat="22.511977537557797" lon="113.94833817544895">
        <ele>6.470941038802266</ele>
        <time>2026-08-18T11:30:29Z</time>
      </trkpt>
      <trkpt lat="22.5120514128791" lon="113.94846739071629">
        <ele>5.726809021085501</ele>
        <time>2026-08-18T11:30:32Z</time>
      </trkpt>
      <trkpt lat="22.512035384297267" lon="113.94851677559923">
        <ele>3.622317984700203</ele>
        <time>2026-08-18T11:30:38Z</time>
      </trkpt>
      <trkpt lat="22.511893707709525" lon="113.94860653862851">
        <ele>3.328279972076416</ele>
        <time>2026-08-18T11:30:47Z</time>
      </trkpt>
      <trkpt lat="22.511786941966342" lon="113.94870021129407">
        <ele>2.961031255312264</ele>
        <time>2026-08-18T11:30:53Z</time>
      </trkpt>
      <trkpt lat="22.51176741640711" lon="113.94876486861058">
        <ele>2.266456854529679</ele>
        <time>2026-08-18T11:30:56Z</time>
      </trkpt>
      <trkpt lat="22.51158943929999" lon="113.94898308397744">
        <ele>3.7776928804814816</ele>
        <time>2026-08-18T11:31:08Z</time>
      </trkpt>
      <trkpt lat="22.51150288485392" lon="113.94913725796066">
        <ele>4.069591305218637</ele>
        <time>2026-08-18T11:31:21Z</time>
      </trkpt>
      <trkpt lat="22.511425567766565" lon="113.9492183954273">
        <ele>4.024306179955602</ele>
        <time>2026-08-18T11:31:29Z</time>
      </trkpt>
      <trkpt lat="22.511341869428886" lon="113.94925014369342">
        <ele>3.6450712978839874</ele>
        <time>2026-08-18T11:31:33Z</time>
      </trkpt>
      <trkpt lat="22.511238836855085" lon="113.94941258494084">
        <ele>6.077131022699177</ele>
        <time>2026-08-18T11:31:41Z</time>
      </trkpt>
      <trkpt lat="22.51095243532566" lon="113.94955944460877">
        <ele>5.539740586653352</ele>
        <time>2026-08-18T11:31:57Z</time>
      </trkpt>
      <trkpt lat="22.510892392414103" lon="113.94957200183515">
        <ele>5.687709097750485</ele>
        <time>2026-08-18T11:32:01Z</time>
      </trkpt>
      <trkpt lat="22.510740228683897" lon="113.94969680419403">
        <ele>5.470509150065482</ele>
        <time>2026-08-18T11:32:17Z</time>
      </trkpt>
      <trkpt lat="22.510455248458356" lon="113.94980029965083">
        <ele>6.81947551202029</ele>
        <time>2026-08-18T11:32:29Z</time>
      </trkpt>
      <trkpt lat="22.510262176568215" lon="113.9498118813067">
        <ele>5.268035521730781</ele>
        <time>2026-08-18T11:32:41Z</time>
      </trkpt>
      <trkpt lat="22.510152611275007" lon="113.94985623236786">
        <ele>5.191288685426116</ele>
        <time>2026-08-18T11:32:47Z</time>
      </trkpt>
      <trkpt lat="22.509847116857475" lon="113.949891407774">
        <ele>5.013724707998335</ele>
        <time>2026-08-18T11:33:02Z</time>
      </trkpt>
      <trkpt lat="22.509482925105136" lon="113.9498898149335">
        <ele>3.4644480207934976</ele>
        <time>2026-08-18T11:33:20Z</time>
      </trkpt>
      <trkpt lat="22.509148664329206" lon="113.9498385209934">
        <ele>1.913036661222577</ele>
        <time>2026-08-18T11:33:35Z</time>
      </trkpt>
      <trkpt lat="22.508931099841572" lon="113.9498040749029">
        <ele>1.7130188075825572</ele>
        <time>2026-08-18T11:33:47Z</time>
      </trkpt>
      <trkpt lat="22.50859568996849" lon="113.94966911445336">
        <ele>1.4777919864282012</ele>
        <time>2026-08-18T11:34:04Z</time>
      </trkpt>
      <trkpt lat="22.50837080199121" lon="113.94952370828426">
        <ele>1.1514930231496692</ele>
        <time>2026-08-18T11:34:19Z</time>
      </trkpt>
      <trkpt lat="22.50829504570508" lon="113.94949155094956">
        <ele>1.1530801663175225</ele>
        <time>2026-08-18T11:34:25Z</time>
      </trkpt>
      <trkpt lat="22.508223057685743" lon="113.94941585250042">
        <ele>0.8728650435805321</ele>
        <time>2026-08-18T11:34:31Z</time>
      </trkpt>
      <trkpt lat="22.50816904986855" lon="113.94939518138501">
        <ele>0.8675049841403961</ele>
        <time>2026-08-18T11:34:34Z</time>
      </trkpt>
      <trkpt lat="22.50796653158461" lon="113.94917738369546">
        <ele>2.648543879389763</ele>
        <time>2026-08-18T11:34:49Z</time>
      </trkpt>
      <trkpt lat="22.507825898119016" lon="113.94908155441146">
        <ele>1.4122754381969571</ele>
        <time>2026-08-18T11:34:58Z</time>
      </trkpt>
      <trkpt lat="22.507614454465767" lon="113.94884120471313">
        <ele>1.5377749698236585</ele>
        <time>2026-08-18T11:35:13Z</time>
      </trkpt>
      <trkpt lat="22.507360752072902" lon="113.94860212710867">
        <ele>1.1680408185347915</ele>
        <time>2026-08-18T11:35:31Z</time>
      </trkpt>
      <trkpt lat="22.507103527917955" lon="113.94849473444597">
        <ele>1.2826311979442835</ele>
        <time>2026-08-18T11:35:43Z</time>
      </trkpt>
      <trkpt lat="22.506957617605433" lon="113.94840552121983">
        <ele>0.3720417143777013</ele>
        <time>2026-08-18T11:35:52Z</time>
      </trkpt>
      <trkpt lat="22.5068542143732" lon="113.94831998568002">
        <ele>-0.08490175940096378</ele>
        <time>2026-08-18T11:35:58Z</time>
      </trkpt>
      <trkpt lat="22.50674242732211" lon="113.94830352356475">
        <ele>0.8832813007757068</ele>
        <time>2026-08-18T11:36:04Z</time>
      </trkpt>
      <trkpt lat="22.50661542783647" lon="113.94824220245262">
        <ele>0.39094343688338995</ele>
        <time>2026-08-18T11:36:13Z</time>
      </trkpt>
      <trkpt lat="22.506458117108913" lon="113.94818803053177">
        <ele>1.1267155213281512</ele>
        <time>2026-08-18T11:36:22Z</time>
      </trkpt>
      <trkpt lat="22.50640615814018" lon="113.9481540486025">
        <ele>1.0363568784669042</ele>
        <time>2026-08-18T11:36:25Z</time>
      </trkpt>
      <trkpt lat="22.506226451977682" lon="113.94813480739009">
        <ele>1.3430424677208066</ele>
        <time>2026-08-18T11:36:34Z</time>
      </trkpt>
      <trkpt lat="22.506180119296893" lon="113.94814479396364">
        <ele>1.730469735339284</ele>
        <time>2026-08-18T11:36:37Z</time>
      </trkpt>
      <trkpt lat="22.50598438700594" lon="113.94810118404901">
        <ele>0.8157874476164579</ele>
        <time>2026-08-18T11:36:46Z</time>
      </trkpt>
      <trkpt lat="22.505874954893418" lon="113.94810686234925">
        <ele>0.5574510358273983</ele>
        <time>2026-08-18T11:36:52Z</time>
      </trkpt>
      <trkpt lat="22.505676056079682" lon="113.94806115446075">
        <ele>0.3202022733166814</ele>
        <time>2026-08-18T11:37:07Z</time>
      </trkpt>
      <trkpt lat="22.505391578458966" lon="113.94805000917246">
        <ele>1.8554679825901985</ele>
        <time>2026-08-18T11:37:22Z</time>
      </trkpt>
      <trkpt lat="22.50507435844888" lon="113.94809414022157">
        <ele>1.3191510206088424</ele>
        <time>2026-08-18T11:37:37Z</time>
      </trkpt>
      <trkpt lat="22.504792538709417" lon="113.94818109503997">
        <ele>2.2561424681916833</ele>
        <time>2026-08-18T11:37:54Z</time>
      </trkpt>
      <trkpt lat="22.504657822754265" lon="113.94822007051398">
        <ele>0.22612854652106762</ele>
        <time>2026-08-18T11:38:00Z</time>
      </trkpt>
      <trkpt lat="22.504608898902482" lon="113.9482813741829">
        <ele>0.6570276711136103</ele>
        <time>2026-08-18T11:38:06Z</time>
      </trkpt>
      <trkpt lat="22.504340599157263" lon="113.94838713849973">
        <ele>3.1196425519883633</ele>
        <time>2026-08-18T11:38:21Z</time>
      </trkpt>
      <trkpt lat="22.50416420704671" lon="113.9485132574314">
        <ele>4.497443404980004</ele>
        <time>2026-08-18T11:38:33Z</time>
      </trkpt>
      <trkpt lat="22.50403311031859" lon="113.94857762584157">
        <ele>3.488378344103694</ele>
        <time>2026-08-18T11:38:42Z</time>
      </trkpt>
      <trkpt lat="22.503938452699913" lon="113.94864370422268">
        <ele>3.447642476297915</ele>
        <time>2026-08-18T11:38:48Z</time>
      </trkpt>
      <trkpt lat="22.503626406308896" lon="113.94874719978169">
        <ele>2.801985699683428</ele>
        <time>2026-08-18T11:39:06Z</time>
      </trkpt>
      <trkpt lat="22.50331446649343" lon="113.9488303604653">
        <ele>3.7386200884357095</ele>
        <time>2026-08-18T11:39:21Z</time>
      </trkpt>
      <trkpt lat="22.50325981391" lon="113.94888872065596">
        <ele>4.023711549118161</ele>
        <time>2026-08-18T11:39:24Z</time>
      </trkpt>
      <trkpt lat="22.50295428615529" lon="113.94893783070296">
        <ele>3.9875126173719764</ele>
        <time>2026-08-18T11:39:39Z</time>
      </trkpt>
      <trkpt lat="22.50262928480025" lon="113.94900554688192">
        <ele>3.3984583811834455</ele>
        <time>2026-08-18T11:39:58Z</time>
      </trkpt>
      <trkpt lat="22.50249264033001" lon="113.94909279308798">
        <ele>4.399645519442856</ele>
        <time>2026-08-18T11:40:10Z</time>
      </trkpt>
      <trkpt lat="22.502394178925663" lon="113.94910954528375">
        <ele>4.355675938539207</ele>
        <time>2026-08-18T11:40:16Z</time>
      </trkpt>
      <trkpt lat="22.502100919349107" lon="113.94899985246919">
        <ele>3.643274623900652</ele>
        <time>2026-08-18T11:40:31Z</time>
      </trkpt>
      <trkpt lat="22.50182233485931" lon="113.94895339111234">
        <ele>3.481378407217562</ele>
        <time>2026-08-18T11:40:43Z</time>
      </trkpt>
      <trkpt lat="22.50166961940034" lon="113.94895413889789">
        <ele>3.748437528498471</ele>
        <time>2026-08-18T11:40:52Z</time>
      </trkpt>
      <trkpt lat="22.501366771586827" lon="113.948901017427">
        <ele>3.711215210147202</ele>
        <time>2026-08-18T11:41:04Z</time>
      </trkpt>
      <trkpt lat="22.501298252066565" lon="113.94889095979546">
        <ele>3.7116406252607703</ele>
        <time>2026-08-18T11:41:07Z</time>
      </trkpt>
      <trkpt lat="22.501026979384843" lon="113.94879609904706">
        <ele>3.6229463685303926</ele>
        <time>2026-08-18T11:41:22Z</time>
      </trkpt>
      <trkpt lat="22.50076151915237" lon="113.94871183447466">
        <ele>3.646571358665824</ele>
        <time>2026-08-18T11:41:37Z</time>
      </trkpt>
      <trkpt lat="22.500643963308324" lon="113.94863184663147">
        <ele>2.680269098840654</ele>
        <time>2026-08-18T11:41:43Z</time>
      </trkpt>
      <trkpt lat="22.500587469247506" lon="113.94862399484305">
        <ele>2.8765936056151986</ele>
        <time>2026-08-18T11:41:46Z</time>
      </trkpt>
      <trkpt lat="22.50035322637872" lon="113.9484668813087">
        <ele>3.116114898584783</ele>
        <time>2026-08-18T11:42:02Z</time>
      </trkpt>
      <trkpt lat="22.50031302215456" lon="113.94844049657199">
        <ele>2.476079534739256</ele>
        <time>2026-08-18T11:42:05Z</time>
      </trkpt>
      <trkpt lat="22.50029233595171" lon="113.94839634492887">
        <ele>2.8333003725856543</ele>
        <time>2026-08-18T11:42:08Z</time>
      </trkpt>
      <trkpt lat="22.500108418517602" lon="113.94823557332123">
        <ele>1.8620621617883444</ele>
        <time>2026-08-18T11:42:20Z</time>
      </trkpt>
      <trkpt lat="22.50005749072937" lon="113.94822800175046">
        <ele>2.4012272618710995</ele>
        <time>2026-08-18T11:42:23Z</time>
      </trkpt>
      <trkpt lat="22.499880643362513" lon="113.94808457011776">
        <ele>6.799540947191417</ele>
        <time>2026-08-18T11:42:35Z</time>
      </trkpt>
      <trkpt lat="22.499777028454794" lon="113.94795616267083">
        <ele>6.80580017901957</ele>
        <time>2026-08-18T11:42:44Z</time>
      </trkpt>
      <trkpt lat="22.499600524784093" lon="113.94785765817632">
        <ele>6.872471661306918</ele>
        <time>2026-08-18T11:42:53Z</time>
      </trkpt>
      <trkpt lat="22.499492872998204" lon="113.94776454498356">
        <ele>6.031880598515272</ele>
        <time>2026-08-18T11:42:59Z</time>
      </trkpt>
      <trkpt lat="22.49946346576157" lon="113.94770998972817">
        <ele>5.90688047464937</ele>
        <time>2026-08-18T11:43:02Z</time>
      </trkpt>
      <trkpt lat="22.49928567918893" lon="113.94757743281377">
        <ele>5.232960049062967</ele>
        <time>2026-08-18T11:43:14Z</time>
      </trkpt>
      <trkpt lat="22.499143193311404" lon="113.94751253314105">
        <ele>5.022548509761691</ele>
        <time>2026-08-18T11:43:20Z</time>
      </trkpt>
      <trkpt lat="22.49909618117516" lon="113.9475078622942">
        <ele>5.5551279745996</ele>
        <time>2026-08-18T11:43:26Z</time>
      </trkpt>
      <trkpt lat="22.498826718798878" lon="113.94737635389068">
        <ele>4.206928963772953</ele>
        <time>2026-08-18T11:43:44Z</time>
      </trkpt>
      <trkpt lat="22.498542485499744" lon="113.94727937541668">
        <ele>4.457704218104482</ele>
        <time>2026-08-18T11:43:57Z</time>
      </trkpt>
      <trkpt lat="22.498451338585735" lon="113.94725372757982">
        <ele>4.941138667054474</ele>
        <time>2026-08-18T11:44:03Z</time>
      </trkpt>
      <trkpt lat="22.498355415348897" lon="113.94716216117214">
        <ele>5.227322374470532</ele>
        <time>2026-08-18T11:44:15Z</time>
      </trkpt>
      <trkpt lat="22.498138094677554" lon="113.94715737188149">
        <ele>5.370579420588911</ele>
        <time>2026-08-18T11:44:21Z</time>
      </trkpt>
      <trkpt lat="22.49792933931085" lon="113.94711677195079">
        <ele>6.11652609705925</ele>
        <time>2026-08-18T11:44:30Z</time>
      </trkpt>
      <trkpt lat="22.49763043059143" lon="113.94709655072833">
        <ele>5.996507327072322</ele>
        <time>2026-08-18T11:44:45Z</time>
      </trkpt>
      <trkpt lat="22.497460444216784" lon="113.947069428599">
        <ele>6.078290318138897</ele>
        <time>2026-08-18T11:44:54Z</time>
      </trkpt>
      <trkpt lat="22.49738708014251" lon="113.94707926002698">
        <ele>6.596045628190041</ele>
        <time>2026-08-18T11:44:57Z</time>
      </trkpt>
      <trkpt lat="22.49731466811779" lon="113.94706617505064">
        <ele>6.442982981912792</ele>
        <time>2026-08-18T11:45:00Z</time>
      </trkpt>
      <trkpt lat="22.497019267258786" lon="113.94709834353928">
        <ele>6.638967478647828</ele>
        <time>2026-08-18T11:45:15Z</time>
      </trkpt>
      <trkpt lat="22.496780294607866" lon="113.94715060515607">
        <ele>5.9468406634405255</ele>
        <time>2026-08-18T11:45:27Z</time>
      </trkpt>
      <trkpt lat="22.496448302949698" lon="113.94721859555581">
        <ele>7.107703355140984</ele>
        <time>2026-08-18T11:45:45Z</time>
      </trkpt>
      <trkpt lat="22.496364170576076" lon="113.94723959305406">
        <ele>7.223707599565387</ele>
        <time>2026-08-18T11:45:51Z</time>
      </trkpt>
      <trkpt lat="22.496300463415952" lon="113.94728502786586">
        <ele>6.816136465407908</ele>
        <time>2026-08-18T11:45:54Z</time>
      </trkpt>
      <trkpt lat="22.49602469275051" lon="113.94735623288433">
        <ele>5.880128440447152</ele>
        <time>2026-08-18T11:46:07Z</time>
      </trkpt>
      <trkpt lat="22.495895668369613" lon="113.94739826344116">
        <ele>7.312376239337027</ele>
        <time>2026-08-18T11:46:14Z</time>
      </trkpt>
      <trkpt lat="22.495614292090472" lon="113.94758803076058">
        <ele>7.3355926694348454</ele>
        <time>2026-08-18T11:46:29Z</time>
      </trkpt>
      <trkpt lat="22.495572684060168" lon="113.94764353614102">
        <ele>7.383402046747506</ele>
        <time>2026-08-18T11:46:35Z</time>
      </trkpt>
      <trkpt lat="22.495452039520014" lon="113.94768401939328">
        <ele>6.4756091414019465</ele>
        <time>2026-08-18T11:46:41Z</time>
      </trkpt>
      <trkpt lat="22.49534714931606" lon="113.94775206286441">
        <ele>6.435131338424981</ele>
        <time>2026-08-18T11:46:50Z</time>
      </trkpt>
      <trkpt lat="22.49527155394834" lon="113.94783351793275">
        <ele>6.69360188767314</ele>
        <time>2026-08-18T11:46:56Z</time>
      </trkpt>
      <trkpt lat="22.494976678387044" lon="113.94790791703345">
        <ele>6.485469518229365</ele>
        <time>2026-08-18T11:47:08Z</time>
      </trkpt>
      <trkpt lat="22.494710431057264" lon="113.94796355161075">
        <ele>6.4704463221132755</ele>
        <time>2026-08-18T11:47:20Z</time>
      </trkpt>
      <trkpt lat="22.49439999012647" lon="113.94800970402605">
        <ele>5.469957480207086</ele>
        <time>2026-08-18T11:47:38Z</time>
      </trkpt>
      <trkpt lat="22.494244345920144" lon="113.94802086867871">
        <ele>5.3882224727422</ele>
        <time>2026-08-18T11:47:44Z</time>
      </trkpt>
      <trkpt lat="22.494142751706864" lon="113.94799759568775">
        <ele>5.601097597740591</ele>
        <time>2026-08-18T11:47:50Z</time>
      </trkpt>
      <trkpt lat="22.493858747878342" lon="113.9479795407962">
        <ele>6.333171775564551</ele>
        <time>2026-08-18T11:48:05Z</time>
      </trkpt>
      <trkpt lat="22.49368945068138" lon="113.94793737999404">
        <ele>5.8256305158138275</ele>
        <time>2026-08-18T11:48:13Z</time>
      </trkpt>
      <trkpt lat="22.493611649708196" lon="113.94790033746244">
        <ele>6.425677789375186</ele>
        <time>2026-08-18T11:48:17Z</time>
      </trkpt>
      <trkpt lat="22.49354674186793" lon="113.94789421166494">
        <ele>6.170063559897244</ele>
        <time>2026-08-18T11:48:21Z</time>
      </trkpt>
      <trkpt lat="22.493297014310414" lon="113.94778027428717">
        <ele>6.384458520449698</ele>
        <time>2026-08-18T11:48:36Z</time>
      </trkpt>
      <trkpt lat="22.493226026956034" lon="113.9477672325542">
        <ele>6.981725737452507</ele>
        <time>2026-08-18T11:48:39Z</time>
      </trkpt>
      <trkpt lat="22.492957431675556" lon="113.94760314057812">
        <ele>5.929660563357174</ele>
        <time>2026-08-18T11:48:57Z</time>
      </trkpt>
      <trkpt lat="22.492867564640893" lon="113.94755940081451">
        <ele>6.274123951792717</ele>
        <time>2026-08-18T11:49:03Z</time>
      </trkpt>
      <trkpt lat="22.492579174436134" lon="113.94747642284385">
        <ele>6.798822174780071</ele>
        <time>2026-08-18T11:49:18Z</time>
      </trkpt>
      <trkpt lat="22.492455499224008" lon="113.94743581134446">
        <ele>7.111515862867236</ele>
        <time>2026-08-18T11:49:24Z</time>
      </trkpt>
      <trkpt lat="22.492112055228052" lon="113.94742165779911">
        <ele>6.551494996994734</ele>
        <time>2026-08-18T11:49:42Z</time>
      </trkpt>
      <trkpt lat="22.491869682951382" lon="113.94744316068754">
        <ele>6.450081123970449</ele>
        <time>2026-08-18T11:49:54Z</time>
      </trkpt>
      <trkpt lat="22.49153695389629" lon="113.94752778288287">
        <ele>5.451789738610387</ele>
        <time>2026-08-18T11:50:09Z</time>
      </trkpt>
      <trkpt lat="22.491413641128215" lon="113.94767679136378">
        <ele>4.686204317957163</ele>
        <time>2026-08-18T11:50:24Z</time>
      </trkpt>
      <trkpt lat="22.491349144004342" lon="113.94773189536491">
        <ele>3.5514737060293555</ele>
        <time>2026-08-18T11:50:28Z</time>
      </trkpt>
      <trkpt lat="22.4912930845127" lon="113.94774936002453">
        <ele>2.937995418906212</ele>
        <time>2026-08-18T11:50:32Z</time>
      </trkpt>
      <trkpt lat="22.49109302695736" lon="113.9474494089784">
        <ele>4.092290760949254</ele>
        <time>2026-08-18T11:50:53Z</time>
      </trkpt>
      <trkpt lat="22.490934962398928" lon="113.94721190649422">
        <ele>4.104403064586222</ele>
        <time>2026-08-18T11:51:14Z</time>
      </trkpt>
      <trkpt lat="22.490870547180265" lon="113.94712064511758">
        <ele>3.3565601659938693</ele>
        <time>2026-08-18T11:51:26Z</time>
      </trkpt>
      <trkpt lat="22.4908315106684" lon="113.94708943728125">
        <ele>3.6513579031452537</ele>
        <time>2026-08-18T11:51:29Z</time>
      </trkpt>
      <trkpt lat="22.49079977258468" lon="113.94701461370614">
        <ele>3.355067241936922</ele>
        <time>2026-08-18T11:51:35Z</time>
      </trkpt>
      <trkpt lat="22.49074409722786" lon="113.94693770392165">
        <ele>3.6284490786492825</ele>
        <time>2026-08-18T11:51:38Z</time>
      </trkpt>
      <trkpt lat="22.49067312342318" lon="113.94688341107194">
        <ele>3.5021970625966787</ele>
        <time>2026-08-18T11:51:44Z</time>
      </trkpt>
      <trkpt lat="22.490648825896802" lon="113.9468312319336">
        <ele>3.901761961169541</ele>
        <time>2026-08-18T11:51:47Z</time>
      </trkpt>
      <trkpt lat="22.49057840334124" lon="113.9467941535976">
        <ele>3.7225071657449007</ele>
        <time>2026-08-18T11:51:53Z</time>
      </trkpt>
      <trkpt lat="22.490564708344934" lon="113.94666518807037">
        <ele>3.2614227617159486</ele>
        <time>2026-08-18T11:51:59Z</time>
      </trkpt>
      <trkpt lat="22.490573875615702" lon="113.9465071156333">
        <ele>3.719834191724658</ele>
        <time>2026-08-18T11:52:02Z</time>
      </trkpt>
      <trkpt lat="22.490487104714635" lon="113.94639920223965">
        <ele>4.516284615732729</ele>
        <time>2026-08-18T11:52:05Z</time>
      </trkpt>
      <trkpt lat="22.490372115827675" lon="113.94633913764105">
        <ele>3.8696614606305957</ele>
        <time>2026-08-18T11:52:11Z</time>
      </trkpt>
      <trkpt lat="22.490182536356823" lon="113.94610307314584">
        <ele>6.109455829486251</ele>
        <time>2026-08-18T11:52:31Z</time>
      </trkpt>
      <trkpt lat="22.490065579752443" lon="113.94588203840694">
        <ele>7.118622160516679</ele>
        <time>2026-08-18T11:52:47Z</time>
      </trkpt>
      <trkpt lat="22.4900389261651" lon="113.94577798984473">
        <ele>7.866969609633088</ele>
        <time>2026-08-18T11:52:50Z</time>
      </trkpt>
      <trkpt lat="22.490001472739795" lon="113.94572035113451">
        <ele>8.33253253530711</ele>
        <time>2026-08-18T11:52:53Z</time>
      </trkpt>
      <trkpt lat="22.489959274817313" lon="113.94560540912227">
        <ele>8.509452701546252</ele>
        <time>2026-08-18T11:53:08Z</time>
      </trkpt>
      <trkpt lat="22.4899037776266" lon="113.94555560369142">
        <ele>8.410892298445106</ele>
        <time>2026-08-18T11:53:11Z</time>
      </trkpt>
      <trkpt lat="22.48988606164347" lon="113.9454417433926">
        <ele>7.970521333627403</ele>
        <time>2026-08-18T11:53:17Z</time>
      </trkpt>
      <trkpt lat="22.48981587347685" lon="113.94539767457732">
        <ele>7.086259699426591</ele>
        <time>2026-08-18T11:53:23Z</time>
      </trkpt>
      <trkpt lat="22.489894056591705" lon="113.94543065546713">
        <ele>6.647879694588482</ele>
        <time>2026-08-18T11:53:32Z</time>
      </trkpt>
      <trkpt lat="22.489931141577898" lon="113.94554439853135">
        <ele>7.281439630314708</ele>
        <time>2026-08-18T11:53:41Z</time>
      </trkpt>
      <trkpt lat="22.489929314305655" lon="113.94574263610343">
        <ele>7.7980054942891</ele>
        <time>2026-08-18T11:53:53Z</time>
      </trkpt>
      <trkpt lat="22.489976098482817" lon="113.94580651133039">
        <ele>8.741943360306323</ele>
        <time>2026-08-18T11:53:56Z</time>
      </trkpt>
      <trkpt lat="22.48996812360569" lon="113.9459306616406">
        <ele>7.8790232092142105</ele>
        <time>2026-08-18T11:54:02Z</time>
      </trkpt>
      <trkpt lat="22.49004766139558" lon="113.94611102011174">
        <ele>7.565525956451893</ele>
        <time>2026-08-18T11:54:05Z</time>
      </trkpt>
      <trkpt lat="22.490168997269198" lon="113.94605577467556">
        <ele>7.350061755627394</ele>
        <time>2026-08-18T11:54:08Z</time>
      </trkpt>
      <trkpt lat="22.490360504522883" lon="113.94630500880561">
        <ele>6.338588469661772</ele>
        <time>2026-08-18T11:54:14Z</time>
      </trkpt>
      <trkpt lat="22.490438289963592" lon="113.9463771561526">
        <ele>5.796047681942582</ele>
        <time>2026-08-18T11:54:17Z</time>
      </trkpt>
      <trkpt lat="22.490463674805074" lon="113.94648453724766">
        <ele>5.577831708826125</ele>
        <time>2026-08-18T11:54:20Z</time>
      </trkpt>
      <trkpt lat="22.490525734488727" lon="113.94654005613404">
        <ele>4.970955453813076</ele>
        <time>2026-08-18T11:54:23Z</time>
      </trkpt>
      <trkpt lat="22.490556748031736" lon="113.94665691905003">
        <ele>4.007766088470817</ele>
        <time>2026-08-18T11:54:27Z</time>
      </trkpt>
      <trkpt lat="22.490595203481405" lon="113.94672182632299">
        <ele>4.22122641839087</ele>
        <time>2026-08-18T11:54:30Z</time>
      </trkpt>
      <trkpt lat="22.490606812645687" lon="113.94681649330236">
        <ele>3.5513010462746024</ele>
        <time>2026-08-18T11:54:34Z</time>
      </trkpt>
      <trkpt lat="22.490707305838768" lon="113.94693357807674">
        <ele>3.220861939713359</ele>
        <time>2026-08-18T11:54:41Z</time>
      </trkpt>
      <trkpt lat="22.49078538716235" lon="113.94705757455537">
        <ele>2.8191071897745132</ele>
        <time>2026-08-18T11:54:47Z</time>
      </trkpt>
      <trkpt lat="22.490862580629287" lon="113.94711949400366">
        <ele>3.0742053808644414</ele>
        <time>2026-08-18T11:54:50Z</time>
      </trkpt>
      <trkpt lat="22.490914214238508" lon="113.94719101949867">
        <ele>2.8898155903443694</ele>
        <time>2026-08-18T11:54:53Z</time>
      </trkpt>
      <trkpt lat="22.490935259483646" lon="113.94728380600309">
        <ele>3.4897152511402965</ele>
        <time>2026-08-18T11:54:56Z</time>
      </trkpt>
      <trkpt lat="22.491034731696153" lon="113.9473736211163">
        <ele>3.5348500553518534</ele>
        <time>2026-08-18T11:55:02Z</time>
      </trkpt>
      <trkpt lat="22.49113947702038" lon="113.94756961143594">
        <ele>3.5888612931594253</ele>
        <time>2026-08-18T11:55:11Z</time>
      </trkpt>
      <trkpt lat="22.491201711064093" lon="113.94773584730109">
        <ele>3.4090155120939016</ele>
        <time>2026-08-18T11:55:17Z</time>
      </trkpt>
      <trkpt lat="22.491267364422505" lon="113.94779484819196">
        <ele>3.142361576668918</ele>
        <time>2026-08-18T11:55:20Z</time>
      </trkpt>
      <trkpt lat="22.491318204433203" lon="113.94779008565487">
        <ele>2.7648693844676018</ele>
        <time>2026-08-18T11:55:23Z</time>
      </trkpt>
      <trkpt lat="22.49153107805519" lon="113.94759561668857">
        <ele>3.0469162659719586</ele>
        <time>2026-08-18T11:55:35Z</time>
      </trkpt>
      <trkpt lat="22.491802936899468" lon="113.94748836577426">
        <ele>5.087891433387995</ele>
        <time>2026-08-18T11:55:47Z</time>
      </trkpt>
      <trkpt lat="22.491861531643583" lon="113.94749034033292">
        <ele>5.690336179919541</ele>
        <time>2026-08-18T11:55:50Z</time>
      </trkpt>
      <trkpt lat="22.49192084096911" lon="113.94747008158397">
        <ele>5.289478939957917</ele>
        <time>2026-08-18T11:55:53Z</time>
      </trkpt>
      <trkpt lat="22.4919850188488" lon="113.94746881690556">
        <ele>5.461485748179257</ele>
        <time>2026-08-18T11:55:56Z</time>
      </trkpt>
      <trkpt lat="22.49210691377697" lon="113.94743055158435">
        <ele>6.302555819042027</ele>
        <time>2026-08-18T11:56:02Z</time>
      </trkpt>
      <trkpt lat="22.49231364292422" lon="113.94742398145104">
        <ele>6.757517447695136</ele>
        <time>2026-08-18T11:56:11Z</time>
      </trkpt>
      <trkpt lat="22.49236504822374" lon="113.94743821690119">
        <ele>6.5034893322736025</ele>
        <time>2026-08-18T11:56:14Z</time>
      </trkpt>
      <trkpt lat="22.49239994275146" lon="113.94750504593554">
        <ele>7.429142809472978</ele>
        <time>2026-08-18T11:56:20Z</time>
      </trkpt>
      <trkpt lat="22.492649434917507" lon="113.94755139098007">
        <ele>6.650457758456469</ele>
        <time>2026-08-18T11:56:29Z</time>
      </trkpt>
      <trkpt lat="22.492703197855537" lon="113.94760008124868">
        <ele>6.008780602365732</ele>
        <time>2026-08-18T11:56:33Z</time>
      </trkpt>
      <trkpt lat="22.492833388653143" lon="113.94761880432067">
        <ele>5.9221409019082785</ele>
        <time>2026-08-18T11:56:37Z</time>
      </trkpt>
      <trkpt lat="22.49309540517363" lon="113.94774458894781">
        <ele>5.758802386932075</ele>
        <time>2026-08-18T11:56:49Z</time>
      </trkpt>
      <trkpt lat="22.49324605839581" lon="113.94783816264162">
        <ele>6.287015900015831</ele>
        <time>2026-08-18T11:56:57Z</time>
      </trkpt>
      <trkpt lat="22.493326142196665" lon="113.9478512876666">
        <ele>5.941526727750897</ele>
        <time>2026-08-18T11:57:01Z</time>
      </trkpt>
      <trkpt lat="22.493393645551162" lon="113.94791165082596">
        <ele>5.92394196242094</ele>
        <time>2026-08-18T11:57:05Z</time>
      </trkpt>
      <trkpt lat="22.493695240171263" lon="113.94800078096681">
        <ele>6.107034386135638</ele>
        <time>2026-08-18T11:57:20Z</time>
      </trkpt>
      <trkpt lat="22.4938130383894" lon="113.94798610126811">
        <ele>5.898470475338399</ele>
        <time>2026-08-18T11:57:23Z</time>
      </trkpt>
      <trkpt lat="22.49415312285813" lon="113.94803770844885">
        <ele>6.028226357884705</ele>
        <time>2026-08-18T11:57:35Z</time>
      </trkpt>
      <trkpt lat="22.4942956975994" lon="113.94804961215091">
        <ele>5.634509779512882</ele>
        <time>2026-08-18T11:57:41Z</time>
      </trkpt>
      <trkpt lat="22.494459475601996" lon="113.94802186879116">
        <ele>5.56304416898638</ele>
        <time>2026-08-18T11:57:47Z</time>
      </trkpt>
      <trkpt lat="22.49452453622842" lon="113.94798844343276">
        <ele>5.3393173683434725</ele>
        <time>2026-08-18T11:57:50Z</time>
      </trkpt>
      <trkpt lat="22.494604250137353" lon="113.94798006302224">
        <ele>5.575837476179004</ele>
        <time>2026-08-18T11:57:53Z</time>
      </trkpt>
      <trkpt lat="22.49474976516207" lon="113.94799947773673">
        <ele>5.436822102405131</ele>
        <time>2026-08-18T11:57:59Z</time>
      </trkpt>
      <trkpt lat="22.49499741985671" lon="113.94792693186245">
        <ele>5.828294991515577</ele>
        <time>2026-08-18T11:58:08Z</time>
      </trkpt>
      <trkpt lat="22.49521477402288" lon="113.9478486464057">
        <ele>6.054432190023363</ele>
        <time>2026-08-18T11:58:17Z</time>
      </trkpt>
      <trkpt lat="22.495492261398397" lon="113.94769033910914">
        <ele>6.374499176628888</ele>
        <time>2026-08-18T11:58:29Z</time>
      </trkpt>
      <trkpt lat="22.495808148034346" lon="113.94751922677301">
        <ele>7.040177120827138</ele>
        <time>2026-08-18T11:58:43Z</time>
      </trkpt>
      <trkpt lat="22.496007044573272" lon="113.94740931420456">
        <ele>6.650041885674</ele>
        <time>2026-08-18T11:58:52Z</time>
      </trkpt>
      <trkpt lat="22.49606815874597" lon="113.94741140078868">
        <ele>6.677778816781938</ele>
        <time>2026-08-18T11:58:55Z</time>
      </trkpt>
      <trkpt lat="22.4962404484527" lon="113.94734997213519">
        <ele>5.7017560033127666</ele>
        <time>2026-08-18T11:59:04Z</time>
      </trkpt>
      <trkpt lat="22.49632186655878" lon="113.94728514333097">
        <ele>6.027624332346022</ele>
        <time>2026-08-18T11:59:07Z</time>
      </trkpt>
      <trkpt lat="22.496410081364456" lon="113.94727681107479">
        <ele>5.581720905378461</ele>
        <time>2026-08-18T11:59:10Z</time>
      </trkpt>
      <trkpt lat="22.496552736669738" lon="113.94722928016223">
        <ele>6.486709976568818</ele>
        <time>2026-08-18T11:59:16Z</time>
      </trkpt>
      <trkpt lat="22.496628588871552" lon="113.9472268064278">
        <ele>6.496807783842087</ele>
        <time>2026-08-18T11:59:19Z</time>
      </trkpt>
      <trkpt lat="22.496851807470726" lon="113.94714446561494">
        <ele>6.414594757370651</ele>
        <time>2026-08-18T11:59:28Z</time>
      </trkpt>
      <trkpt lat="22.49714064185385" lon="113.94713616559007">
        <ele>5.986951411701739</ele>
        <time>2026-08-18T11:59:43Z</time>
      </trkpt>
      <trkpt lat="22.497439097259974" lon="113.94711279352451">
        <ele>5.884294207207859</ele>
        <time>2026-08-18T11:59:55Z</time>
      </trkpt>
      <trkpt lat="22.497738460112533" lon="113.94712568503701">
        <ele>6.09058172814548</ele>
        <time>2026-08-18T12:00:07Z</time>
      </trkpt>
      <trkpt lat="22.497825575260055" lon="113.94712805477066">
        <ele>6.30136470682919</ele>
        <time>2026-08-18T12:00:10Z</time>
      </trkpt>
      <trkpt lat="22.498124750935713" lon="113.94719873535084">
        <ele>6.279087076894939</ele>
        <time>2026-08-18T12:00:22Z</time>
      </trkpt>
      <trkpt lat="22.49834181735297" lon="113.9472607853108">
        <ele>5.675588548183441</ele>
        <time>2026-08-18T12:00:31Z</time>
      </trkpt>
      <trkpt lat="22.49853792448905" lon="113.9472630187578">
        <ele>5.232996052131057</ele>
        <time>2026-08-18T12:00:37Z</time>
      </trkpt>
      <trkpt lat="22.49868716379829" lon="113.94734337420681">
        <ele>3.7729680305346847</ele>
        <time>2026-08-18T12:00:43Z</time>
      </trkpt>
      <trkpt lat="22.498753524828725" lon="113.94741049854355">
        <ele>4.682504897937179</ele>
        <time>2026-08-18T12:00:47Z</time>
      </trkpt>
      <trkpt lat="22.498998416509732" lon="113.94755720715358">
        <ele>4.252315170131624</ele>
        <time>2026-08-18T12:01:07Z</time>
      </trkpt>
      <trkpt lat="22.499069400420684" lon="113.94758904819076">
        <ele>4.6711500864475965</ele>
        <time>2026-08-18T12:01:11Z</time>
      </trkpt>
      <trkpt lat="22.499219034840973" lon="113.94771090553553">
        <ele>4.70918404776603</ele>
        <time>2026-08-18T12:01:21Z</time>
      </trkpt>
      <trkpt lat="22.499303373382574" lon="113.94774626011677">
        <ele>4.3348344918340445</ele>
        <time>2026-08-18T12:01:24Z</time>
      </trkpt>
      <trkpt lat="22.499346054429378" lon="113.94780669773104">
        <ele>4.873954366892576</ele>
        <time>2026-08-18T12:01:27Z</time>
      </trkpt>
      <trkpt lat="22.499407982441095" lon="113.94782740230944">
        <ele>4.994502144865692</ele>
        <time>2026-08-18T12:01:30Z</time>
      </trkpt>
      <trkpt lat="22.49951925801826" lon="113.94790677903622">
        <ele>5.469161558896303</ele>
        <time>2026-08-18T12:01:36Z</time>
      </trkpt>
      <trkpt lat="22.499656175326937" lon="113.94794952359216">
        <ele>5.332729825749993</ele>
        <time>2026-08-18T12:01:42Z</time>
      </trkpt>
      <trkpt lat="22.499834431814126" lon="113.94814451914716">
        <ele>6.194003501906991</ele>
        <time>2026-08-18T12:01:57Z</time>
      </trkpt>
      <trkpt lat="22.499975536177836" lon="113.9482179617327">
        <ele>6.661316518671811</ele>
        <time>2026-08-18T12:02:03Z</time>
      </trkpt>
      <trkpt lat="22.500004223173974" lon="113.94826344993248">
        <ele>6.475605309940875</ele>
        <time>2026-08-18T12:02:06Z</time>
      </trkpt>
      <trkpt lat="22.500091096056785" lon="113.94831150125826">
        <ele>6.258099056780338</ele>
        <time>2026-08-18T12:02:09Z</time>
      </trkpt>
      <trkpt lat="22.500111475159063" lon="113.94835541381939">
        <ele>6.430930717848241</ele>
        <time>2026-08-18T12:02:12Z</time>
      </trkpt>
      <trkpt lat="22.500172362825715" lon="113.94840690653133">
        <ele>6.423320280387998</ele>
        <time>2026-08-18T12:02:15Z</time>
      </trkpt>
      <trkpt lat="22.500345435980407" lon="113.948472303685">
        <ele>6.163329639472067</ele>
        <time>2026-08-18T12:02:21Z</time>
      </trkpt>
      <trkpt lat="22.500532426815973" lon="113.94862249047513">
        <ele>6.560748397372663</ele>
        <time>2026-08-18T12:02:30Z</time>
      </trkpt>
      <trkpt lat="22.50061131959663" lon="113.94864342104891">
        <ele>6.202849593944848</ele>
        <time>2026-08-18T12:02:33Z</time>
      </trkpt>
      <trkpt lat="22.500632583152896" lon="113.94871218825371">
        <ele>6.3850339744240046</ele>
        <time>2026-08-18T12:02:36Z</time>
      </trkpt>
      <trkpt lat="22.500915555301702" lon="113.94879945396686">
        <ele>5.659762098453939</ele>
        <time>2026-08-18T12:02:48Z</time>
      </trkpt>
      <trkpt lat="22.50122443134635" lon="113.94888956277543">
        <ele>5.698417531326413</ele>
        <time>2026-08-18T12:02:59Z</time>
      </trkpt>
      <trkpt lat="22.501466305467062" lon="113.94898044416672">
        <ele>6.162839839234948</ele>
        <time>2026-08-18T12:03:15Z</time>
      </trkpt>
      <trkpt lat="22.501531419590844" lon="113.94898787480824">
        <ele>6.523492608219385</ele>
        <time>2026-08-18T12:03:19Z</time>
      </trkpt>
      <trkpt lat="22.501588656535834" lon="113.94896916585935">
        <ele>6.102374880574644</ele>
        <time>2026-08-18T12:03:22Z</time>
      </trkpt>
      <trkpt lat="22.50173142086363" lon="113.94898612876294">
        <ele>6.678052890114486</ele>
        <time>2026-08-18T12:03:31Z</time>
      </trkpt>
      <trkpt lat="22.50178250556368" lon="113.94902464824935">
        <ele>5.527687441557646</ele>
        <time>2026-08-18T12:03:34Z</time>
      </trkpt>
      <trkpt lat="22.501989386201423" lon="113.949075631394">
        <ele>5.229814860038459</ele>
        <time>2026-08-18T12:03:52Z</time>
      </trkpt>
      <trkpt lat="22.502109383889007" lon="113.94913137116497">
        <ele>5.51589725818485</ele>
        <time>2026-08-18T12:03:58Z</time>
      </trkpt>
      <trkpt lat="22.502427065844238" lon="113.94911931209813">
        <ele>5.17490039113909</ele>
        <time>2026-08-18T12:04:10Z</time>
      </trkpt>
      <trkpt lat="22.50255826659821" lon="113.94903251524453">
        <ele>5.523126851767302</ele>
        <time>2026-08-18T12:04:16Z</time>
      </trkpt>
      <trkpt lat="22.50271229459612" lon="113.94898976695598">
        <ele>5.164730395190418</ele>
        <time>2026-08-18T12:04:22Z</time>
      </trkpt>
      <trkpt lat="22.502792601993967" lon="113.94900260434572">
        <ele>5.1710938001051545</ele>
        <time>2026-08-18T12:04:25Z</time>
      </trkpt>
      <trkpt lat="22.50289582989579" lon="113.94896439614377">
        <ele>4.171879740431905</ele>
        <time>2026-08-18T12:04:28Z</time>
      </trkpt>
      <trkpt lat="22.503151123147266" lon="113.94894387033834">
        <ele>3.7653788225725293</ele>
        <time>2026-08-18T12:04:40Z</time>
      </trkpt>
      <trkpt lat="22.50337403132626" lon="113.94888375713099">
        <ele>3.5718319695442915</ele>
        <time>2026-08-18T12:04:49Z</time>
      </trkpt>
      <trkpt lat="22.50351951996869" lon="113.94878359011598">
        <ele>3.3671411955729127</ele>
        <time>2026-08-18T12:04:55Z</time>
      </trkpt>
      <trkpt lat="22.503729825555858" lon="113.94873209202794">
        <ele>3.726426483131945</ele>
        <time>2026-08-18T12:05:02Z</time>
      </trkpt>
      <trkpt lat="22.504040430933482" lon="113.94856993017711">
        <ele>3.294000123627484</ele>
        <time>2026-08-18T12:05:14Z</time>
      </trkpt>
      <trkpt lat="22.504113591873214" lon="113.94849798944252">
        <ele>3.916836017742753</ele>
        <time>2026-08-18T12:05:18Z</time>
      </trkpt>
      <trkpt lat="22.504238053265905" lon="113.94845929476048">
        <ele>2.927100706845522</ele>
        <time>2026-08-18T12:05:24Z</time>
      </trkpt>
      <trkpt lat="22.504317663598496" lon="113.94839914469752">
        <ele>2.8268511006608605</ele>
        <time>2026-08-18T12:05:27Z</time>
      </trkpt>
      <trkpt lat="22.504435388038978" lon="113.94837165326739">
        <ele>3.517706369049847</ele>
        <time>2026-08-18T12:05:33Z</time>
      </trkpt>
      <trkpt lat="22.50450855720853" lon="113.94831853084305">
        <ele>2.5195827446877956</ele>
        <time>2026-08-18T12:05:39Z</time>
      </trkpt>
      <trkpt lat="22.504775702650935" lon="113.94825387825864">
        <ele>5.127248818986118</ele>
        <time>2026-08-18T12:05:57Z</time>
      </trkpt>
      <trkpt lat="22.50502871489266" lon="113.94817468174632">
        <ele>4.088680199347436</ele>
        <time>2026-08-18T12:06:15Z</time>
      </trkpt>
      <trkpt lat="22.505106038419534" lon="113.94812825978545">
        <ele>3.1780322743579745</ele>
        <time>2026-08-18T12:06:18Z</time>
      </trkpt>
      <trkpt lat="22.505185696502416" lon="113.94811214959249">
        <ele>3.95639874227345</ele>
        <time>2026-08-18T12:06:21Z</time>
      </trkpt>
      <trkpt lat="22.50523197419175" lon="113.94808002215645">
        <ele>3.859805980697274</ele>
        <time>2026-08-18T12:06:24Z</time>
      </trkpt>
      <trkpt lat="22.50555429935686" lon="113.94810034960314">
        <ele>5.401801544241607</ele>
        <time>2026-08-18T12:06:36Z</time>
      </trkpt>
      <trkpt lat="22.505778896831334" lon="113.94808214640915">
        <ele>4.506428471766412</ele>
        <time>2026-08-18T12:06:45Z</time>
      </trkpt>
      <trkpt lat="22.505998656860744" lon="113.94809794768227">
        <ele>5.32471511606127</ele>
        <time>2026-08-18T12:06:54Z</time>
      </trkpt>
      <trkpt lat="22.506154128096103" lon="113.94808104563842">
        <ele>5.533568191342056</ele>
        <time>2026-08-18T12:07:00Z</time>
      </trkpt>
      <trkpt lat="22.50630461041314" lon="113.9481608956245">
        <ele>6.066057428717613</ele>
        <time>2026-08-18T12:07:07Z</time>
      </trkpt>
      <trkpt lat="22.506480004746976" lon="113.94818335138542">
        <ele>4.762351796962321</ele>
        <time>2026-08-18T12:07:13Z</time>
      </trkpt>
      <trkpt lat="22.50654955429726" lon="113.94821089417994">
        <ele>5.442669742740691</ele>
        <time>2026-08-18T12:07:16Z</time>
      </trkpt>
      <trkpt lat="22.506609274076627" lon="113.94826350322991">
        <ele>6.2836759919300675</ele>
        <time>2026-08-18T12:07:19Z</time>
      </trkpt>
      <trkpt lat="22.506738320841507" lon="113.94833394575406">
        <ele>5.948902585543692</ele>
        <time>2026-08-18T12:07:25Z</time>
      </trkpt>
      <trkpt lat="22.5068639530881" lon="113.94837420218042">
        <ele>5.875866607762873</ele>
        <time>2026-08-18T12:07:28Z</time>
      </trkpt>
      <trkpt lat="22.506792544046306" lon="113.94842356461002">
        <ele>5.308694859035313</ele>
        <time>2026-08-18T12:07:34Z</time>
      </trkpt>
      <trkpt lat="22.506944340186763" lon="113.94848825557264">
        <ele>5.6846727058291435</ele>
        <time>2026-08-18T12:07:43Z</time>
      </trkpt>
      <trkpt lat="22.50701311500337" lon="113.94858865787421">
        <ele>7.425846022553742</ele>
        <time>2026-08-18T12:07:52Z</time>
      </trkpt>
      <trkpt lat="22.507199875709976" lon="113.9486865739784">
        <ele>8.549832863733172</ele>
        <time>2026-08-18T12:08:01Z</time>
      </trkpt>
      <trkpt lat="22.507259902786334" lon="113.94867125159003">
        <ele>8.5093252658844</ele>
        <time>2026-08-18T12:08:04Z</time>
      </trkpt>
      <trkpt lat="22.507409078188395" lon="113.9488029864003">
        <ele>11.022668424993753</ele>
        <time>2026-08-18T12:08:13Z</time>
      </trkpt>
      <trkpt lat="22.50769313179547" lon="113.94897662976182">
        <ele>7.611462947912514</ele>
        <time>2026-08-18T12:08:25Z</time>
      </trkpt>
      <trkpt lat="22.507805472525312" lon="113.94911232852841">
        <ele>7.284321547485888</ele>
        <time>2026-08-18T12:08:31Z</time>
      </trkpt>
      <trkpt lat="22.508018001506148" lon="113.94932383933335">
        <ele>4.981158839538693</ele>
        <time>2026-08-18T12:08:43Z</time>
      </trkpt>
      <trkpt lat="22.508246545147188" lon="113.94958208862569">
        <ele>5.420177771709859</ele>
        <time>2026-08-18T12:08:58Z</time>
      </trkpt>
      <trkpt lat="22.508424385710185" lon="113.94963142051517">
        <ele>5.320775263942778</ele>
        <time>2026-08-18T12:09:04Z</time>
      </trkpt>
      <trkpt lat="22.508601191277467" lon="113.94977622006299">
        <ele>6.23771922942251</ele>
        <time>2026-08-18T12:09:14Z</time>
      </trkpt>
      <trkpt lat="22.508814838446067" lon="113.94981715449282">
        <ele>4.472785343416035</ele>
        <time>2026-08-18T12:09:22Z</time>
      </trkpt>
      <trkpt lat="22.50899416351544" lon="113.94988223165782">
        <ele>3.7110421312972903</ele>
        <time>2026-08-18T12:09:30Z</time>
      </trkpt>
      <trkpt lat="22.509273704757714" lon="113.94995018209686">
        <ele>4.677720059640706</ele>
        <time>2026-08-18T12:09:43Z</time>
      </trkpt>
      <trkpt lat="22.509541489434294" lon="113.94993159118616">
        <ele>6.862838155589998</ele>
        <time>2026-08-18T12:09:52Z</time>
      </trkpt>
      <trkpt lat="22.509715693681635" lon="113.94989014419697">
        <ele>7.305921854451299</ele>
        <time>2026-08-18T12:09:58Z</time>
      </trkpt>
      <trkpt lat="22.509785030994088" lon="113.94983304465758">
        <ele>7.045103216543794</ele>
        <time>2026-08-18T12:10:01Z</time>
      </trkpt>
      <trkpt lat="22.5097626948714" lon="113.94978562284945">
        <ele>6.77210921049118</ele>
        <time>2026-08-18T12:10:13Z</time>
      </trkpt>
      <trkpt lat="22.509803042912544" lon="113.94982401986307">
        <ele>7.42474102973938</ele>
        <time>2026-08-18T12:10:34Z</time>
      </trkpt>
      <trkpt lat="22.51005876801727" lon="113.94988579573521">
        <ele>6.444477969780564</ele>
        <time>2026-08-18T12:10:46Z</time>
      </trkpt>
      <trkpt lat="22.510045980947158" lon="113.94995134631834">
        <ele>6.521894961595535</ele>
        <time>2026-08-18T12:10:49Z</time>
      </trkpt>
      <trkpt lat="22.510238651342704" lon="113.94991717651503">
        <ele>6.34283285215497</ele>
        <time>2026-08-18T12:11:04Z</time>
      </trkpt>
      <trkpt lat="22.510558969621734" lon="113.94976315902188">
        <ele>5.58633319940418</ele>
        <time>2026-08-18T12:11:21Z</time>
      </trkpt>
      <trkpt lat="22.510624140420983" lon="113.94970511669696">
        <ele>5.688317850232124</ele>
        <time>2026-08-18T12:11:25Z</time>
      </trkpt>
      <trkpt lat="22.510701320533222" lon="113.9497037513031">
        <ele>5.662447000853717</ele>
        <time>2026-08-18T12:11:29Z</time>
      </trkpt>
      <trkpt lat="22.510801246476195" lon="113.94964410006837">
        <ele>6.031116381287575</ele>
        <time>2026-08-18T12:11:33Z</time>
      </trkpt>
      <trkpt lat="22.510893280798445" lon="113.94955068377655">
        <ele>5.691875157877803</ele>
        <time>2026-08-18T12:11:37Z</time>
      </trkpt>
      <trkpt lat="22.5110625787905" lon="113.94951499060495">
        <ele>5.393070535734296</ele>
        <time>2026-08-18T12:11:45Z</time>
      </trkpt>
      <trkpt lat="22.5112067770159" lon="113.94943026839276">
        <ele>5.81041144579649</ele>
        <time>2026-08-18T12:11:53Z</time>
      </trkpt>
      <trkpt lat="22.511278170756032" lon="113.94933858296125">
        <ele>5.496239257976413</ele>
        <time>2026-08-18T12:11:57Z</time>
      </trkpt>
      <trkpt lat="22.511324939370795" lon="113.94932865316572">
        <ele>6.519138482399285</ele>
        <time>2026-08-18T12:12:00Z</time>
      </trkpt>
      <trkpt lat="22.511535960900222" lon="113.9491136861353">
        <ele>6.7966294046491385</ele>
        <time>2026-08-18T12:12:12Z</time>
      </trkpt>
      <trkpt lat="22.51157345772789" lon="113.94908495136407">
        <ele>6.846709197387099</ele>
        <time>2026-08-18T12:12:15Z</time>
      </trkpt>
      <trkpt lat="22.51175963666582" lon="113.94881968235585">
        <ele>6.7962102219462395</ele>
        <time>2026-08-18T12:12:27Z</time>
      </trkpt>
      <trkpt lat="22.511788926101264" lon="113.9487579386341">
        <ele>7.852469144389033</ele>
        <time>2026-08-18T12:12:30Z</time>
      </trkpt>
      <trkpt lat="22.511859367626144" lon="113.94870751798233">
        <ele>7.618989701382816</ele>
        <time>2026-08-18T12:12:33Z</time>
      </trkpt>
      <trkpt lat="22.51187808998109" lon="113.94862393337901">
        <ele>7.582278393208981</ele>
        <time>2026-08-18T12:12:36Z</time>
      </trkpt>
      <trkpt lat="22.511925180621407" lon="113.9485896714284">
        <ele>8.292923275381327</ele>
        <time>2026-08-18T12:12:39Z</time>
      </trkpt>
      <trkpt lat="22.511961190636367" lon="113.9485221694632">
        <ele>8.67596030421555</ele>
        <time>2026-08-18T12:12:42Z</time>
      </trkpt>
      <trkpt lat="22.512000234777855" lon="113.94849060452368">
        <ele>8.208062226884067</ele>
        <time>2026-08-18T12:12:45Z</time>
      </trkpt>
      <trkpt lat="22.51202366778463" lon="113.9484446668956">
        <ele>8.777521444484591</ele>
        <time>2026-08-18T12:12:48Z</time>
      </trkpt>
      <trkpt lat="22.51203022541671" lon="113.9483836534773">
        <ele>7.96067672315985</ele>
        <time>2026-08-18T12:12:54Z</time>
      </trkpt>
      <trkpt lat="22.512012101922025" lon="113.94833714744777">
        <ele>8.302253578789532</ele>
        <time>2026-08-18T12:13:00Z</time>
      </trkpt>
      <trkpt lat="22.512005171450543" lon="113.94822758329323">
        <ele>7.935205555520952</ele>
        <time>2026-08-18T12:13:06Z</time>
      </trkpt>
      <trkpt lat="22.512057888973406" lon="113.94802733844622">
        <ele>7.55524399317801</ele>
        <time>2026-08-18T12:13:18Z</time>
      </trkpt>
      <trkpt lat="22.51213176709648" lon="113.94798253032735">
        <ele>7.488684304989874</ele>
        <time>2026-08-18T12:13:30Z</time>
      </trkpt>
      <trkpt lat="22.512174247407444" lon="113.94778321175681">
        <ele>8.290491871535778</ele>
        <time>2026-08-18T12:13:42Z</time>
      </trkpt>
      <trkpt lat="22.512210257136903" lon="113.94771298579145">
        <ele>8.530713910236955</ele>
        <time>2026-08-18T12:13:50Z</time>
      </trkpt>
      <trkpt lat="22.512258616588927" lon="113.9473671315238">
        <ele>9.321059507317841</ele>
        <time>2026-08-18T12:14:11Z</time>
      </trkpt>
      <trkpt lat="22.51230101551831" lon="113.94725694237212">
        <ele>8.93352815322578</ele>
        <time>2026-08-18T12:14:17Z</time>
      </trkpt>
      <trkpt lat="22.51230254885155" lon="113.94690931193537">
        <ele>9.592844165861607</ele>
        <time>2026-08-18T12:14:26Z</time>
      </trkpt>
      <trkpt lat="22.512347103964988" lon="113.9467343213923">
        <ele>9.048195403069258</ele>
        <time>2026-08-18T12:14:29Z</time>
      </trkpt>
      <trkpt lat="22.51229485495515" lon="113.94665798076177">
        <ele>10.02947742305696</ele>
        <time>2026-08-18T12:14:32Z</time>
      </trkpt>
      <trkpt lat="22.51229445216597" lon="113.94658099726287">
        <ele>9.568959073163569</ele>
        <time>2026-08-18T12:14:35Z</time>
      </trkpt>
      <trkpt lat="22.512245700418514" lon="113.94648608788313">
        <ele>10.017298441380262</ele>
        <time>2026-08-18T12:14:38Z</time>
      </trkpt>
      <trkpt lat="22.51225975159157" lon="113.94640530472579">
        <ele>10.206417229026556</ele>
        <time>2026-08-18T12:14:44Z</time>
      </trkpt>
      <trkpt lat="22.512240030813466" lon="113.94630623065297">
        <ele>10.16473073605448</ele>
        <time>2026-08-18T12:14:50Z</time>
      </trkpt>
      <trkpt lat="22.512156170217594" lon="113.94625807382549">
        <ele>10.343554915860295</ele>
        <time>2026-08-18T12:14:56Z</time>
      </trkpt>
      <trkpt lat="22.512102569459056" lon="113.94619795139107">
        <ele>10.778162829577923</ele>
        <time>2026-08-18T12:14:59Z</time>
      </trkpt>
      <trkpt lat="22.51209153485232" lon="113.94612847755971">
        <ele>9.610998524352908</ele>
        <time>2026-08-18T12:15:05Z</time>
      </trkpt>
      <trkpt lat="22.51204613124948" lon="113.94602290231823">
        <ele>9.365120559930801</ele>
        <time>2026-08-18T12:15:11Z</time>
      </trkpt>
      <trkpt lat="22.511964541854873" lon="113.94600074273946">
        <ele>8.879134569317102</ele>
        <time>2026-08-18T12:15:14Z</time>
      </trkpt>
      <trkpt lat="22.511914219788462" lon="113.94593309486127">
        <ele>9.723758792504668</ele>
        <time>2026-08-18T12:15:20Z</time>
      </trkpt>
      <trkpt lat="22.511790092447246" lon="113.94586820785314">
        <ele>9.961358840577304</ele>
        <time>2026-08-18T12:15:30Z</time>
      </trkpt>
      <trkpt lat="22.51179075339696" lon="113.94581919224007">
        <ele>9.001801190897822</ele>
        <time>2026-08-18T12:15:33Z</time>
      </trkpt>
      <trkpt lat="22.51154556512977" lon="113.94565931326356">
        <ele>8.839292005635798</ele>
        <time>2026-08-18T12:15:48Z</time>
      </trkpt>
      <trkpt lat="22.511467812516866" lon="113.94560140838391">
        <ele>9.8191579580307</ele>
        <time>2026-08-18T12:15:51Z</time>
      </trkpt>
      <trkpt lat="22.51138290528362" lon="113.9455732194121">
        <ele>9.717589705251157</ele>
        <time>2026-08-18T12:15:54Z</time>
      </trkpt>
      <trkpt lat="22.511184790995387" lon="113.94557997712747">
        <ele>9.043515448458493</ele>
        <time>2026-08-18T12:16:03Z</time>
      </trkpt>
      <trkpt lat="22.510984943143875" lon="113.94554430995873">
        <ele>9.485351126641035</ele>
        <time>2026-08-18T12:16:09Z</time>
      </trkpt>
      <trkpt lat="22.51088388012382" lon="113.94550228573061">
        <ele>9.653399779461324</ele>
        <time>2026-08-18T12:16:12Z</time>
      </trkpt>
      <trkpt lat="22.510777783245988" lon="113.94548469440761">
        <ele>9.428541305474937</ele>
        <time>2026-08-18T12:16:15Z</time>
      </trkpt>
      <trkpt lat="22.510665962511847" lon="113.94549707299979">
        <ele>9.165927990339696</ele>
        <time>2026-08-18T12:16:18Z</time>
      </trkpt>
      <trkpt lat="22.51049108706868" lon="113.94546406598346">
        <ele>9.860319538973272</ele>
        <time>2026-08-18T12:16:27Z</time>
      </trkpt>
      <trkpt lat="22.510389036343664" lon="113.94547381139833">
        <ele>9.060522398911417</ele>
        <time>2026-08-18T12:16:31Z</time>
      </trkpt>
      <trkpt lat="22.510367153463974" lon="113.9454294728623">
        <ele>8.649206168018281</ele>
        <time>2026-08-18T12:16:34Z</time>
      </trkpt>
      <trkpt lat="22.51014935132943" lon="113.94530202422742">
        <ele>8.469036173075438</ele>
        <time>2026-08-18T12:16:43Z</time>
      </trkpt>
      <trkpt lat="22.510107888455604" lon="113.94524278040691">
        <ele>7.846643107943237</ele>
        <time>2026-08-18T12:16:46Z</time>
      </trkpt>
      <trkpt lat="22.51007244855612" lon="113.94511120657913">
        <ele>7.183661908842623</ele>
        <time>2026-08-18T12:16:49Z</time>
      </trkpt>
      <trkpt lat="22.510112134830063" lon="113.94500744979014">
        <ele>6.80772431474179</ele>
        <time>2026-08-18T12:16:52Z</time>
      </trkpt>
      <trkpt lat="22.510117830368777" lon="113.94492244927302">
        <ele>7.49406648054719</ele>
        <time>2026-08-18T12:16:55Z</time>
      </trkpt>
      <trkpt lat="22.51013899812219" lon="113.94486457252879">
        <ele>7.587714394554496</ele>
        <time>2026-08-18T12:16:58Z</time>
      </trkpt>
      <trkpt lat="22.510164429526284" lon="113.9446044209036">
        <ele>7.554582292214036</ele>
        <time>2026-08-18T12:17:10Z</time>
      </trkpt>
      <trkpt lat="22.510185588541617" lon="113.9445287459449">
        <ele>7.5308220675215125</ele>
        <time>2026-08-18T12:17:13Z</time>
      </trkpt>
      <trkpt lat="22.51018094800457" lon="113.94428325498497">
        <ele>8.147219941951334</ele>
        <time>2026-08-18T12:17:22Z</time>
      </trkpt>
      <trkpt lat="22.510138438327452" lon="113.94395961526696">
        <ele>7.9747862704098225</ele>
        <time>2026-08-18T12:17:31Z</time>
      </trkpt>
      <trkpt lat="22.509981768827785" lon="113.94370439832814">
        <ele>7.901447317562997</ele>
        <time>2026-08-18T12:17:38Z</time>
      </trkpt>
      <trkpt lat="22.509942553150356" lon="113.94361694941858">
        <ele>8.228569530881941</ele>
        <time>2026-08-18T12:17:41Z</time>
      </trkpt>
      <trkpt lat="22.509740256328765" lon="113.94342652228426">
        <ele>7.339408219791949</ele>
        <time>2026-08-18T12:17:50Z</time>
      </trkpt>
      <trkpt lat="22.509639810457514" lon="113.94309198917092">
        <ele>5.812971694394946</ele>
        <time>2026-08-18T12:18:02Z</time>
      </trkpt>
      <trkpt lat="22.509650736667542" lon="113.94293517355072">
        <ele>6.178916030563414</ele>
        <time>2026-08-18T12:18:08Z</time>
      </trkpt>
      <trkpt lat="22.50960939652796" lon="113.94290645549091">
        <ele>5.843190616928041</ele>
        <time>2026-08-18T12:18:17Z</time>
      </trkpt>
      <trkpt lat="22.509610466754005" lon="113.94279593087239">
        <ele>6.011750425212085</ele>
        <time>2026-08-18T12:18:20Z</time>
      </trkpt>
      <trkpt lat="22.509560169779636" lon="113.94253264959424">
        <ele>4.5927088633179665</ele>
        <time>2026-08-18T12:18:26Z</time>
      </trkpt>
      <trkpt lat="22.50962493489562" lon="113.94219221668045">
        <ele>4.113749321550131</ele>
        <time>2026-08-18T12:18:35Z</time>
      </trkpt>
      <trkpt lat="22.50972579440805" lon="113.94188780203983">
        <ele>4.845307764597237</ele>
        <time>2026-08-18T12:18:44Z</time>
      </trkpt>
      <trkpt lat="22.509783541815416" lon="113.94172147973015">
        <ele>4.92263113334775</ele>
        <time>2026-08-18T12:18:50Z</time>
      </trkpt>
      <trkpt lat="22.50977757509048" lon="113.94163162896027">
        <ele>5.190013164654374</ele>
        <time>2026-08-18T12:18:53Z</time>
      </trkpt>
      <trkpt lat="22.509793009734306" lon="113.94154936465878">
        <ele>4.556242257356644</ele>
        <time>2026-08-18T12:18:56Z</time>
      </trkpt>
      <trkpt lat="22.50978721970682" lon="113.94147265583793">
        <ele>4.544154992327094</ele>
        <time>2026-08-18T12:18:59Z</time>
      </trkpt>
      <trkpt lat="22.50981037376246" lon="113.94127091327564">
        <ele>4.983752299100161</ele>
        <time>2026-08-18T12:19:05Z</time>
      </trkpt>
      <trkpt lat="22.509807332771842" lon="113.94101459779704">
        <ele>7.88799118809402</ele>
        <time>2026-08-18T12:19:14Z</time>
      </trkpt>
      <trkpt lat="22.50981785806562" lon="113.9408207251521">
        <ele>8.533795046620071</ele>
        <time>2026-08-18T12:19:20Z</time>
      </trkpt>
      <trkpt lat="22.50994465929213" lon="113.9405085262558">
        <ele>9.408571141771972</ele>
        <time>2026-08-18T12:19:32Z</time>
      </trkpt>
      <trkpt lat="22.510044435497143" lon="113.94034694478555">
        <ele>8.950287602841854</ele>
        <time>2026-08-18T12:19:39Z</time>
      </trkpt>
      <trkpt lat="22.51011745512356" lon="113.94029121754987">
        <ele>8.333247695118189</ele>
        <time>2026-08-18T12:19:43Z</time>
      </trkpt>
      <trkpt lat="22.510265283402532" lon="113.94012867030624">
        <ele>8.49525742419064</ele>
        <time>2026-08-18T12:19:50Z</time>
      </trkpt>
      <trkpt lat="22.510355404105116" lon="113.94010356469444">
        <ele>9.417828942649066</ele>
        <time>2026-08-18T12:19:53Z</time>
      </trkpt>
      <trkpt lat="22.51054243043534" lon="113.93998855497418">
        <ele>9.752602911554277</ele>
        <time>2026-08-18T12:19:59Z</time>
      </trkpt>
      <trkpt lat="22.510708754419518" lon="113.93993180354967">
        <ele>8.087392412126064</ele>
        <time>2026-08-18T12:20:05Z</time>
      </trkpt>
      <trkpt lat="22.51081315185766" lon="113.939950519937">
        <ele>9.477368792518973</ele>
        <time>2026-08-18T12:20:08Z</time>
      </trkpt>
      <trkpt lat="22.511043047909997" lon="113.93992437671601">
        <ele>9.58887342363596</ele>
        <time>2026-08-18T12:20:17Z</time>
      </trkpt>
      <trkpt lat="22.511196015877935" lon="113.93995447558483">
        <ele>9.394868578761816</ele>
        <time>2026-08-18T12:20:23Z</time>
      </trkpt>
      <trkpt lat="22.51131257924341" lon="113.93989866522594">
        <ele>11.056356285698712</ele>
        <time>2026-08-18T12:20:29Z</time>
      </trkpt>
      <trkpt lat="22.51134686474617" lon="113.9398417826502">
        <ele>13.85259940288961</ele>
        <time>2026-08-18T12:20:32Z</time>
      </trkpt>
      <trkpt lat="22.511358972035627" lon="113.93978961658286">
        <ele>12.456469988450408</ele>
        <time>2026-08-18T12:20:35Z</time>
      </trkpt>
      <trkpt lat="22.511227511951095" lon="113.939795833766">
        <ele>12.941206186078489</ele>
        <time>2026-08-18T12:20:56Z</time>
      </trkpt>
      <trkpt lat="22.51117119382132" lon="113.93980991176603">
        <ele>12.255491089075804</ele>
        <time>2026-08-18T12:21:20Z</time>
      </trkpt>
      <trkpt lat="22.51119953746983" lon="113.93976196466113">
        <ele>11.501577399671078</ele>
        <time>2026-08-18T12:21:29Z</time>
      </trkpt>
      <trkpt lat="22.511126845858755" lon="113.93972126601506">
        <ele>9.823134799487889</ele>
        <time>2026-08-18T12:21:45Z</time>
      </trkpt>
      <trkpt lat="22.51107025498792" lon="113.9397337372892">
        <ele>9.289961787872016</ele>
        <time>2026-08-18T12:21:48Z</time>
      </trkpt>
      <trkpt lat="22.511210839265196" lon="113.93974497117232">
        <ele>6.889314420521259</ele>
        <time>2026-08-18T12:22:49Z</time>
      </trkpt>
      <trkpt lat="22.511255181932324" lon="113.9397295438751">
        <ele>6.404129881411791</ele>
        <time>2026-08-18T12:22:55Z</time>
      </trkpt>
      <trkpt lat="22.51129065195375" lon="113.93969791046037">
        <ele>7.286494235508144</ele>
        <time>2026-08-18T12:23:16Z</time>
      </trkpt>
      <trkpt lat="22.511355242379235" lon="113.93973609251043">
        <ele>7.239889718592167</ele>
        <time>2026-08-18T12:23:19Z</time>
      </trkpt>
      <trkpt lat="22.511322012242804" lon="113.93977259146703">
        <ele>7.365552281960845</ele>
        <time>2026-08-18T12:23:37Z</time>
      </trkpt>
      <trkpt lat="22.511310195892605" lon="113.93971251511256">
        <ele>6.955672241747379</ele>
        <time>2026-08-18T12:23:53Z</time>
      </trkpt>
      <trkpt lat="22.51131745500719" lon="113.93964341537189">
        <ele>7.265414972789586</ele>
        <time>2026-08-18T12:24:16Z</time>
      </trkpt>
      <trkpt lat="22.511226583066005" lon="113.93967956988392">
        <ele>5.938231850974262</ele>
        <time>2026-08-18T12:24:34Z</time>
      </trkpt>
      <trkpt lat="22.51128066894011" lon="113.93965175600981">
        <ele>5.862543785944581</ele>
        <time>2026-08-18T12:25:04Z</time>
      </trkpt>
      <trkpt lat="22.511375245202483" lon="113.93969948876958">
        <ele>4.834856833331287</ele>
        <time>2026-08-18T12:25:10Z</time>
      </trkpt>
      <trkpt lat="22.511371560371536" lon="113.93977359995552">
        <ele>4.703705573454499</ele>
        <time>2026-08-18T12:25:13Z</time>
      </trkpt>
      <trkpt lat="22.511334498544127" lon="113.93972404288752">
        <ele>4.25649453047663</ele>
        <time>2026-08-18T12:26:07Z</time>
      </trkpt>
      <trkpt lat="22.511331058323737" lon="113.93966622689626">
        <ele>3.8066940009593964</ele>
        <time>2026-08-18T12:26:43Z</time>
      </trkpt>
      <trkpt lat="22.51088069923205" lon="113.93981337545196">
        <ele>18.25191859807819</ele>
        <time>2026-08-18T12:27:16Z</time>
      </trkpt>
      <trkpt lat="22.510849884108293" lon="113.93987245561974">
        <ele>18.26186732761562</ele>
        <time>2026-08-18T12:27:19Z</time>
      </trkpt>
      <trkpt lat="22.511345508777953" lon="113.93964693532139">
        <ele>4.2849698811769485</ele>
        <time>2026-08-18T12:27:28Z</time>
      </trkpt>
      <trkpt lat="22.511345856355447" lon="113.93959241915124">
        <ele>3.9630670165643096</ele>
        <time>2026-08-18T12:27:37Z</time>
      </trkpt>
      <trkpt lat="22.511233095128922" lon="113.93971432187256">
        <ele>16.474452775903046</ele>
        <time>2026-08-18T12:28:01Z</time>
      </trkpt>
      <trkpt lat="22.511311911207702" lon="113.93963450075209">
        <ele>3.7177426302805543</ele>
        <time>2026-08-18T12:28:05Z</time>
      </trkpt>
      <trkpt lat="22.511220010942726" lon="113.93967323001998">
        <ele>1.7104481300339103</ele>
        <time>2026-08-18T12:28:24Z</time>
      </trkpt>
      <trkpt lat="22.511295728401013" lon="113.93963825474279">
        <ele>3.28995892778039</ele>
        <time>2026-08-18T12:29:30Z</time>
      </trkpt>
      <trkpt lat="22.511392858974126" lon="113.9397149113488">
        <ele>3.215872802771628</ele>
        <time>2026-08-18T12:30:02Z</time>
      </trkpt>
      <trkpt lat="22.511415253135315" lon="113.93975837748285">
        <ele>4.2146514896303415</ele>
        <time>2026-08-18T12:30:29Z</time>
      </trkpt>
      <trkpt lat="22.51126180350644" lon="113.9397765673834">
        <ele>1.8951178677380085</ele>
        <time>2026-08-18T12:30:47Z</time>
      </trkpt>
      <trkpt lat="22.511321869927578" lon="113.93977043324203">
        <ele>2.718997665680945</ele>
        <time>2026-08-18T12:31:23Z</time>
      </trkpt>
      <trkpt lat="22.51129338288736" lon="113.93971203130654">
        <ele>2.734640101902187</ele>
        <time>2026-08-18T12:31:50Z</time>
      </trkpt>
      <trkpt lat="22.51124802890629" lon="113.93972655884099">
        <ele>0.6942880842834711</ele>
        <time>2026-08-18T12:32:08Z</time>
      </trkpt>
      <trkpt lat="22.511361378760895" lon="113.93972820329171">
        <ele>-1.016192751005292</ele>
        <time>2026-08-18T12:32:18Z</time>
      </trkpt>
      <trkpt lat="22.51136636287372" lon="113.93966699022846">
        <ele>-0.48931506369262934</ele>
        <time>2026-08-18T12:32:32Z</time>
      </trkpt>
      <trkpt lat="22.511423747854156" lon="113.93968827682394">
        <ele>-0.3821333674713969</ele>
        <time>2026-08-18T12:32:46Z</time>
      </trkpt>
      <trkpt lat="22.511318364869247" lon="113.93967258049173">
        <ele>-1.3558493489399552</ele>
        <time>2026-08-18T12:33:34Z</time>
      </trkpt>
      <trkpt lat="22.511318364869247" lon="113.93967258049173">
        <ele>-1.3558493489399552</ele>
        <time>2026-08-18T12:33:36Z</time>
      </trkpt>
    </trkseg>
  </trk>
</gpx>