<?xml version="1.0" encoding="UTF-8"?>
<gpx xmlns="http://www.topografix.com/GPX/1/1" xmlns:gpxtpx="http://www.garmin.com/xmlschemas/TrackPointExtension/v1" xmlns:xsi="http://www.w3.org/2001/XMLSchema-instance" xsi:schemaLocation="http://www.topografix.com/GPX/1/1 http://www.topografix.com/GPX/1/1/gpx.xsd" version="1.1" creator="gpx.py -- https://github.com/tkrajina/gpxpy">
  <trk>
    <name>gpx from keep</name>
    <type>Run</type>
    <trkseg>
      <trkpt lat="22.48330829072122" lon="113.93093270366509">
        <ele>4.5763514041900635</ele>
        <time>2026-09-22T14:36:06Z</time>
      </trkpt>
      <trkpt lat="22.483304796206188" lon="113.93117022599775">
        <ele>7.0180323123931885</ele>
        <time>2026-09-22T14:36:14Z</time>
      </trkpt>
      <trkpt lat="22.483434611260066" lon="113.9312654835036">
        <ele>12.249996299855411</ele>
        <time>2026-09-22T14:36:22Z</time>
      </trkpt>
      <trkpt lat="22.48349205889247" lon="113.93134382245879">
        <ele>16.305630028247833</ele>
        <time>2026-09-22T14:36:26Z</time>
      </trkpt>
      <trkpt lat="22.4835020013038" lon="113.93142301710829">
        <ele>13.094204270280898</ele>
        <time>2026-09-22T14:36:29Z</time>
      </trkpt>
      <trkpt lat="22.483359519927074" lon="113.93170864577327">
        <ele>6.352495329454541</ele>
        <time>2026-09-22T14:36:38Z</time>
      </trkpt>
      <trkpt lat="22.483328742797408" lon="113.93184886838904">
        <ele>6.688575871288776</ele>
        <time>2026-09-22T14:36:44Z</time>
      </trkpt>
      <trkpt lat="22.48323144682557" lon="113.9321214109269">
        <ele>5.21296279784292</ele>
        <time>2026-09-22T14:36:59Z</time>
      </trkpt>
      <trkpt lat="22.483186256915538" lon="113.93226548506233">
        <ele>3.491606586612761</ele>
        <time>2026-09-22T14:37:08Z</time>
      </trkpt>
      <trkpt lat="22.483153232714056" lon="113.93232404592982">
        <ele>3.737260825932026</ele>
        <time>2026-09-22T14:37:11Z</time>
      </trkpt>
      <trkpt lat="22.483167069820325" lon="113.93245235678742">
        <ele>3.1098720394074917</ele>
        <time>2026-09-22T14:37:17Z</time>
      </trkpt>
      <trkpt lat="22.48325547908211" lon="113.93253454128426">
        <ele>1.888811705633998</ele>
        <time>2026-09-22T14:37:23Z</time>
      </trkpt>
      <trkpt lat="22.483326694671575" lon="113.93256945796566">
        <ele>2.09196250513196</ele>
        <time>2026-09-22T14:37:26Z</time>
      </trkpt>
      <trkpt lat="22.483444436081815" lon="113.93258118122388">
        <ele>2.837595973163843</ele>
        <time>2026-09-22T14:37:32Z</time>
      </trkpt>
      <trkpt lat="22.483699645989198" lon="113.93266685305538">
        <ele>3.486667321063578</ele>
        <time>2026-09-22T14:37:44Z</time>
      </trkpt>
      <trkpt lat="22.483983261002628" lon="113.93258383491452">
        <ele>4.6289691384881735</ele>
        <time>2026-09-22T14:37:56Z</time>
      </trkpt>
      <trkpt lat="22.4841310800924" lon="113.93259340277423">
        <ele>4.762561108916998</ele>
        <time>2026-09-22T14:38:02Z</time>
      </trkpt>
      <trkpt lat="22.484157964623943" lon="113.93264036597957">
        <ele>5.06452480237931</ele>
        <time>2026-09-22T14:38:08Z</time>
      </trkpt>
      <trkpt lat="22.484220497396397" lon="113.93263557617651">
        <ele>5.09843111410737</ele>
        <time>2026-09-22T14:38:11Z</time>
      </trkpt>
      <trkpt lat="22.48438427938162" lon="113.93281388642589">
        <ele>4.225822563283145</ele>
        <time>2026-09-22T14:38:21Z</time>
      </trkpt>
      <trkpt lat="22.4845295095186" lon="113.93308001435274">
        <ele>5.872239428572357</ele>
        <time>2026-09-22T14:38:30Z</time>
      </trkpt>
      <trkpt lat="22.484634603747583" lon="113.93312020365373">
        <ele>6.201653094962239</ele>
        <time>2026-09-22T14:38:33Z</time>
      </trkpt>
      <trkpt lat="22.4846725496837" lon="113.93318671055147">
        <ele>6.194133177399635</ele>
        <time>2026-09-22T14:38:36Z</time>
      </trkpt>
      <trkpt lat="22.484681007665902" lon="113.9333182596144">
        <ele>5.562895469367504</ele>
        <time>2026-09-22T14:38:39Z</time>
      </trkpt>
      <trkpt lat="22.484799725627468" lon="113.93362491028174">
        <ele>4.626476677134633</ele>
        <time>2026-09-22T14:38:54Z</time>
      </trkpt>
      <trkpt lat="22.484865936989852" lon="113.9337483724769">
        <ele>5.534805744886398</ele>
        <time>2026-09-22T14:39:00Z</time>
      </trkpt>
      <trkpt lat="22.484954131930618" lon="113.93403455660523">
        <ele>4.604822289198637</ele>
        <time>2026-09-22T14:39:12Z</time>
      </trkpt>
      <trkpt lat="22.484978812073642" lon="113.93425084342059">
        <ele>4.926614708267152</ele>
        <time>2026-09-22T14:39:21Z</time>
      </trkpt>
      <trkpt lat="22.484954706659945" lon="113.9344344345043">
        <ele>4.296251350082457</ele>
        <time>2026-09-22T14:39:30Z</time>
      </trkpt>
      <trkpt lat="22.484928835816543" lon="113.93449655395362">
        <ele>4.585502594709396</ele>
        <time>2026-09-22T14:39:33Z</time>
      </trkpt>
      <trkpt lat="22.48491479568978" lon="113.93467407219593">
        <ele>3.57830548286438</ele>
        <time>2026-09-22T14:39:39Z</time>
      </trkpt>
      <trkpt lat="22.48489511526883" lon="113.93472421831702">
        <ele>3.9600618509575725</ele>
        <time>2026-09-22T14:39:42Z</time>
      </trkpt>
      <trkpt lat="22.48477744297573" lon="113.93486492982132">
        <ele>3.1639490267261863</ele>
        <time>2026-09-22T14:39:51Z</time>
      </trkpt>
      <trkpt lat="22.48472053832456" lon="113.93499605371143">
        <ele>3.1555719412863255</ele>
        <time>2026-09-22T14:39:57Z</time>
      </trkpt>
      <trkpt lat="22.48464990066396" lon="113.93510181799009">
        <ele>2.474584682844579</ele>
        <time>2026-09-22T14:40:03Z</time>
      </trkpt>
      <trkpt lat="22.484502462697733" lon="113.93524963603171">
        <ele>2.6118421563878655</ele>
        <time>2026-09-22T14:40:12Z</time>
      </trkpt>
      <trkpt lat="22.48440959902411" lon="113.93536789812055">
        <ele>3.70848142914474</ele>
        <time>2026-09-22T14:40:18Z</time>
      </trkpt>
      <trkpt lat="22.484340903259834" lon="113.93550406134473">
        <ele>3.845997551456094</ele>
        <time>2026-09-22T14:40:25Z</time>
      </trkpt>
      <trkpt lat="22.48425618892585" lon="113.93562411593464">
        <ele>3.3213347773998976</ele>
        <time>2026-09-22T14:40:31Z</time>
      </trkpt>
      <trkpt lat="22.484206785145588" lon="113.9356509576351">
        <ele>3.289110586978495</ele>
        <time>2026-09-22T14:40:34Z</time>
      </trkpt>
      <trkpt lat="22.484128596529033" lon="113.93577757179258">
        <ele>3.548084537498653</ele>
        <time>2026-09-22T14:40:40Z</time>
      </trkpt>
      <trkpt lat="22.484078040167173" lon="113.93583137562207">
        <ele>3.390382750891149</ele>
        <time>2026-09-22T14:40:43Z</time>
      </trkpt>
      <trkpt lat="22.48405466153294" lon="113.9359139766907">
        <ele>2.7144684037193656</ele>
        <time>2026-09-22T14:40:46Z</time>
      </trkpt>
      <trkpt lat="22.483965627855195" lon="113.93604228106099">
        <ele>3.6599742751568556</ele>
        <time>2026-09-22T14:40:52Z</time>
      </trkpt>
      <trkpt lat="22.483870032884315" lon="113.93615161059364">
        <ele>3.178705118596554</ele>
        <time>2026-09-22T14:40:58Z</time>
      </trkpt>
      <trkpt lat="22.48385732881949" lon="113.93621347137655">
        <ele>2.7628377322107553</ele>
        <time>2026-09-22T14:41:01Z</time>
      </trkpt>
      <trkpt lat="22.48378334487679" lon="113.93633776533817">
        <ele>2.791769927367568</ele>
        <time>2026-09-22T14:41:07Z</time>
      </trkpt>
      <trkpt lat="22.483640659190627" lon="113.9365150362882">
        <ele>2.0143990591168404</ele>
        <time>2026-09-22T14:41:16Z</time>
      </trkpt>
      <trkpt lat="22.483608814316156" lon="113.93658193212914">
        <ele>1.6442895587533712</ele>
        <time>2026-09-22T14:41:19Z</time>
      </trkpt>
      <trkpt lat="22.483543381979626" lon="113.9366094472707">
        <ele>2.526012654416263</ele>
        <time>2026-09-22T14:41:25Z</time>
      </trkpt>
      <trkpt lat="22.48342715125063" lon="113.93685946378889">
        <ele>2.2143169371411204</ele>
        <time>2026-09-22T14:41:37Z</time>
      </trkpt>
      <trkpt lat="22.483450443090533" lon="113.93698101462171">
        <ele>2.1435945546254516</ele>
        <time>2026-09-22T14:41:40Z</time>
      </trkpt>
      <trkpt lat="22.483499702899014" lon="113.93705490141765">
        <ele>2.2807949213311076</ele>
        <time>2026-09-22T14:41:43Z</time>
      </trkpt>
      <trkpt lat="22.483557883922046" lon="113.93708916405448">
        <ele>1.65761892311275</ele>
        <time>2026-09-22T14:41:46Z</time>
      </trkpt>
      <trkpt lat="22.48355847481099" lon="113.93718369177664">
        <ele>2.979806355200708</ele>
        <time>2026-09-22T14:41:49Z</time>
      </trkpt>
      <trkpt lat="22.483538609026006" lon="113.93725635529599">
        <ele>2.2379144886508584</ele>
        <time>2026-09-22T14:41:52Z</time>
      </trkpt>
      <trkpt lat="22.483636750568877" lon="113.93736422751236">
        <ele>2.1376953897997737</ele>
        <time>2026-09-22T14:41:58Z</time>
      </trkpt>
      <trkpt lat="22.483714133207624" lon="113.93747998480299">
        <ele>3.0385196022689342</ele>
        <time>2026-09-22T14:42:04Z</time>
      </trkpt>
      <trkpt lat="22.48401585023504" lon="113.93769997866308">
        <ele>3.399520805105567</ele>
        <time>2026-09-22T14:42:16Z</time>
      </trkpt>
      <trkpt lat="22.484258878024438" lon="113.93793977701084">
        <ele>2.281433083117008</ele>
        <time>2026-09-22T14:42:29Z</time>
      </trkpt>
      <trkpt lat="22.48431814659144" lon="113.9380060951706">
        <ele>2.400807754136622</ele>
        <time>2026-09-22T14:42:33Z</time>
      </trkpt>
      <trkpt lat="22.484487552165227" lon="113.9383580881098">
        <ele>2.57337683532387</ele>
        <time>2026-09-22T14:42:49Z</time>
      </trkpt>
      <trkpt lat="22.484530201218345" lon="113.9384314527626">
        <ele>2.799823496490717</ele>
        <time>2026-09-22T14:42:53Z</time>
      </trkpt>
      <trkpt lat="22.484634885305763" lon="113.93850979247897">
        <ele>2.3004049323499203</ele>
        <time>2026-09-22T14:43:07Z</time>
      </trkpt>
      <trkpt lat="22.484621911971733" lon="113.93843025267692">
        <ele>3.386168584227562</ele>
        <time>2026-09-22T14:43:22Z</time>
      </trkpt>
      <trkpt lat="22.484553100601005" lon="113.93839518628931">
        <ele>3.7544915350154042</ele>
        <time>2026-09-22T14:43:28Z</time>
      </trkpt>
      <trkpt lat="22.48447396500542" lon="113.93828288469717">
        <ele>3.0634495401754975</ele>
        <time>2026-09-22T14:43:37Z</time>
      </trkpt>
      <trkpt lat="22.484360818594457" lon="113.93796905434093">
        <ele>2.778041085228324</ele>
        <time>2026-09-22T14:43:58Z</time>
      </trkpt>
      <trkpt lat="22.484294191935142" lon="113.93779375921451">
        <ele>2.688062584027648</ele>
        <time>2026-09-22T14:44:10Z</time>
      </trkpt>
      <trkpt lat="22.484236766341553" lon="113.93775105263423">
        <ele>3.005689889192581</ele>
        <time>2026-09-22T14:44:16Z</time>
      </trkpt>
      <trkpt lat="22.484082187036897" lon="113.93767864216531">
        <ele>3.8381842812523246</ele>
        <time>2026-09-22T14:44:25Z</time>
      </trkpt>
      <trkpt lat="22.48390023661804" lon="113.93740675769756">
        <ele>4.4578605918213725</ele>
        <time>2026-09-22T14:44:43Z</time>
      </trkpt>
      <trkpt lat="22.483823187522553" lon="113.9371245551738">
        <ele>3.760253553278744</ele>
        <time>2026-09-22T14:44:51Z</time>
      </trkpt>
      <trkpt lat="22.483795257010637" lon="113.93716748619089">
        <ele>3.9334293017163873</ele>
        <time>2026-09-22T14:44:55Z</time>
      </trkpt>
      <trkpt lat="22.483693498245394" lon="113.93709551115946">
        <ele>3.5124410605058074</ele>
        <time>2026-09-22T14:45:03Z</time>
      </trkpt>
      <trkpt lat="22.48358575283125" lon="113.93692097382934">
        <ele>2.8868234008550644</ele>
        <time>2026-09-22T14:45:13Z</time>
      </trkpt>
      <trkpt lat="22.483555052402387" lon="113.93682933558222">
        <ele>2.6765418983995914</ele>
        <time>2026-09-22T14:45:16Z</time>
      </trkpt>
      <trkpt lat="22.483475771361334" lon="113.93679872474053">
        <ele>2.568858149461448</ele>
        <time>2026-09-22T14:45:22Z</time>
      </trkpt>
      <trkpt lat="22.483482368873663" lon="113.93669667409353">
        <ele>2.073232707567513</ele>
        <time>2026-09-22T14:45:31Z</time>
      </trkpt>
      <trkpt lat="22.483565059382688" lon="113.93654958967979">
        <ele>1.7486408054828644</ele>
        <time>2026-09-22T14:45:43Z</time>
      </trkpt>
      <trkpt lat="22.48356407309004" lon="113.93648586104081">
        <ele>1.8724835626780987</ele>
        <time>2026-09-22T14:45:49Z</time>
      </trkpt>
      <trkpt lat="22.483618978576537" lon="113.9363922813742">
        <ele>1.1286153541877866</ele>
        <time>2026-09-22T14:45:55Z</time>
      </trkpt>
      <trkpt lat="22.483661815526055" lon="113.93643120059603">
        <ele>1.5165387792512774</ele>
        <time>2026-09-22T14:46:01Z</time>
      </trkpt>
      <trkpt lat="22.48385978825849" lon="113.93616719418766">
        <ele>2.1680685486644506</ele>
        <time>2026-09-22T14:46:19Z</time>
      </trkpt>
      <trkpt lat="22.483997260502832" lon="113.93594520125532">
        <ele>2.459746964275837</ele>
        <time>2026-09-22T14:46:34Z</time>
      </trkpt>
      <trkpt lat="22.484200232311963" lon="113.93571659681035">
        <ele>2.850377233698964</ele>
        <time>2026-09-22T14:46:49Z</time>
      </trkpt>
      <trkpt lat="22.484370657657088" lon="113.93539673965005">
        <ele>3.598853724077344</ele>
        <time>2026-09-22T14:47:05Z</time>
      </trkpt>
      <trkpt lat="22.48446725337539" lon="113.93516544377948">
        <ele>3.0319111570715904</ele>
        <time>2026-09-22T14:47:13Z</time>
      </trkpt>
      <trkpt lat="22.484522923215668" lon="113.93500280578628">
        <ele>2.031658441759646</ele>
        <time>2026-09-22T14:47:19Z</time>
      </trkpt>
      <trkpt lat="22.484710347968118" lon="113.93470887358798">
        <ele>0.898621185682714</ele>
        <time>2026-09-22T14:47:37Z</time>
      </trkpt>
      <trkpt lat="22.48486084232536" lon="113.93446359807322">
        <ele>2.0398502983152866</ele>
        <time>2026-09-22T14:47:49Z</time>
      </trkpt>
      <trkpt lat="22.484924364788814" lon="113.93415031707592">
        <ele>3.3650107849389315</ele>
        <time>2026-09-22T14:48:01Z</time>
      </trkpt>
      <trkpt lat="22.484948435727475" lon="113.93401002821003">
        <ele>3.6848943419754505</ele>
        <time>2026-09-22T14:48:07Z</time>
      </trkpt>
      <trkpt lat="22.4849109870645" lon="113.93388889426261">
        <ele>4.997011066414416</ele>
        <time>2026-09-22T14:48:13Z</time>
      </trkpt>
      <trkpt lat="22.484903223959847" lon="113.9337693338829">
        <ele>5.599222902208567</ele>
        <time>2026-09-22T14:48:19Z</time>
      </trkpt>
      <trkpt lat="22.484803071352253" lon="113.93353466006889">
        <ele>5.53432253561914</ele>
        <time>2026-09-22T14:48:43Z</time>
      </trkpt>
      <trkpt lat="22.484735867826593" lon="113.93344219541754">
        <ele>5.694506026804447</ele>
        <time>2026-09-22T14:48:55Z</time>
      </trkpt>
      <trkpt lat="22.4846609988635" lon="113.93337576378535">
        <ele>5.2156746266409755</ele>
        <time>2026-09-22T14:48:59Z</time>
      </trkpt>
      <trkpt lat="22.48464823356658" lon="113.93330278931178">
        <ele>5.644484426826239</ele>
        <time>2026-09-22T14:49:03Z</time>
      </trkpt>
      <trkpt lat="22.48457153362798" lon="113.93322631145122">
        <ele>5.130152995698154</ele>
        <time>2026-09-22T14:49:11Z</time>
      </trkpt>
      <trkpt lat="22.484613156592204" lon="113.93319768579609">
        <ele>5.000052912160754</ele>
        <time>2026-09-22T14:49:15Z</time>
      </trkpt>
      <trkpt lat="22.484502215444714" lon="113.93291740283962">
        <ele>5.793098486959934</ele>
        <time>2026-09-22T14:49:33Z</time>
      </trkpt>
      <trkpt lat="22.48444645618856" lon="113.93287813577186">
        <ele>5.696971422992647</ele>
        <time>2026-09-22T14:49:39Z</time>
      </trkpt>
      <trkpt lat="22.484288125801083" lon="113.93271155348907">
        <ele>4.470317783765495</ele>
        <time>2026-09-22T14:49:48Z</time>
      </trkpt>
      <trkpt lat="22.483943656663435" lon="113.93268505394686">
        <ele>2.9102718979120255</ele>
        <time>2026-09-22T14:50:03Z</time>
      </trkpt>
      <trkpt lat="22.48389075929634" lon="113.9327114244897">
        <ele>3.254006527364254</ele>
        <time>2026-09-22T14:50:06Z</time>
      </trkpt>
      <trkpt lat="22.48377607832786" lon="113.93272314652664">
        <ele>3.031397584825754</ele>
        <time>2026-09-22T14:50:09Z</time>
      </trkpt>
      <trkpt lat="22.48370584815451" lon="113.93275078401051">
        <ele>2.8446437688544393</ele>
        <time>2026-09-22T14:50:12Z</time>
      </trkpt>
      <trkpt lat="22.483518414537958" lon="113.9326824361431">
        <ele>2.6395664839074016</ele>
        <time>2026-09-22T14:50:24Z</time>
      </trkpt>
      <trkpt lat="22.483299910182982" lon="113.93256291924196">
        <ele>3.9623327385634184</ele>
        <time>2026-09-22T14:50:33Z</time>
      </trkpt>
      <trkpt lat="22.48319651071889" lon="113.93245215973899">
        <ele>2.9310387102887034</ele>
        <time>2026-09-22T14:50:39Z</time>
      </trkpt>
      <trkpt lat="22.48319465516974" lon="113.93232312014624">
        <ele>2.992364208213985</ele>
        <time>2026-09-22T14:50:45Z</time>
      </trkpt>
      <trkpt lat="22.48327249740559" lon="113.93211953443326">
        <ele>2.3848402006551623</ele>
        <time>2026-09-22T14:50:56Z</time>
      </trkpt>
      <trkpt lat="22.483301683552707" lon="113.93196970927943">
        <ele>2.8791715623810887</ele>
        <time>2026-09-22T14:51:04Z</time>
      </trkpt>
      <trkpt lat="22.483370098992665" lon="113.9318087995854">
        <ele>4.579926441423595</ele>
        <time>2026-09-22T14:51:12Z</time>
      </trkpt>
      <trkpt lat="22.483392958582066" lon="113.93167321891893">
        <ele>5.422853601165116</ele>
        <time>2026-09-22T14:51:18Z</time>
      </trkpt>
      <trkpt lat="22.48337168969227" lon="113.93143461506199">
        <ele>5.764898450113833</ele>
        <time>2026-09-22T14:51:27Z</time>
      </trkpt>
      <trkpt lat="22.48333726261882" lon="113.9313257949827">
        <ele>6.400063076987863</ele>
        <time>2026-09-22T14:51:33Z</time>
      </trkpt>
      <trkpt lat="22.48325060474181" lon="113.93128844634069">
        <ele>6.203885942697525</ele>
        <time>2026-09-22T14:51:42Z</time>
      </trkpt>
      <trkpt lat="22.48318894793695" lon="113.93129166712899">
        <ele>6.094481124542654</ele>
        <time>2026-09-22T14:51:45Z</time>
      </trkpt>
      <trkpt lat="22.483133505606755" lon="113.93127226570206">
        <ele>6.417585105635226</ele>
        <time>2026-09-22T14:51:51Z</time>
      </trkpt>
      <trkpt lat="22.483133505606755" lon="113.93127226570206">
        <ele>6.417585105635226</ele>
        <time>2026-09-22T14:51:52Z</time>
      </trkpt>
    </trkseg>
  </trk>
</gpx>