<?xml version="1.0" encoding="UTF-8"?>
<gpx xmlns="http://www.topografix.com/GPX/1/1" xmlns:gpxtpx="http://www.garmin.com/xmlschemas/TrackPointExtension/v1" xmlns:xsi="http://www.w3.org/2001/XMLSchema-instance" xsi:schemaLocation="http://www.topografix.com/GPX/1/1 http://www.topografix.com/GPX/1/1/gpx.xsd" version="1.1" creator="gpx.py -- https://github.com/tkrajina/gpxpy">
  <trk>
    <name>gpx from keep</name>
    <type>Run</type>
    <trkseg>
      <trkpt lat="22.51122656603553" lon="113.93966915279672">
        <ele>-3.8628575801849365</ele>
        <time>2026-08-27T11:12:17Z</time>
      </trkpt>
      <trkpt lat="22.510993303166256" lon="113.93958027950492">
        <ele>0.4609449515119195</ele>
        <time>2026-08-27T11:12:32Z</time>
      </trkpt>
      <trkpt lat="22.510724892340644" lon="113.9397608226201">
        <ele>-0.06904463283717632</ele>
        <time>2026-08-27T11:12:47Z</time>
      </trkpt>
      <trkpt lat="22.510447617507957" lon="113.93998081964138">
        <ele>0.4011024171486497</ele>
        <time>2026-08-27T11:13:05Z</time>
      </trkpt>
      <trkpt lat="22.51039178402109" lon="113.9400251557701">
        <ele>1.386037782765925</ele>
        <time>2026-08-27T11:13:08Z</time>
      </trkpt>
      <trkpt lat="22.510304739953988" lon="113.9401358719442">
        <ele>3.2483841618523</ele>
        <time>2026-08-27T11:13:17Z</time>
      </trkpt>
      <trkpt lat="22.510147250353228" lon="113.94020953790792">
        <ele>5.663174519315362</ele>
        <time>2026-08-27T11:13:26Z</time>
      </trkpt>
      <trkpt lat="22.510085321395895" lon="113.94026575122598">
        <ele>4.745463260449469</ele>
        <time>2026-08-27T11:13:29Z</time>
      </trkpt>
      <trkpt lat="22.509984169714073" lon="113.94041058855669">
        <ele>4.61739335488528</ele>
        <time>2026-08-27T11:13:38Z</time>
      </trkpt>
      <trkpt lat="22.509971339130107" lon="113.94049574236391">
        <ele>5.027591694146395</ele>
        <time>2026-08-27T11:13:41Z</time>
      </trkpt>
      <trkpt lat="22.509856877249383" lon="113.94071859130045">
        <ele>1.7745188055559993</ele>
        <time>2026-08-27T11:13:50Z</time>
      </trkpt>
      <trkpt lat="22.509842574940876" lon="113.9408403296741">
        <ele>2.3178047202527523</ele>
        <time>2026-08-27T11:13:56Z</time>
      </trkpt>
      <trkpt lat="22.509792873226147" lon="113.94106775377995">
        <ele>2.543535977602005</ele>
        <time>2026-08-27T11:14:11Z</time>
      </trkpt>
      <trkpt lat="22.509819554805123" lon="113.9411526056465">
        <ele>1.807156654074788</ele>
        <time>2026-08-27T11:14:14Z</time>
      </trkpt>
      <trkpt lat="22.509860681261173" lon="113.94145950320289">
        <ele>2.232973766513169</ele>
        <time>2026-08-27T11:14:24Z</time>
      </trkpt>
      <trkpt lat="22.509857016386032" lon="113.94151544835212">
        <ele>1.905447036959231</ele>
        <time>2026-08-27T11:14:27Z</time>
      </trkpt>
      <trkpt lat="22.509832798357724" lon="113.94157594327318">
        <ele>2.1897040996700525</ele>
        <time>2026-08-27T11:14:33Z</time>
      </trkpt>
      <trkpt lat="22.509817631155965" lon="113.94169868866807">
        <ele>2.581438075751066</ele>
        <time>2026-08-27T11:14:36Z</time>
      </trkpt>
      <trkpt lat="22.50977656229029" lon="113.94178919784339">
        <ele>2.934163107536733</ele>
        <time>2026-08-27T11:14:39Z</time>
      </trkpt>
      <trkpt lat="22.50971958904281" lon="113.94200053264458">
        <ele>1.2081472659483552</ele>
        <time>2026-08-27T11:14:48Z</time>
      </trkpt>
      <trkpt lat="22.509603074178646" lon="113.94231924111659">
        <ele>-1.8582309419289231</ele>
        <time>2026-08-27T11:15:03Z</time>
      </trkpt>
      <trkpt lat="22.50956416173042" lon="113.94244690044022">
        <ele>-2.1541979666799307</ele>
        <time>2026-08-27T11:15:09Z</time>
      </trkpt>
      <trkpt lat="22.509569416400357" lon="113.94274649304147">
        <ele>-5.814909910783172</ele>
        <time>2026-08-27T11:15:21Z</time>
      </trkpt>
      <trkpt lat="22.50957307324259" lon="113.94289511675079">
        <ele>-6.246003747917712</ele>
        <time>2026-08-27T11:15:27Z</time>
      </trkpt>
      <trkpt lat="22.509560540539006" lon="113.94294518983398">
        <ele>-6.742904756218195</ele>
        <time>2026-08-27T11:15:30Z</time>
      </trkpt>
      <trkpt lat="22.50961088027067" lon="113.94304702905815">
        <ele>-7.04284995701164</ele>
        <time>2026-08-27T11:15:33Z</time>
      </trkpt>
      <trkpt lat="22.509647522719213" lon="113.9432104613574">
        <ele>-8.490271653048694</ele>
        <time>2026-08-27T11:15:42Z</time>
      </trkpt>
      <trkpt lat="22.509694950086374" lon="113.94325933027274">
        <ele>-9.239057467319071</ele>
        <time>2026-08-27T11:15:45Z</time>
      </trkpt>
      <trkpt lat="22.509741044904644" lon="113.94348702139729">
        <ele>-8.425611961632967</ele>
        <time>2026-08-27T11:15:54Z</time>
      </trkpt>
      <trkpt lat="22.5098922809887" lon="113.94365544601139">
        <ele>-10.79075796622783</ele>
        <time>2026-08-27T11:16:00Z</time>
      </trkpt>
      <trkpt lat="22.510066190031914" lon="113.94375164778239">
        <ele>-10.779683470726013</ele>
        <time>2026-08-27T11:16:06Z</time>
      </trkpt>
      <trkpt lat="22.510181173521556" lon="113.94390528778604">
        <ele>-9.97626822348684</ele>
        <time>2026-08-27T11:16:15Z</time>
      </trkpt>
      <trkpt lat="22.510236267193562" lon="113.94401489430973">
        <ele>-9.043631356209517</ele>
        <time>2026-08-27T11:16:24Z</time>
      </trkpt>
      <trkpt lat="22.510247259858097" lon="113.94424877126505">
        <ele>-7.011380716226995</ele>
        <time>2026-08-27T11:16:35Z</time>
      </trkpt>
      <trkpt lat="22.510219636940427" lon="113.9443529030873">
        <ele>-6.297003578394651</ele>
        <time>2026-08-27T11:16:43Z</time>
      </trkpt>
      <trkpt lat="22.510158604680097" lon="113.94446167562988">
        <ele>-4.844610625877976</ele>
        <time>2026-08-27T11:16:51Z</time>
      </trkpt>
      <trkpt lat="22.510116688969354" lon="113.94460809639837">
        <ele>-6.812344990670681</ele>
        <time>2026-08-27T11:16:55Z</time>
      </trkpt>
      <trkpt lat="22.510109967179538" lon="113.94492914067203">
        <ele>-5.612883062101901</ele>
        <time>2026-08-27T11:17:07Z</time>
      </trkpt>
      <trkpt lat="22.51010951731487" lon="113.94506826033842">
        <ele>-3.8172929054126143</ele>
        <time>2026-08-27T11:17:13Z</time>
      </trkpt>
      <trkpt lat="22.510203062413275" lon="113.94530892935346">
        <ele>-7.160095273517072</ele>
        <time>2026-08-27T11:17:25Z</time>
      </trkpt>
      <trkpt lat="22.51030295463148" lon="113.945400028315">
        <ele>-8.173578626476228</ele>
        <time>2026-08-27T11:17:31Z</time>
      </trkpt>
      <trkpt lat="22.51052591183464" lon="113.94550273096185">
        <ele>-8.464162168093026</ele>
        <time>2026-08-27T11:17:43Z</time>
      </trkpt>
      <trkpt lat="22.510839337663764" lon="113.94553939096387">
        <ele>-12.23684261739254</ele>
        <time>2026-08-27T11:17:58Z</time>
      </trkpt>
      <trkpt lat="22.510906381914328" lon="113.945572420277">
        <ele>-12.706930993124843</ele>
        <time>2026-08-27T11:18:01Z</time>
      </trkpt>
      <trkpt lat="22.511082326951747" lon="113.94561251298184">
        <ele>-13.028074456378818</ele>
        <time>2026-08-27T11:18:10Z</time>
      </trkpt>
      <trkpt lat="22.511245421122037" lon="113.94557573780439">
        <ele>-13.678934278897941</ele>
        <time>2026-08-27T11:18:16Z</time>
      </trkpt>
      <trkpt lat="22.511377503500846" lon="113.9456307572234">
        <ele>-15.61840563453734</ele>
        <time>2026-08-27T11:18:22Z</time>
      </trkpt>
      <trkpt lat="22.51154674636346" lon="113.94565969764145">
        <ele>-16.229185726493597</ele>
        <time>2026-08-27T11:18:31Z</time>
      </trkpt>
      <trkpt lat="22.511728491889457" lon="113.94574273464124">
        <ele>-16.34926696587354</ele>
        <time>2026-08-27T11:18:39Z</time>
      </trkpt>
      <trkpt lat="22.511777006972913" lon="113.94579350809268">
        <ele>-16.662240476347506</ele>
        <time>2026-08-27T11:18:43Z</time>
      </trkpt>
      <trkpt lat="22.511848696108018" lon="113.94582578682794">
        <ele>-14.713935654610395</ele>
        <time>2026-08-27T11:18:47Z</time>
      </trkpt>
      <trkpt lat="22.512039118791808" lon="113.94601865625228">
        <ele>-9.871198169887066</ele>
        <time>2026-08-27T11:18:59Z</time>
      </trkpt>
      <trkpt lat="22.512120523873637" lon="113.94607955204117">
        <ele>-7.8836846286430955</ele>
        <time>2026-08-27T11:19:03Z</time>
      </trkpt>
      <trkpt lat="22.512177527106363" lon="113.94618314169638">
        <ele>-5.082836301065981</ele>
        <time>2026-08-27T11:19:07Z</time>
      </trkpt>
      <trkpt lat="22.512208608936522" lon="113.94628353224142">
        <ele>-4.148167823441327</ele>
        <time>2026-08-27T11:19:10Z</time>
      </trkpt>
      <trkpt lat="22.512254417525195" lon="113.94635698004375">
        <ele>-1.399995869025588</ele>
        <time>2026-08-27T11:19:16Z</time>
      </trkpt>
      <trkpt lat="22.512333096199875" lon="113.94661431923168">
        <ele>-3.6224337182939053</ele>
        <time>2026-08-27T11:19:28Z</time>
      </trkpt>
      <trkpt lat="22.512351662257817" lon="113.94687095449777">
        <ele>-3.805877862498164</ele>
        <time>2026-08-27T11:19:40Z</time>
      </trkpt>
      <trkpt lat="22.512310659864138" lon="113.94710569116123">
        <ele>-5.154857548885047</ele>
        <time>2026-08-27T11:19:52Z</time>
      </trkpt>
      <trkpt lat="22.512312300829244" lon="113.94719454459963">
        <ele>-5.284563069231808</ele>
        <time>2026-08-27T11:19:58Z</time>
      </trkpt>
      <trkpt lat="22.51229294136246" lon="113.94737843164984">
        <ele>-5.79426087718457</ele>
        <time>2026-08-27T11:20:10Z</time>
      </trkpt>
      <trkpt lat="22.512310058712625" lon="113.94742423867946">
        <ele>-6.528411462903023</ele>
        <time>2026-08-27T11:20:13Z</time>
      </trkpt>
      <trkpt lat="22.512201130279244" lon="113.94775691126611">
        <ele>-1.8154118275269866</ele>
        <time>2026-08-27T11:20:22Z</time>
      </trkpt>
      <trkpt lat="22.512131848280735" lon="113.94796966670229">
        <ele>-0.6707898555323482</ele>
        <time>2026-08-27T11:20:31Z</time>
      </trkpt>
      <trkpt lat="22.512118720407358" lon="113.94811388666291">
        <ele>0.2174944570288062</ele>
        <time>2026-08-27T11:20:37Z</time>
      </trkpt>
      <trkpt lat="22.51209508710705" lon="113.94819625218493">
        <ele>0.5041995290666819</ele>
        <time>2026-08-27T11:20:41Z</time>
      </trkpt>
      <trkpt lat="22.51205191047997" lon="113.94825891902418">
        <ele>-0.3258877107873559</ele>
        <time>2026-08-27T11:20:45Z</time>
      </trkpt>
      <trkpt lat="22.5120392867396" lon="113.948415150135">
        <ele>-0.6578308260068297</ele>
        <time>2026-08-27T11:20:53Z</time>
      </trkpt>
      <trkpt lat="22.512007093397074" lon="113.94847796474629">
        <ele>-0.5053770244121552</ele>
        <time>2026-08-27T11:20:57Z</time>
      </trkpt>
      <trkpt lat="22.511814314908417" lon="113.94867519382794">
        <ele>-0.7508999509736896</ele>
        <time>2026-08-27T11:21:09Z</time>
      </trkpt>
      <trkpt lat="22.51169088854414" lon="113.94884934979163">
        <ele>-1.2838976122438908</ele>
        <time>2026-08-27T11:21:17Z</time>
      </trkpt>
      <trkpt lat="22.51149061689616" lon="113.94906584643896">
        <ele>-2.37412993516773</ele>
        <time>2026-08-27T11:21:29Z</time>
      </trkpt>
      <trkpt lat="22.51147164661301" lon="113.94912370293773">
        <ele>-2.868694143369794</ele>
        <time>2026-08-27T11:21:32Z</time>
      </trkpt>
      <trkpt lat="22.51141353643513" lon="113.94921215892604">
        <ele>-3.032708796672523</ele>
        <time>2026-08-27T11:21:38Z</time>
      </trkpt>
      <trkpt lat="22.511181956254" lon="113.9493795403326">
        <ele>1.2759873513132334</ele>
        <time>2026-08-27T11:21:50Z</time>
      </trkpt>
      <trkpt lat="22.510977554396646" lon="113.94954313897486">
        <ele>1.6511978562921286</ele>
        <time>2026-08-27T11:22:02Z</time>
      </trkpt>
      <trkpt lat="22.510670586761353" lon="113.94968701613718">
        <ele>-0.012877518311142921</ele>
        <time>2026-08-27T11:22:17Z</time>
      </trkpt>
      <trkpt lat="22.51038178833008" lon="113.94978332613519">
        <ele>1.6809817692264915</ele>
        <time>2026-08-27T11:22:32Z</time>
      </trkpt>
      <trkpt lat="22.510031912331886" lon="113.94984691911279">
        <ele>1.7343460051342845</ele>
        <time>2026-08-27T11:22:48Z</time>
      </trkpt>
      <trkpt lat="22.50994319853785" lon="113.94986843816308">
        <ele>2.8022285075858235</ele>
        <time>2026-08-27T11:22:52Z</time>
      </trkpt>
      <trkpt lat="22.509694510434272" lon="113.9498724935568">
        <ele>2.630796866491437</ele>
        <time>2026-08-27T11:23:04Z</time>
      </trkpt>
      <trkpt lat="22.50961698859752" lon="113.94989018100803">
        <ele>2.2261146074160933</ele>
        <time>2026-08-27T11:23:08Z</time>
      </trkpt>
      <trkpt lat="22.509339138184444" lon="113.949838834108">
        <ele>2.4760553305968642</ele>
        <time>2026-08-27T11:23:20Z</time>
      </trkpt>
      <trkpt lat="22.5092405763708" lon="113.94981816661208">
        <ele>1.8199257086962461</ele>
        <time>2026-08-27T11:23:24Z</time>
      </trkpt>
      <trkpt lat="22.50917327801257" lon="113.9498208816682">
        <ele>1.6501199416816235</ele>
        <time>2026-08-27T11:23:28Z</time>
      </trkpt>
      <trkpt lat="22.508864056280416" lon="113.94971551072217">
        <ele>2.656728266738355</ele>
        <time>2026-08-27T11:23:43Z</time>
      </trkpt>
      <trkpt lat="22.50879655242172" lon="113.94970016158915">
        <ele>3.630671950057149</ele>
        <time>2026-08-27T11:23:46Z</time>
      </trkpt>
      <trkpt lat="22.508501396746873" lon="113.94955051138085">
        <ele>4.2455112664029</ele>
        <time>2026-08-27T11:24:01Z</time>
      </trkpt>
      <trkpt lat="22.50839786473486" lon="113.94947671242078">
        <ele>4.206063956022263</ele>
        <time>2026-08-27T11:24:07Z</time>
      </trkpt>
      <trkpt lat="22.50817393257099" lon="113.9493629174097">
        <ele>4.058910621330142</ele>
        <time>2026-08-27T11:24:19Z</time>
      </trkpt>
      <trkpt lat="22.50805948714486" lon="113.94921471150764">
        <ele>2.3862126860767603</ele>
        <time>2026-08-27T11:24:25Z</time>
      </trkpt>
      <trkpt lat="22.50783448036331" lon="113.94902730138652">
        <ele>-3.6235972875729203</ele>
        <time>2026-08-27T11:24:37Z</time>
      </trkpt>
      <trkpt lat="22.507769370550562" lon="113.94890976053951">
        <ele>-3.831974600441754</ele>
        <time>2026-08-27T11:24:43Z</time>
      </trkpt>
      <trkpt lat="22.507683356816393" lon="113.9488816517009">
        <ele>-6.520495151169598</ele>
        <time>2026-08-27T11:24:46Z</time>
      </trkpt>
      <trkpt lat="22.507432755443485" lon="113.94864313139746">
        <ele>-3.3572199139744043</ele>
        <time>2026-08-27T11:25:03Z</time>
      </trkpt>
      <trkpt lat="22.50732942457229" lon="113.94856719108672">
        <ele>-1.5777802029624581</ele>
        <time>2026-08-27T11:25:09Z</time>
      </trkpt>
      <trkpt lat="22.50704327576462" lon="113.94839594145115">
        <ele>-0.5833880612626672</ele>
        <time>2026-08-27T11:25:24Z</time>
      </trkpt>
      <trkpt lat="22.506842923896304" lon="113.94828699832537">
        <ele>1.8725834237411618</ele>
        <time>2026-08-27T11:25:34Z</time>
      </trkpt>
      <trkpt lat="22.506625238685206" lon="113.94821249796064">
        <ele>1.7372435433790088</ele>
        <time>2026-08-27T11:25:46Z</time>
      </trkpt>
      <trkpt lat="22.50656389564771" lon="113.94817019086447">
        <ele>2.8579710070043802</ele>
        <time>2026-08-27T11:25:49Z</time>
      </trkpt>
      <trkpt lat="22.506427357053973" lon="113.94814379294802">
        <ele>2.9110502330586314</ele>
        <time>2026-08-27T11:25:55Z</time>
      </trkpt>
      <trkpt lat="22.506310404615427" lon="113.94810106888973">
        <ele>2.783523315563798</ele>
        <time>2026-08-27T11:26:01Z</time>
      </trkpt>
      <trkpt lat="22.505973901940646" lon="113.9480520309195">
        <ele>2.2177498936653137</ele>
        <time>2026-08-27T11:26:16Z</time>
      </trkpt>
      <trkpt lat="22.505702352855607" lon="113.94803720528874">
        <ele>1.520753608085215</ele>
        <time>2026-08-27T11:26:28Z</time>
      </trkpt>
      <trkpt lat="22.505644633582207" lon="113.94802129717065">
        <ele>1.6057249084115028</ele>
        <time>2026-08-27T11:26:31Z</time>
      </trkpt>
      <trkpt lat="22.505425796399173" lon="113.94801687889914">
        <ele>1.6600713124498725</ele>
        <time>2026-08-27T11:26:40Z</time>
      </trkpt>
      <trkpt lat="22.505131513416707" lon="113.9480804681805">
        <ele>3.7128827637061477</ele>
        <time>2026-08-27T11:26:55Z</time>
      </trkpt>
      <trkpt lat="22.504902683031858" lon="113.94816408315047">
        <ele>4.134486141614616</ele>
        <time>2026-08-27T11:27:08Z</time>
      </trkpt>
      <trkpt lat="22.504695249257747" lon="113.94820514864904">
        <ele>3.7162121534347534</ele>
        <time>2026-08-27T11:27:17Z</time>
      </trkpt>
      <trkpt lat="22.504530233433165" lon="113.94829439540503">
        <ele>4.213209087960422</ele>
        <time>2026-08-27T11:27:26Z</time>
      </trkpt>
      <trkpt lat="22.504325765364843" lon="113.94836275923397">
        <ele>3.718956047669053</ele>
        <time>2026-08-27T11:27:35Z</time>
      </trkpt>
      <trkpt lat="22.504030006524665" lon="113.94852924772832">
        <ele>4.496931094676256</ele>
        <time>2026-08-27T11:27:50Z</time>
      </trkpt>
      <trkpt lat="22.503756072170166" lon="113.94868253871854">
        <ele>4.713008093647659</ele>
        <time>2026-08-27T11:28:05Z</time>
      </trkpt>
      <trkpt lat="22.50352165908532" lon="113.94876081806801">
        <ele>4.547651257365942</ele>
        <time>2026-08-27T11:28:17Z</time>
      </trkpt>
      <trkpt lat="22.503448073562108" lon="113.9487698078207">
        <ele>4.253869269043207</ele>
        <time>2026-08-27T11:28:20Z</time>
      </trkpt>
      <trkpt lat="22.503328294916734" lon="113.94881830574174">
        <ele>4.1278105564415455</ele>
        <time>2026-08-27T11:28:26Z</time>
      </trkpt>
      <trkpt lat="22.503040071133825" lon="113.94889656896963">
        <ele>2.42659355327487</ele>
        <time>2026-08-27T11:28:38Z</time>
      </trkpt>
      <trkpt lat="22.502741669435224" lon="113.94896506286132">
        <ele>3.974904512055218</ele>
        <time>2026-08-27T11:28:53Z</time>
      </trkpt>
      <trkpt lat="22.502616614007998" lon="113.94901162959228">
        <ele>3.4171543614938855</ele>
        <time>2026-08-27T11:28:59Z</time>
      </trkpt>
      <trkpt lat="22.502470771491357" lon="113.94908635900515">
        <ele>3.022461263462901</ele>
        <time>2026-08-27T11:29:06Z</time>
      </trkpt>
      <trkpt lat="22.502273647631068" lon="113.9490914091901">
        <ele>1.893056396394968</ele>
        <time>2026-08-27T11:29:15Z</time>
      </trkpt>
      <trkpt lat="22.501977103502593" lon="113.94897995363361">
        <ele>1.3096721209585667</ele>
        <time>2026-08-27T11:29:30Z</time>
      </trkpt>
      <trkpt lat="22.501933038601475" lon="113.94895111331998">
        <ele>1.4615873098373413</ele>
        <time>2026-08-27T11:29:33Z</time>
      </trkpt>
      <trkpt lat="22.501632095000904" lon="113.94891620915205">
        <ele>3.598486175760627</ele>
        <time>2026-08-27T11:29:48Z</time>
      </trkpt>
      <trkpt lat="22.501542800179568" lon="113.94888194646288">
        <ele>5.121881251223385</ele>
        <time>2026-08-27T11:29:54Z</time>
      </trkpt>
      <trkpt lat="22.501488703483613" lon="113.9488790994411">
        <ele>4.988997474312782</ele>
        <time>2026-08-27T11:29:57Z</time>
      </trkpt>
      <trkpt lat="22.501290629039424" lon="113.94882191533216">
        <ele>5.408119363710284</ele>
        <time>2026-08-27T11:30:12Z</time>
      </trkpt>
      <trkpt lat="22.501155067885406" lon="113.94883807915333">
        <ele>5.875811897218227</ele>
        <time>2026-08-27T11:30:21Z</time>
      </trkpt>
      <trkpt lat="22.501001903888902" lon="113.94878423036079">
        <ele>5.795995339751244</ele>
        <time>2026-08-27T11:30:30Z</time>
      </trkpt>
      <trkpt lat="22.500845485178566" lon="113.94874573435037">
        <ele>5.204544906504452</ele>
        <time>2026-08-27T11:30:42Z</time>
      </trkpt>
      <trkpt lat="22.500609371339007" lon="113.94856549136779">
        <ele>5.802558072842658</ele>
        <time>2026-08-27T11:30:57Z</time>
      </trkpt>
      <trkpt lat="22.50035570200162" lon="113.94842261454565">
        <ele>5.7236956572160125</ele>
        <time>2026-08-27T11:31:09Z</time>
      </trkpt>
      <trkpt lat="22.500268100758323" lon="113.94837395852508">
        <ele>5.009913846850395</ele>
        <time>2026-08-27T11:31:13Z</time>
      </trkpt>
      <trkpt lat="22.500099583482648" lon="113.94821415132905">
        <ele>5.111273417249322</ele>
        <time>2026-08-27T11:31:22Z</time>
      </trkpt>
      <trkpt lat="22.499962691163837" lon="113.94812885563745">
        <ele>7.267511811107397</ele>
        <time>2026-08-27T11:31:28Z</time>
      </trkpt>
      <trkpt lat="22.499814901453902" lon="113.94796634925991">
        <ele>7.401163663715124</ele>
        <time>2026-08-27T11:31:37Z</time>
      </trkpt>
      <trkpt lat="22.499784342309542" lon="113.9478904519001">
        <ele>7.595616519451141</ele>
        <time>2026-08-27T11:31:40Z</time>
      </trkpt>
      <trkpt lat="22.49973203710334" lon="113.94788546152992">
        <ele>7.204516252502799</ele>
        <time>2026-08-27T11:31:43Z</time>
      </trkpt>
      <trkpt lat="22.499690436593866" lon="113.94795479631328">
        <ele>6.200238348916173</ele>
        <time>2026-08-27T11:31:49Z</time>
      </trkpt>
      <trkpt lat="22.49963642627267" lon="113.94809944971428">
        <ele>4.907780579291284</ele>
        <time>2026-08-27T11:31:55Z</time>
      </trkpt>
      <trkpt lat="22.49970201306827" lon="113.94813008278">
        <ele>3.7645648140460253</ele>
        <time>2026-08-27T11:32:01Z</time>
      </trkpt>
      <trkpt lat="22.499743592042503" lon="113.94818889005558">
        <ele>3.535784026607871</ele>
        <time>2026-08-27T11:32:04Z</time>
      </trkpt>
      <trkpt lat="22.499790591099483" lon="113.9482008170295">
        <ele>4.093712266534567</ele>
        <time>2026-08-27T11:32:07Z</time>
      </trkpt>
      <trkpt lat="22.499845450729158" lon="113.94824238346465">
        <ele>3.5458855517208576</ele>
        <time>2026-08-27T11:32:10Z</time>
      </trkpt>
      <trkpt lat="22.49985126790269" lon="113.94833630995636">
        <ele>2.0117204757407308</ele>
        <time>2026-08-27T11:32:16Z</time>
      </trkpt>
      <trkpt lat="22.50008931837073" lon="113.94853822678263">
        <ele>1.9798029772937298</ele>
        <time>2026-08-27T11:32:40Z</time>
      </trkpt>
      <trkpt lat="22.500326391133715" lon="113.94870283506238">
        <ele>1.4761507278308272</ele>
        <time>2026-08-27T11:33:01Z</time>
      </trkpt>
      <trkpt lat="22.500598911970304" lon="113.94883872144895">
        <ele>1.1266306936740875</ele>
        <time>2026-08-27T11:33:23Z</time>
      </trkpt>
      <trkpt lat="22.500923497982278" lon="113.94890164898294">
        <ele>2.9763721050694585</ele>
        <time>2026-08-27T11:33:50Z</time>
      </trkpt>
      <trkpt lat="22.501253474353774" lon="113.94897667043828">
        <ele>2.0096252439543605</ele>
        <time>2026-08-27T11:34:20Z</time>
      </trkpt>
      <trkpt lat="22.501571634093544" lon="113.94906487889953">
        <ele>0.35407547280192375</ele>
        <time>2026-08-27T11:34:50Z</time>
      </trkpt>
      <trkpt lat="22.50186604082478" lon="113.94908430787858">
        <ele>1.5889367368072271</ele>
        <time>2026-08-27T11:35:17Z</time>
      </trkpt>
      <trkpt lat="22.501899202647127" lon="113.94904534116363">
        <ele>1.1159490356221795</ele>
        <time>2026-08-27T11:35:24Z</time>
      </trkpt>
      <trkpt lat="22.50195482593911" lon="113.94901249092892">
        <ele>1.3353873686864972</ele>
        <time>2026-08-27T11:35:33Z</time>
      </trkpt>
      <trkpt lat="22.50221527132885" lon="113.94912178232487">
        <ele>1.4422017866745591</ele>
        <time>2026-08-27T11:35:57Z</time>
      </trkpt>
      <trkpt lat="22.50241267140789" lon="113.94911771426166">
        <ele>1.6130099399015307</ele>
        <time>2026-08-27T11:36:15Z</time>
      </trkpt>
      <trkpt lat="22.502705777920795" lon="113.94899289127406">
        <ele>-0.13089438993483782</ele>
        <time>2026-08-27T11:36:42Z</time>
      </trkpt>
      <trkpt lat="22.502845493848046" lon="113.94895261353591">
        <ele>0.3489319933578372</ele>
        <time>2026-08-27T11:36:51Z</time>
      </trkpt>
      <trkpt lat="22.503120460402148" lon="113.94892449515342">
        <ele>-2.200930834747851</ele>
        <time>2026-08-27T11:37:09Z</time>
      </trkpt>
      <trkpt lat="22.503388796389345" lon="113.94883261943353">
        <ele>-4.966522050090134</ele>
        <time>2026-08-27T11:38:07Z</time>
      </trkpt>
      <trkpt lat="22.503667853788258" lon="113.94872475230407">
        <ele>-3.584379054605961</ele>
        <time>2026-08-27T11:38:37Z</time>
      </trkpt>
      <trkpt lat="22.503930536620206" lon="113.948608846036">
        <ele>-6.221656113862991</ele>
        <time>2026-08-27T11:39:07Z</time>
      </trkpt>
      <trkpt lat="22.504176841389974" lon="113.94846486950341">
        <ele>-3.6091103944927454</ele>
        <time>2026-08-27T11:39:38Z</time>
      </trkpt>
      <trkpt lat="22.5042814321399" lon="113.94839517031055">
        <ele>-2.507730486802757</ele>
        <time>2026-08-27T11:39:50Z</time>
      </trkpt>
      <trkpt lat="22.504534896102523" lon="113.94830771476478">
        <ele>-5.119555259123445</ele>
        <time>2026-08-27T11:40:14Z</time>
      </trkpt>
      <trkpt lat="22.50479800410777" lon="113.94819815047622">
        <ele>-6.44343766849488</ele>
        <time>2026-08-27T11:40:51Z</time>
      </trkpt>
      <trkpt lat="22.505101480734908" lon="113.94813720114539">
        <ele>-6.253783887252212</ele>
        <time>2026-08-27T11:41:09Z</time>
      </trkpt>
      <trkpt lat="22.50515739527884" lon="113.94812822737096">
        <ele>-6.288606480695307</ele>
        <time>2026-08-27T11:41:15Z</time>
      </trkpt>
      <trkpt lat="22.505291643467576" lon="113.94806939794348">
        <ele>-5.44308355730027</ele>
        <time>2026-08-27T11:41:33Z</time>
      </trkpt>
      <trkpt lat="22.505434486971954" lon="113.94806652996719">
        <ele>-6.605088489130139</ele>
        <time>2026-08-27T11:41:43Z</time>
      </trkpt>
      <trkpt lat="22.505520479941055" lon="113.94808583650094">
        <ele>-7.067059966735542</ele>
        <time>2026-08-27T11:41:49Z</time>
      </trkpt>
      <trkpt lat="22.505588167171197" lon="113.94807265357511">
        <ele>-7.083339108154178</ele>
        <time>2026-08-27T11:41:55Z</time>
      </trkpt>
      <trkpt lat="22.50578565858066" lon="113.94809550312623">
        <ele>-8.0150599591434</ele>
        <time>2026-08-27T11:42:10Z</time>
      </trkpt>
      <trkpt lat="22.50587098538626" lon="113.9480911523374">
        <ele>-8.07838383410126</ele>
        <time>2026-08-27T11:42:16Z</time>
      </trkpt>
      <trkpt lat="22.506052118936584" lon="113.94813786948413">
        <ele>-7.275937712751329</ele>
        <time>2026-08-27T11:42:25Z</time>
      </trkpt>
      <trkpt lat="22.506389249808684" lon="113.9481650936119">
        <ele>-8.646205547265708</ele>
        <time>2026-08-27T11:42:40Z</time>
      </trkpt>
      <trkpt lat="22.5064961714806" lon="113.94824659395813">
        <ele>-8.94867951143533</ele>
        <time>2026-08-27T11:42:46Z</time>
      </trkpt>
      <trkpt lat="22.50659758119723" lon="113.94826834540149">
        <ele>-9.230026563629508</ele>
        <time>2026-08-27T11:42:49Z</time>
      </trkpt>
      <trkpt lat="22.506674266006122" lon="113.94830788056929">
        <ele>-8.385277654975653</ele>
        <time>2026-08-27T11:42:52Z</time>
      </trkpt>
      <trkpt lat="22.50673126355515" lon="113.94829846967117">
        <ele>-8.748332729563117</ele>
        <time>2026-08-27T11:42:55Z</time>
      </trkpt>
      <trkpt lat="22.506898103696393" lon="113.94837531085092">
        <ele>-8.712725688703358</ele>
        <time>2026-08-27T11:43:01Z</time>
      </trkpt>
      <trkpt lat="22.50694978739501" lon="113.94841731277734">
        <ele>-7.917015894316137</ele>
        <time>2026-08-27T11:43:04Z</time>
      </trkpt>
      <trkpt lat="22.507209569025477" lon="113.94855607977996">
        <ele>-8.555350520648062</ele>
        <time>2026-08-27T11:43:16Z</time>
      </trkpt>
      <trkpt lat="22.50726414364485" lon="113.94860833347573">
        <ele>-7.93572083953768</ele>
        <time>2026-08-27T11:43:19Z</time>
      </trkpt>
      <trkpt lat="22.507542396220945" lon="113.94880316702341">
        <ele>-5.412707753479481</ele>
        <time>2026-08-27T11:43:34Z</time>
      </trkpt>
      <trkpt lat="22.507591960935933" lon="113.94885404878713">
        <ele>-5.292108029127121</ele>
        <time>2026-08-27T11:43:37Z</time>
      </trkpt>
      <trkpt lat="22.507657259230463" lon="113.94888742697583">
        <ele>-6.169078381732106</ele>
        <time>2026-08-27T11:43:40Z</time>
      </trkpt>
      <trkpt lat="22.507876299645556" lon="113.94911233862608">
        <ele>-5.993842677213252</ele>
        <time>2026-08-27T11:43:53Z</time>
      </trkpt>
      <trkpt lat="22.508100773332597" lon="113.9493623129111">
        <ele>-6.075474252924323</ele>
        <time>2026-08-27T11:44:08Z</time>
      </trkpt>
      <trkpt lat="22.508347952740824" lon="113.94951776385592">
        <ele>-8.166335148736835</ele>
        <time>2026-08-27T11:44:23Z</time>
      </trkpt>
      <trkpt lat="22.508633711066512" lon="113.94966120681501">
        <ele>-10.423102304339409</ele>
        <time>2026-08-27T11:44:38Z</time>
      </trkpt>
      <trkpt lat="22.508958618541744" lon="113.94976132831567">
        <ele>-12.038361040875316</ele>
        <time>2026-08-27T11:44:53Z</time>
      </trkpt>
      <trkpt lat="22.50899363580234" lon="113.9498097316393">
        <ele>-11.470387478359044</ele>
        <time>2026-08-27T11:44:56Z</time>
      </trkpt>
      <trkpt lat="22.509281166253828" lon="113.94989191424884">
        <ele>-10.285995085723698</ele>
        <time>2026-08-27T11:45:11Z</time>
      </trkpt>
      <trkpt lat="22.50959507316792" lon="113.94993545443067">
        <ele>-8.928661002777517</ele>
        <time>2026-08-27T11:45:26Z</time>
      </trkpt>
      <trkpt lat="22.509660867845632" lon="113.9499467973266">
        <ele>-8.766514203511178</ele>
        <time>2026-08-27T11:45:29Z</time>
      </trkpt>
      <trkpt lat="22.509772941951784" lon="113.94992629150858">
        <ele>-9.537050956860185</ele>
        <time>2026-08-27T11:45:35Z</time>
      </trkpt>
      <trkpt lat="22.50988492162094" lon="113.94994891438115">
        <ele>-8.943075719289482</ele>
        <time>2026-08-27T11:45:41Z</time>
      </trkpt>
      <trkpt lat="22.510232155683955" lon="113.94987811175139">
        <ele>-4.652873019687831</ele>
        <time>2026-08-27T11:46:10Z</time>
      </trkpt>
      <trkpt lat="22.510502544194868" lon="113.94978292253748">
        <ele>-1.7855055117979646</ele>
        <time>2026-08-27T11:46:34Z</time>
      </trkpt>
      <trkpt lat="22.510763602249593" lon="113.94966951014527">
        <ele>-1.2495782738551497</ele>
        <time>2026-08-27T11:46:58Z</time>
      </trkpt>
      <trkpt lat="22.511010460845092" lon="113.94954707992626">
        <ele>-2.2248349729925394</ele>
        <time>2026-08-27T11:47:10Z</time>
      </trkpt>
      <trkpt lat="22.511275377775952" lon="113.94936160049747">
        <ele>-3.6373203257098794</ele>
        <time>2026-08-27T11:47:22Z</time>
      </trkpt>
      <trkpt lat="22.51152281046489" lon="113.94913975416783">
        <ele>-5.9961576061323285</ele>
        <time>2026-08-27T11:47:34Z</time>
      </trkpt>
      <trkpt lat="22.511711617362593" lon="113.94891352902158">
        <ele>-3.8101589726284146</ele>
        <time>2026-08-27T11:47:52Z</time>
      </trkpt>
      <trkpt lat="22.511869895882022" lon="113.94869645206336">
        <ele>-4.250273146666586</ele>
        <time>2026-08-27T11:48:20Z</time>
      </trkpt>
      <trkpt lat="22.512024556005272" lon="113.94849091685846">
        <ele>-0.30738745257258415</ele>
        <time>2026-08-27T11:49:02Z</time>
      </trkpt>
      <trkpt lat="22.51208736387232" lon="113.94834839778542">
        <ele>-0.058505212888121605</ele>
        <time>2026-08-27T11:49:14Z</time>
      </trkpt>
      <trkpt lat="22.51206487255103" lon="113.94827125588242">
        <ele>-1.4754865551367402</ele>
        <time>2026-08-27T11:49:32Z</time>
      </trkpt>
      <trkpt lat="22.512118063408284" lon="113.94804741859555">
        <ele>0.6858895756304264</ele>
        <time>2026-08-27T11:49:50Z</time>
      </trkpt>
      <trkpt lat="22.51211867108679" lon="113.94799707137126">
        <ele>-0.06093909125775099</ele>
        <time>2026-08-27T11:49:53Z</time>
      </trkpt>
      <trkpt lat="22.51222345133526" lon="113.9476961600607">
        <ele>4.684271867386997</ele>
        <time>2026-08-27T11:50:12Z</time>
      </trkpt>
      <trkpt lat="22.512227614327525" lon="113.94760121655422">
        <ele>4.865113232284784</ele>
        <time>2026-08-27T11:50:21Z</time>
      </trkpt>
      <trkpt lat="22.51231269750441" lon="113.94724877340624">
        <ele>-1.8287712037563324</ele>
        <time>2026-08-27T11:50:48Z</time>
      </trkpt>
      <trkpt lat="22.512325091773445" lon="113.94698285948873">
        <ele>1.5149511201307178</ele>
        <time>2026-08-27T11:51:03Z</time>
      </trkpt>
      <trkpt lat="22.51236469482424" lon="113.94691154863318">
        <ele>1.959809834137559</ele>
        <time>2026-08-27T11:51:09Z</time>
      </trkpt>
      <trkpt lat="22.512388263831735" lon="113.94677777242178">
        <ele>2.4460318880155683</ele>
        <time>2026-08-27T11:51:21Z</time>
      </trkpt>
      <trkpt lat="22.512370907925106" lon="113.94652765813598">
        <ele>5.053612232208252</ele>
        <time>2026-08-27T11:51:42Z</time>
      </trkpt>
      <trkpt lat="22.512309050208135" lon="113.94629038007862">
        <ele>3.0414727004244924</ele>
        <time>2026-08-27T11:52:00Z</time>
      </trkpt>
      <trkpt lat="22.51238119320799" lon="113.94624897649432">
        <ele>3.380907306447625</ele>
        <time>2026-08-27T11:52:09Z</time>
      </trkpt>
      <trkpt lat="22.512507974114325" lon="113.94626506562697">
        <ele>2.801678088493645</ele>
        <time>2026-08-27T11:52:19Z</time>
      </trkpt>
      <trkpt lat="22.51254476124206" lon="113.94623097491073">
        <ele>3.0636397497728467</ele>
        <time>2026-08-27T11:53:49Z</time>
      </trkpt>
      <trkpt lat="22.512421165614516" lon="113.9462146834299">
        <ele>0.5102316774427891</ele>
        <time>2026-08-27T11:54:35Z</time>
      </trkpt>
      <trkpt lat="22.51237370074143" lon="113.94619114516335">
        <ele>0.3186945104971528</ele>
        <time>2026-08-27T11:54:41Z</time>
      </trkpt>
      <trkpt lat="22.512168961686182" lon="113.94615359531821">
        <ele>0.5979031370952725</ele>
        <time>2026-08-27T11:55:05Z</time>
      </trkpt>
      <trkpt lat="22.511963314608582" lon="113.94594887943981">
        <ele>6.120643939822912</ele>
        <time>2026-08-27T11:56:05Z</time>
      </trkpt>
      <trkpt lat="22.51172109982628" lon="113.94577732205238">
        <ele>5.3255421267822385</ele>
        <time>2026-08-27T11:56:36Z</time>
      </trkpt>
      <trkpt lat="22.51145973429681" lon="113.94565523877647">
        <ele>3.7743682134896517</ele>
        <time>2026-08-27T11:57:09Z</time>
      </trkpt>
      <trkpt lat="22.511177597401005" lon="113.945604072759">
        <ele>3.6539491657167673</ele>
        <time>2026-08-27T11:57:39Z</time>
      </trkpt>
      <trkpt lat="22.51094610327559" lon="113.94556665262613">
        <ele>2.8269829573109746</ele>
        <time>2026-08-27T11:58:06Z</time>
      </trkpt>
      <trkpt lat="22.51090061869537" lon="113.94551381747556">
        <ele>2.3668364761397243</ele>
        <time>2026-08-27T11:58:15Z</time>
      </trkpt>
      <trkpt lat="22.51061885722603" lon="113.94550149712009">
        <ele>-2.8487786762416363</ele>
        <time>2026-08-27T11:58:40Z</time>
      </trkpt>
      <trkpt lat="22.51036855512051" lon="113.94543255786077">
        <ele>-3.257261340506375</ele>
        <time>2026-08-27T11:59:01Z</time>
      </trkpt>
      <trkpt lat="22.51018848210313" lon="113.94525400385739">
        <ele>-1.3551801480352879</ele>
        <time>2026-08-27T11:59:25Z</time>
      </trkpt>
      <trkpt lat="22.510122522573315" lon="113.94494585814289">
        <ele>0.9015641557052732</ele>
        <time>2026-08-27T11:59:55Z</time>
      </trkpt>
      <trkpt lat="22.510132377900014" lon="113.94459959052713">
        <ele>2.8342108326032758</ele>
        <time>2026-08-27T12:00:16Z</time>
      </trkpt>
      <trkpt lat="22.510157357077436" lon="113.94444531029987">
        <ele>2.690105849877</ele>
        <time>2026-08-27T12:00:28Z</time>
      </trkpt>
      <trkpt lat="22.510221586117115" lon="113.94425329254894">
        <ele>2.705015675164759</ele>
        <time>2026-08-27T12:00:41Z</time>
      </trkpt>
      <trkpt lat="22.510211352836468" lon="113.94411604901632">
        <ele>3.251312768086791</ele>
        <time>2026-08-27T12:00:50Z</time>
      </trkpt>
      <trkpt lat="22.510224822251487" lon="113.94406552395868">
        <ele>3.242150370962918</ele>
        <time>2026-08-27T12:00:53Z</time>
      </trkpt>
      <trkpt lat="22.51018947096704" lon="113.94392946166565">
        <ele>2.0377709390595555</ele>
        <time>2026-08-27T12:00:59Z</time>
      </trkpt>
      <trkpt lat="22.51003393901337" lon="113.94362281697425">
        <ele>-1.0911592729389668</ele>
        <time>2026-08-27T12:01:11Z</time>
      </trkpt>
      <trkpt lat="22.509914208372795" lon="113.94353601389594">
        <ele>-0.3998104836791754</ele>
        <time>2026-08-27T12:01:17Z</time>
      </trkpt>
      <trkpt lat="22.509726612552328" lon="113.94323387887648">
        <ele>-4.176860582083464</ele>
        <time>2026-08-27T12:01:29Z</time>
      </trkpt>
      <trkpt lat="22.509647223703787" lon="113.94297018414669">
        <ele>-4.381225837394595</ele>
        <time>2026-08-27T12:01:38Z</time>
      </trkpt>
      <trkpt lat="22.509613283848758" lon="113.94259876379272">
        <ele>-6.578464405611157</ele>
        <time>2026-08-27T12:01:50Z</time>
      </trkpt>
      <trkpt lat="22.509637483738416" lon="113.9425073564076">
        <ele>-6.68213215097785</ele>
        <time>2026-08-27T12:01:53Z</time>
      </trkpt>
      <trkpt lat="22.50963400153335" lon="113.9424174284599">
        <ele>-7.704156688414514</ele>
        <time>2026-08-27T12:01:56Z</time>
      </trkpt>
      <trkpt lat="22.509700855407765" lon="113.94215658688739">
        <ele>-5.21042740251869</ele>
        <time>2026-08-27T12:02:05Z</time>
      </trkpt>
      <trkpt lat="22.50973959707432" lon="113.94206864363795">
        <ele>-6.439217125065625</ele>
        <time>2026-08-27T12:02:08Z</time>
      </trkpt>
      <trkpt lat="22.50981042900803" lon="113.94181465264543">
        <ele>-4.660999169573188</ele>
        <time>2026-08-27T12:02:17Z</time>
      </trkpt>
      <trkpt lat="22.50984917694247" lon="113.94161124150672">
        <ele>-2.5513403564691544</ele>
        <time>2026-08-27T12:02:23Z</time>
      </trkpt>
      <trkpt lat="22.5098505615083" lon="113.94129241557174">
        <ele>-3.8774166088551283</ele>
        <time>2026-08-27T12:02:32Z</time>
      </trkpt>
      <trkpt lat="22.509829522655394" lon="113.94108231720021">
        <ele>-5.931973417289555</ele>
        <time>2026-08-27T12:02:38Z</time>
      </trkpt>
      <trkpt lat="22.509851680775714" lon="113.94084470240063">
        <ele>-5.459166716784239</ele>
        <time>2026-08-27T12:02:45Z</time>
      </trkpt>
      <trkpt lat="22.509875464769415" lon="113.94074402289529">
        <ele>-5.0507915280759335</ele>
        <time>2026-08-27T12:02:48Z</time>
      </trkpt>
      <trkpt lat="22.510002855339756" lon="113.94048049650377">
        <ele>-4.838904097676277</ele>
        <time>2026-08-27T12:02:57Z</time>
      </trkpt>
      <trkpt lat="22.510060256830617" lon="113.94038400494946">
        <ele>-5.306137905456126</ele>
        <time>2026-08-27T12:03:00Z</time>
      </trkpt>
      <trkpt lat="22.510242615490046" lon="113.94017635818491">
        <ele>-5.266272436827421</ele>
        <time>2026-08-27T12:03:09Z</time>
      </trkpt>
      <trkpt lat="22.51038523869293" lon="113.94010063599076">
        <ele>-7.954522831365466</ele>
        <time>2026-08-27T12:03:15Z</time>
      </trkpt>
      <trkpt lat="22.51054650315645" lon="113.93997690935531">
        <ele>-10.130590223707259</ele>
        <time>2026-08-27T12:03:21Z</time>
      </trkpt>
      <trkpt lat="22.51102044109003" lon="113.93988934967483">
        <ele>-9.836420469917357</ele>
        <time>2026-08-27T12:03:36Z</time>
      </trkpt>
      <trkpt lat="22.51110543525464" lon="113.93998085628512">
        <ele>-9.955094948410988</ele>
        <time>2026-08-27T12:03:42Z</time>
      </trkpt>
      <trkpt lat="22.511291354575363" lon="113.9399145394108">
        <ele>-9.341679772362113</ele>
        <time>2026-08-27T12:03:57Z</time>
      </trkpt>
      <trkpt lat="22.51132416122061" lon="113.93985595653183">
        <ele>-9.397552439011633</ele>
        <time>2026-08-27T12:04:03Z</time>
      </trkpt>
      <trkpt lat="22.511295826257523" lon="113.93975935655784">
        <ele>-8.929019961506128</ele>
        <time>2026-08-27T12:04:09Z</time>
      </trkpt>
      <trkpt lat="22.51124349747442" lon="113.93983637792955">
        <ele>-8.644469564780593</ele>
        <time>2026-08-27T12:04:15Z</time>
      </trkpt>
      <trkpt lat="22.51129095741013" lon="113.93985558610014">
        <ele>-13.941364030353725</ele>
        <time>2026-08-27T12:05:04Z</time>
      </trkpt>
      <trkpt lat="22.51130448456392" lon="113.93992232435129">
        <ele>-7.4451539339497685</ele>
        <time>2026-08-27T12:05:28Z</time>
      </trkpt>
      <trkpt lat="22.51130448456392" lon="113.93992232435129">
        <ele>-7.4451539339497685</ele>
        <time>2026-08-27T12:05:34Z</time>
      </trkpt>
    </trkseg>
  </trk>
</gpx>